Zip Code,Name,Region,Locality
1000,Manila CPO - Ermita,METRO MANILA,MANILA
1001,Quiapo,METRO MANILA,MANILA
1002,Intramuros,METRO MANILA,MANILA
1003,Sta Cruz South,METRO MANILA,MANILA
1004,Malate,METRO MANILA,MANILA
1005,San Miguel,METRO MANILA,MANILA
1006,Binondo,METRO MANILA,MANILA
1007,Paco,METRO MANILA,MANILA
1008,Sampaloc East,METRO MANILA,MANILA
1009,Sta. Ana,METRO MANILA,MANILA
1010,San Nicolas,METRO MANILA,MANILA
1011,Pandacan,METRO MANILA,MANILA
1012,Tondo South,METRO MANILA,MANILA
1013,Tondo North,METRO MANILA,MANILA
1014,Sta Cruz North,METRO MANILA,MANILA
1015,Sampaloc West,METRO MANILA,MANILA
1016,Sta Mesa,METRO MANILA,MANILA
1017,San Andres Bukid,METRO MANILA,MANILA
1018,Port Area (South),METRO MANILA,MANILA
1100,Central,METRO MANILA,QUEZON CITY
1100,Piñahan,METRO MANILA,QUEZON CITY
1100,Project 6,METRO MANILA,QUEZON CITY
1100,Quezon City CPO,METRO MANILA,QUEZON CITY
1101,Botocan,METRO MANILA,QUEZON CITY
1101,Diliman,METRO MANILA,QUEZON CITY
1101,Krus Na Ligas,METRO MANILA,QUEZON CITY
1101,Malaya,METRO MANILA,QUEZON CITY
1101,Old Capitol Site,METRO MANILA,QUEZON CITY
1101,San Vicente,METRO MANILA,QUEZON CITY
1101,Sikatuna Village,METRO MANILA,QUEZON CITY
1101,Teachers Village,METRO MANILA,QUEZON CITY
1101,Univ. of the Phils. PO,METRO MANILA,QUEZON CITY
1101,UP Village,METRO MANILA,QUEZON CITY
1102,Amihan,METRO MANILA,QUEZON CITY
1102,Claro,METRO MANILA,QUEZON CITY
1102,Duyan-duyan,METRO MANILA,QUEZON CITY
1102,E. Rodriguez,METRO MANILA,QUEZON CITY
1102,Kamias,METRO MANILA,QUEZON CITY
1102,Quirino Dist. (Proj. 2 & 3),METRO MANILA,QUEZON CITY
1102,Silangan,METRO MANILA,QUEZON CITY
1103,Kamuning,METRO MANILA,QUEZON CITY
1103,Langing Handa,METRO MANILA,QUEZON CITY
1103,Obrero,METRO MANILA,QUEZON CITY
1103,Paligsahan,METRO MANILA,QUEZON CITY
1103,Roxas District,METRO MANILA,QUEZON CITY
1103,Sacred Heart,METRO MANILA,QUEZON CITY
1103,South Triangle,METRO MANILA,QUEZON CITY
1104,Damayan,METRO MANILA,QUEZON CITY
1104,Mariblo,METRO MANILA,QUEZON CITY
1104,Nayon Kaunlaran,METRO MANILA,QUEZON CITY
1104,Paraiso,METRO MANILA,QUEZON CITY
1104,Phil-am,METRO MANILA,QUEZON CITY
1104,Santa Cruz,METRO MANILA,QUEZON CITY
1104,Talayan,METRO MANILA,QUEZON CITY
1105,Alicia,METRO MANILA,QUEZON CITY
1105,Bagong Pag-asa,METRO MANILA,QUEZON CITY
1105,Bungad,METRO MANILA,QUEZON CITY
1105,Del Monte,METRO MANILA,QUEZON CITY
1105,Katipunan,METRO MANILA,QUEZON CITY
1105,Paltok,METRO MANILA,QUEZON CITY
1105,Project 7,METRO MANILA,QUEZON CITY
1105,R. Magsaysay,METRO MANILA,QUEZON CITY
1105,San Antonio,METRO MANILA,QUEZON CITY
1105,Santo Cristo,METRO MANILA,QUEZON CITY
1105,Veterans Village,METRO MANILA,QUEZON CITY
1106,Apolonio Samson,METRO MANILA,QUEZON CITY
1106,Baesa,METRO MANILA,QUEZON CITY
1106,Bahay Toro,METRO MANILA,QUEZON CITY
1106,Balintawak,METRO MANILA,QUEZON CITY
1106,Balumbato,METRO MANILA,QUEZON CITY
1106,Project 8,METRO MANILA,QUEZON CITY
1106,Salumbato,METRO MANILA,QUEZON CITY
1106,Unang Sigaw,METRO MANILA,QUEZON CITY
1107,New Era,METRO MANILA,QUEZON CITY
1107,Pasong Tamo,METRO MANILA,QUEZON CITY
1108,Loyola Heights,METRO MANILA,QUEZON CITY
1108,Pansol,METRO MANILA,QUEZON CITY
1109,Bagong Buhay,METRO MANILA,QUEZON CITY
1109,Bayanihan,METRO MANILA,QUEZON CITY
1109,Blue Ridge,METRO MANILA,QUEZON CITY
1109,Cubao,METRO MANILA,QUEZON CITY
1109,Dioquino Zobel,METRO MANILA,QUEZON CITY
1109,Escopa,METRO MANILA,QUEZON CITY
1109,Mangga,METRO MANILA,QUEZON CITY
1109,Marilag,METRO MANILA,QUEZON CITY
1109,Masagana,METRO MANILA,QUEZON CITY
1109,Milagrosa,METRO MANILA,QUEZON CITY
1109,Project 4,METRO MANILA,QUEZON CITY
1109,San Roque,METRO MANILA,QUEZON CITY
1109,Socorro,METRO MANILA,QUEZON CITY
1109,Tagumpay,METRO MANILA,QUEZON CITY
1109,Villa Maria Clara,METRO MANILA,QUEZON CITY
1110,Bagong Bayan,METRO MANILA,QUEZON CITY
1110,Camp Aguinaldo,METRO MANILA,QUEZON CITY
1110,Libis,METRO MANILA,QUEZON CITY
1110,St. Ignatius,METRO MANILA,QUEZON CITY
1110,Talampas,METRO MANILA,QUEZON CITY
1110,Ugong Norte,METRO MANILA,QUEZON CITY
1111,Bagong Lipunan,METRO MANILA,QUEZON CITY
1111,Crame,METRO MANILA,QUEZON CITY
1111,Immaculate Concepcion,METRO MANILA,QUEZON CITY
1111,Kaunlaran,METRO MANILA,QUEZON CITY
1111,Pinagkaisahan,METRO MANILA,QUEZON CITY
1111,St. Martin De Porres,METRO MANILA,QUEZON CITY
1112,Damayan Lagi,METRO MANILA,QUEZON CITY
1112,Horseshoe,METRO MANILA,QUEZON CITY
1112,Kalusugan,METRO MANILA,QUEZON CITY
1112,Kristong Hari,METRO MANILA,QUEZON CITY
1112,Mariana,METRO MANILA,QUEZON CITY
1112,Valencia,METRO MANILA,QUEZON CITY
1113,Doña Imelda,METRO MANILA,QUEZON CITY
1113,Don Manuel,METRO MANILA,QUEZON CITY
1113,Doña Aurora,METRO MANILA,QUEZON CITY
1113,Doña Josefa,METRO MANILA,QUEZON CITY
1113,San Isidro,METRO MANILA,QUEZON CITY
1113,Santol,METRO MANILA,QUEZON CITY
1113,Santo Nino,METRO MANILA,QUEZON CITY
1113,Tatalon,METRO MANILA,QUEZON CITY
1114,Gintong Silahis,METRO MANILA,QUEZON CITY
1114,La Loma,METRO MANILA,QUEZON CITY
1114,Lourdes,METRO MANILA,QUEZON CITY
1114,Maharlika,METRO MANILA,QUEZON CITY
1114,Matalahib,METRO MANILA,QUEZON CITY
1114,Paang Bundok,METRO MANILA,QUEZON CITY
1114,Salvacion,METRO MANILA,QUEZON CITY
1114,San Isidro Labrador,METRO MANILA,QUEZON CITY
1114,Santa Teresita,METRO MANILA,QUEZON CITY
1114,Sienna,METRO MANILA,QUEZON CITY
1114,St. Peter,METRO MANILA,QUEZON CITY
1115,Balingasa,METRO MANILA,QUEZON CITY
1115,Damar,METRO MANILA,QUEZON CITY
1115,Manresa,METRO MANILA,QUEZON CITY
1115,Masambong,METRO MANILA,QUEZON CITY
1115,Pag-ibig Sa Nayon,METRO MANILA,QUEZON CITY
1115,San Jose,METRO MANILA,QUEZON CITY
1116,Bagbag,METRO MANILA,QUEZON CITY
1116,San Bartolome,METRO MANILA,QUEZON CITY
1116,Sangandaan,METRO MANILA,QUEZON CITY
1116,Sauyo,METRO MANILA,QUEZON CITY
1116,Talipapa,METRO MANILA,QUEZON CITY
1116,Tandang Sora,METRO MANILA,QUEZON CITY
1117,Capri,METRO MANILA,QUEZON CITY
1117,Gulod,METRO MANILA,QUEZON CITY
1117,San Agustin,METRO MANILA,QUEZON CITY
1117,Santa Lucia,METRO MANILA,QUEZON CITY
1117,Santa Monica,METRO MANILA,QUEZON CITY
1118,Fairview,METRO MANILA,QUEZON CITY
1118,Pasong Putik,METRO MANILA,QUEZON CITY
1119,Bagong Silangan,METRO MANILA,QUEZON CITY
1119,Matandang Balara,METRO MANILA,QUEZON CITY
1119,Payatas,METRO MANILA,QUEZON CITY
1120,BF Homes,METRO MANILA,QUEZON CITY
1121,Commonwealth,METRO MANILA,QUEZON CITY
1121,Fairview North,METRO MANILA,QUEZON CITY
1121,Novaliches Proper,METRO MANILA,QUEZON CITY
1122,Fairview South,METRO MANILA,QUEZON CITY
1123,Damong Maliit,METRO MANILA,QUEZON CITY
1124,Kaligayahan,METRO MANILA,QUEZON CITY
1125,Doña Faustina Subd,METRO MANILA,QUEZON CITY
1125,Nagkaisang Nayon,METRO MANILA,QUEZON CITY
1126,Batasan Hills,METRO MANILA,QUEZON CITY
1126,Capitol Hills/Park,METRO MANILA,QUEZON CITY
1127,Holy Spirit,METRO MANILA,QUEZON CITY
1128,Culiat,METRO MANILA,QUEZON CITY
1128,Vasra,METRO MANILA,QUEZON CITY
1200,Makati CPO (Inc. Buendia Up To Edsa),METRO MANILA,MAKATI CITY
1201,Fort Bonifacio (Camp),METRO MANILA,MAKATI CITY
1202,Fort Bonifacio Naval Stn.,METRO MANILA,MAKATI CITY
1203,San Antonio Village (Inc. Malugay-Yakal),METRO MANILA,MAKATI CITY
1204,La Paz-Singkamas-Tejeros,METRO MANILA,MAKATI CITY
1205,Sta. Cruz,METRO MANILA,MAKATI CITY
1206,Kasilawan,METRO MANILA,MAKATI CITY
1207,Olympia And Carmona,METRO MANILA,MAKATI CITY
1208,"Valenzuela (Inc. Santiago, San Miguel & Rizal Vill.)",METRO MANILA,MAKATI CITY
1209,Bel-air,METRO MANILA,MAKATI CITY
1210,Poblacion,METRO MANILA,MAKATI CITY
1211,Guadalupe Viejo (Inc. Palm Village),METRO MANILA,MAKATI CITY
1212,Guadalupe Nuevo (Inc. Visayan Village),METRO MANILA,MAKATI CITY
1213,Pinagkaisahan-pitogo,METRO MANILA,MAKATI CITY
1214,Cembo,METRO MANILA,MAKATI CITY
1215,Rembo(west),METRO MANILA,MAKATI CITY
1216,Rembo (East) & Malapad Na Bato,METRO MANILA,MAKATI CITY
1217,Comembo,METRO MANILA,MAKATI CITY
1218,Pembo,METRO MANILA,MAKATI CITY
1219,Forbes Park North,METRO MANILA,MAKATI CITY
1220,Forbes Park South,METRO MANILA,MAKATI CITY
1221,Dasmarinas Village North,METRO MANILA,MAKATI CITY
1222,Dasmarinas Village South,METRO MANILA,MAKATI CITY
1223,San Lorenzo Village,METRO MANILA,MAKATI CITY
1224,Makati Commercial Center,METRO MANILA,MAKATI CITY
1225,Urdaneta Village,METRO MANILA,MAKATI CITY
1226,Ayala-Paseo De Roxas,METRO MANILA,MAKATI CITY
1227,Salcedo Village,METRO MANILA,MAKATI CITY
1228,Greenbelt,METRO MANILA,MAKATI CITY
1229,Legaspi Village,METRO MANILA,MAKATI CITY
1230,Pio Del Pilar,METRO MANILA,MAKATI CITY
1231,"Pasong Tamo 2000 Up, Ecology Village",METRO MANILA,MAKATI CITY
1232,Magallanes Village,METRO MANILA,MAKATI CITY
1233,Bangkal,METRO MANILA,MAKATI CITY
1234,San Isidro,METRO MANILA,MAKATI CITY
1235,Palanan,METRO MANILA,MAKATI CITY
1300,Pasay City CPO Malibay,METRO MANILA,PASAY CITY
1301,Domestic Airport Po,METRO MANILA,PASAY CITY
1302,San Rafael,METRO MANILA,PASAY CITY
1303,San Roque,METRO MANILA,PASAY CITY
1304,Santa Clara,METRO MANILA,PASAY CITY
1305,San Jose,METRO MANILA,PASAY CITY
1306,San Isidro,METRO MANILA,PASAY CITY
1307,PICC (Reclamation Area),METRO MANILA,PASAY CITY
1308,Manila Bay (Reclamation),METRO MANILA,PASAY CITY
1309,Villamor Airbase,METRO MANILA,PASAY CITY
1400,Caloocan City CPO,METRO MANILA,CALOOCAN CITY - SOUTH
1401,Baesa,METRO MANILA,CALOOCAN CITY - SOUTH
1402,Santa Quiteria,METRO MANILA,CALOOCAN CITY - SOUTH
1403,Grace Park East,METRO MANILA,CALOOCAN CITY - SOUTH
1404,San Jose,METRO MANILA,CALOOCAN CITY - SOUTH
1405,1st Ave. to 7th Ave. - West,METRO MANILA,CALOOCAN CITY - SOUTH
1406,Grace Park West,METRO MANILA,CALOOCAN CITY - SOUTH
1407,University Hills,METRO MANILA,CALOOCAN CITY - SOUTH
1408,Sangandaan,METRO MANILA,CALOOCAN CITY - SOUTH
1409,Kaunlaran Village,METRO MANILA,CALOOCAN CITY - SOUTH
1409,Kaunlaran Village,METRO MANILA,MALABON CITY
1409,Kaunlaran Village,METRO MANILA,NAVOTAS
1410,Maypajo,METRO MANILA,CALOOCAN CITY - SOUTH
1411,Fish Market,METRO MANILA,CALOOCAN CITY - SOUTH
1411,Fish Market,METRO MANILA,NAVOTAS
1412,Isla de Cocomo,METRO MANILA,CALOOCAN CITY - SOUTH
1412,Isla De Cocomo,METRO MANILA,NAVOTAS
1413,Kapitbahayan East,METRO MANILA,CALOOCAN CITY - SOUTH
1413,Kapitbahayan East,METRO MANILA,NAVOTAS
1420,Kaybiga/Deparo,METRO MANILA,CALOOCAN CITY - NORTH
1421,Bagumbong / Pag-asa,METRO MANILA,CALOOCAN CITY - NORTH
1422,Novaliches North (Camarin North),METRO MANILA,CALOOCAN CITY - NORTH
1423,Lilles Ville Subdivision,METRO MANILA,CALOOCAN CITY - NORTH
1424,Capitol Parkland Subdivision,METRO MANILA,CALOOCAN CITY - NORTH
1425,Amparo Subdivision,METRO MANILA,CALOOCAN CITY - NORTH
1426,Bankers Village,METRO MANILA,CALOOCAN CITY - NORTH
1427,Tala Leprosarium,METRO MANILA,CALOOCAN CITY - NORTH
1427,Victory Heights,METRO MANILA,CALOOCAN CITY - NORTH
1428,Bagong Silang,METRO MANILA,CALOOCAN CITY - NORTH
1440,Valenzuela CPO - Malinta,METRO MANILA,VALENZUELA CITY
1441,Karuhatan,METRO MANILA,VALENZUELA CITY
1442,Fortune Vil. - Paso De Blas - Gen. T. De Leon,METRO MANILA,VALENZUELA CITY
1443,Dalandan - West Canumay,METRO MANILA,VALENZUELA CITY
1444,Arkong Bato-Rincon-Pasolo-Malanday-Mabolo-Polo,METRO MANILA,VALENZUELA CITY
1445,Balangkas-Caloong,METRO MANILA,VALENZUELA CITY
1446,Lingunan,METRO MANILA,VALENZUELA CITY
1447,East Canumay - Lawang Bato Punturin,METRO MANILA,VALENZUELA CITY
1448,Mapulang Lupa,METRO MANILA,VALENZUELA CITY
1469,Valenzuela P.O. Boxes,METRO MANILA,VALENZUELA CITY
1470,Malabon,METRO MANILA,MALABON CITY
1471,Flores,METRO MANILA,MALABON CITY
1472,Longos,METRO MANILA,MALABON CITY
1473,Tonsuya,METRO MANILA,MALABON CITY
1474,Acacia,METRO MANILA,MALABON CITY
1475,Potrero,METRO MANILA,MALABON CITY
1476,Araneta Subdivision,METRO MANILA,MALABON CITY
1477,Maysilo,METRO MANILA,MALABON CITY
1478,Santolan,METRO MANILA,MALABON CITY
1479,Muzon,METRO MANILA,MALABON CITY
1480,Dampalit,METRO MANILA,MALABON CITY
1485,Navotas,METRO MANILA,NAVOTAS
1489,Tangos,METRO MANILA,NAVOTAS
1490,Tanza,METRO MANILA,NAVOTAS
1500,San Juan CPO,METRO MANILA,SAN JUAN CITY
1502,Greenhills PO,METRO MANILA,SAN JUAN CITY
1503,Greenhills North,METRO MANILA,SAN JUAN CITY
1504,Eisenhower-Crame,METRO MANILA,SAN JUAN CITY
1550,Mandaluyong CPO,METRO MANILA,MANDALUYONG CITY
1551,Vergara,METRO MANILA,MANDALUYONG CITY
1552,Shaw Boulevard,METRO MANILA,MANDALUYONG CITY
1553,Phil. Natl. Mental Hospital,METRO MANILA,MANDALUYONG CITY
1554,East Edsa,METRO MANILA,MANDALUYONG CITY
1555,Wack Wack Golf,METRO MANILA,MANDALUYONG CITY
1556,Greenhills South,METRO MANILA,MANDALUYONG CITY
1600,Pasig CPO,METRO MANILA,PASIG CITY
1601,San Joaquin,METRO MANILA,PASIG CITY
1602,Pinagbuhatan,METRO MANILA,PASIG CITY
1603,Kapitolyo,METRO MANILA,PASIG CITY
1604,Ugong,METRO MANILA,PASIG CITY
1605,Ortigas PO,METRO MANILA,PASIG CITY
1606,Caniogan,METRO MANILA,PASIG CITY
1607,Maybunga,METRO MANILA,PASIG CITY
1608,Sta. Lucia,METRO MANILA,PASIG CITY
1609,Rosario,METRO MANILA,PASIG CITY
1610,Santolan,METRO MANILA,PASIG CITY
1611,Manggahan,METRO MANILA,PASIG CITY
1612,Green Park,METRO MANILA,PASIG CITY
1620,Aguho,METRO MANILA,PATEROS
1621,Sta. Ana,METRO MANILA,PATEROS
1630,Bicutan Western,METRO MANILA,TAGUIG CITY
1631,Bicutan,METRO MANILA,TAGUIG CITY
1632,Bicutan Lower,METRO MANILA,TAGUIG CITY
1633,Bicutan Upper,METRO MANILA,TAGUIG CITY
1634,Nichols - Mckinley,METRO MANILA,TAGUIG CITY
1635,Bonifacio Global City,METRO MANILA,TAGUIG CITY
1636,Bay Breeze Exec. Village,METRO MANILA,TAGUIG CITY
1637,Tuktukan,METRO MANILA,TAGUIG CITY
1638,Ligid,METRO MANILA,TAGUIG CITY
1639,Ususan,METRO MANILA,TAGUIG CITY
1700,Parañaque Cpo,METRO MANILA,PARAÑAQUE
1701,Tambo,METRO MANILA,PARAÑAQUE
1702,Baclaran,METRO MANILA,PARAÑAQUE
1703,Marina Subd. (Reclamation),METRO MANILA,PARAÑAQUE
1704,Sto. Nino,METRO MANILA,PARAÑAQUE
1705,Ninoy Aquino Int’l. Airport,METRO MANILA,PARAÑAQUE
1706,Pulo,METRO MANILA,PARAÑAQUE
1707,San Antonio Valley 11 & 12,METRO MANILA,PARAÑAQUE
1708,Multinational Village,METRO MANILA,PARAÑAQUE
1709,Merville Park,METRO MANILA,PARAÑAQUE
1709,Moonwalk,METRO MANILA,PARAÑAQUE
1709,South Admiral Village,METRO MANILA,PARAÑAQUE
1710,Executive Heights Subd.,METRO MANILA,PARAÑAQUE
1711,Better Living Subdivision,METRO MANILA,PARAÑAQUE
1712,Miramar Subdivision,METRO MANILA,PARAÑAQUE
1713,United Subd.,METRO MANILA,PARAÑAQUE
1714,Aeropark Subdivision,METRO MANILA,PARAÑAQUE
1714,Ireneville Ii,METRO MANILA,PARAÑAQUE
1715,San Antonio Valley I,METRO MANILA,PARAÑAQUE
1716,Maywood Village Ii,METRO MANILA,PARAÑAQUE
1717,Manila Memorial Park,METRO MANILA,PARAÑAQUE
1718,Bf Homes 2,METRO MANILA,PARAÑAQUE
1719,Ireneville Subdivision I & Ii,METRO MANILA,PARAÑAQUE
1719,Maywood I,METRO MANILA,PARAÑAQUE
1720,Bf Homes 1,METRO MANILA,PARAÑAQUE
1740,Las Piñas CPO,METRO MANILA,LAS PIÑAS
1741,Remarville Subdivision,METRO MANILA,LAS PIÑAS
1742,Pulang Lupa,METRO MANILA,LAS PIÑAS
1742,Zapote,METRO MANILA,LAS PIÑAS
1743,Cut-cut,METRO MANILA,LAS PIÑAS
1744,Manuyo,METRO MANILA,LAS PIÑAS
1745,Gatchalian Subdivision,METRO MANILA,LAS PIÑAS
1746,Verdant Acres Subdivision,METRO MANILA,LAS PIÑAS
1747,"Talon, Moonwalk",METRO MANILA,LAS PIÑAS
1748,Manila Doctors Village,METRO MANILA,LAS PIÑAS
1749,Angela Village,METRO MANILA,LAS PIÑAS
1750,Almanza,METRO MANILA,LAS PIÑAS
1751,T. S. Cruz Subdivision,METRO MANILA,LAS PIÑAS
1752,Soldiers Hills Subdivision,METRO MANILA,LAS PIÑAS
1770,Muntinlupa CPO,METRO MANILA,MUNTINLUPA CITY
1771,Bule/Cupang,METRO MANILA,MUNTINLUPA CITY
1772,Bayanan/Putatan,METRO MANILA,MUNTINLUPA CITY
1773,Tunasan,METRO MANILA,MUNTINLUPA CITY
1774,Susana Heights,METRO MANILA,MUNTINLUPA CITY
1775,Pearl Heights,METRO MANILA,MUNTINLUPA CITY
1776,Poblacion,METRO MANILA,MUNTINLUPA CITY
1777,Pleasant Village,METRO MANILA,MUNTINLUPA CITY
1780,Ayala Alabang Subdivision,METRO MANILA,MUNTINLUPA CITY
1781,Filinvest Corp. City,METRO MANILA,MUNTINLUPA CITY
1799,Ayala Alabang P.O. Boxes,METRO MANILA,MUNTINLUPA CITY
1800,Marikina CPO - Santa Elena - Santo Niño,METRO MANILA,MARIKINA CITY
1801,San Roque - Calumpang,METRO MANILA,MARIKINA CITY
1802,Industrial Valley,METRO MANILA,MARIKINA CITY
1803,Barangka,METRO MANILA,MARIKINA CITY
1803,Tañong,METRO MANILA,MARIKINA CITY
1804,J. De La Peña,METRO MANILA,MARIKINA CITY
1805,Malanday,METRO MANILA,MARIKINA CITY
1806,Tumana,METRO MANILA,MARIKINA CITY
1807,Concepcion 1,METRO MANILA,MARIKINA CITY
1808,Nangka,METRO MANILA,MARIKINA CITY
1809,Parang,METRO MANILA,MARIKINA CITY
1810,Marikina Heights,METRO MANILA,MARIKINA CITY
1811,Concepcion 2,METRO MANILA,MARIKINA CITY
1812,Fortune,METRO MANILA,MARIKINA CITY
1850,San Mateo,REGION 4A - CALABARZON,RIZAL PROVINCE
1860,Rodriguez (Montalban),REGION 4A - CALABARZON,RIZAL PROVINCE
1870,Antipolo,REGION 4A - CALABARZON,RIZAL PROVINCE
1871,Mayamot,REGION 4A - CALABARZON,RIZAL PROVINCE
1872,Bagong Nayon (Cogeo),REGION 4A - CALABARZON,RIZAL PROVINCE
1873,Cupang,REGION 4A - CALABARZON,RIZAL PROVINCE
1874,Langhaya,REGION 4A - CALABARZON,RIZAL PROVINCE
1875,Mambagat,REGION 4A - CALABARZON,RIZAL PROVINCE
1880,Teresa,REGION 4A - CALABARZON,RIZAL PROVINCE
1900,Cainta,REGION 4A - CALABARZON,RIZAL PROVINCE
1910,Pililla,REGION 4A - CALABARZON,RIZAL PROVINCE
1920,Taytay,REGION 4A - CALABARZON,RIZAL PROVINCE
1930,Angono,REGION 4A - CALABARZON,RIZAL PROVINCE
1940,Binangonan,REGION 4A - CALABARZON,RIZAL PROVINCE
1950,Cardona,REGION 4A - CALABARZON,RIZAL PROVINCE
1960,Morong,REGION 4A - CALABARZON,RIZAL PROVINCE
1970,Baras,REGION 4A - CALABARZON,RIZAL PROVINCE
1980,Tanay,REGION 4A - CALABARZON,RIZAL PROVINCE
1990,Jalajala,REGION 4A - CALABARZON,RIZAL PROVINCE
2000,San Fernando,REGION 3 - CENTRAL LUZON,PAMPANGA
2001,Bacolor,REGION 3 - CENTRAL LUZON,PAMPANGA
2002,Santa Rita,REGION 3 - CENTRAL LUZON,PAMPANGA
2003,Guagua,REGION 3 - CENTRAL LUZON,PAMPANGA
2004,Sasmuan,REGION 3 - CENTRAL LUZON,PAMPANGA
2005,Lubao,REGION 3 - CENTRAL LUZON,PAMPANGA
2006,Floridablanca,REGION 3 - CENTRAL LUZON,PAMPANGA
2007,Basa airbase,REGION 3 - CENTRAL LUZON,PAMPANGA
2008,Porac,REGION 3 - CENTRAL LUZON,PAMPANGA
2009,Angeles City,REGION 3 - CENTRAL LUZON,PAMPANGA
2010,Mabalacat,REGION 3 - CENTRAL LUZON,PAMPANGA
2011,Magalang,REGION 3 - CENTRAL LUZON,PAMPANGA
2012,Arayat,REGION 3 - CENTRAL LUZON,PAMPANGA
2013,Candaba,REGION 3 - CENTRAL LUZON,PAMPANGA
2014,San Luis,REGION 3 - CENTRAL LUZON,PAMPANGA
2015,San Simon,REGION 3 - CENTRAL LUZON,PAMPANGA
2016,Apalit,REGION 3 - CENTRAL LUZON,PAMPANGA
2017,Masantol,REGION 3 - CENTRAL LUZON,PAMPANGA
2018,Macabebe,REGION 3 - CENTRAL LUZON,PAMPANGA
2019,Minalin,REGION 3 - CENTRAL LUZON,PAMPANGA
2020,Santo Tomas,REGION 3 - CENTRAL LUZON,PAMPANGA
2021,Mexico,REGION 3 - CENTRAL LUZON,PAMPANGA
2022,Santa Ana,REGION 3 - CENTRAL LUZON,PAMPANGA
2023,"CSEZ, Clark",REGION 3 - CENTRAL LUZON,PAMPANGA
2024,Balibago,REGION 3 - CENTRAL LUZON,PAMPANGA
2025,"Santa Cruz, Lubao",REGION 3 - CENTRAL LUZON,PAMPANGA
2026,"Dau, Mabalacat",REGION 3 - CENTRAL LUZON,PAMPANGA
2100,Balanga,REGION 3 - CENTRAL LUZON,BATAAN
2101,Pilar,REGION 3 - CENTRAL LUZON,BATAAN
2102,Orion,REGION 3 - CENTRAL LUZON,BATAAN
2103,Limay,REGION 3 - CENTRAL LUZON,BATAAN
2104,Lamao,REGION 3 - CENTRAL LUZON,BATAAN
2105,Mariveles,REGION 3 - CENTRAL LUZON,BATAAN
2106,FAB (Freefort Area of Bataan),REGION 3 - CENTRAL LUZON,BATAAN
2107,Bagac,REGION 3 - CENTRAL LUZON,BATAAN
2108,Morong,REGION 3 - CENTRAL LUZON,BATAAN
2109,Cabcaben,REGION 3 - CENTRAL LUZON,BATAAN
2110,Dinalupihan,REGION 3 - CENTRAL LUZON,BATAAN
2111,Hermosa,REGION 3 - CENTRAL LUZON,BATAAN
2112,Orani,REGION 3 - CENTRAL LUZON,BATAAN
2113,Samal,REGION 3 - CENTRAL LUZON,BATAAN
2114,Abucay,REGION 3 - CENTRAL LUZON,BATAAN
2200,Olongapo City,REGION 3 - CENTRAL LUZON,ZAMBALES
2201,Iba,REGION 3 - CENTRAL LUZON,ZAMBALES
2202,Botolan,REGION 3 - CENTRAL LUZON,ZAMBALES
2203,Cabangan,REGION 3 - CENTRAL LUZON,ZAMBALES
2204,San Felipe,REGION 3 - CENTRAL LUZON,ZAMBALES
2205,San Narciso,REGION 3 - CENTRAL LUZON,ZAMBALES
2206,San Antonio,REGION 3 - CENTRAL LUZON,ZAMBALES
2207,San Marcelino,REGION 3 - CENTRAL LUZON,ZAMBALES
2208,Castillejos,REGION 3 - CENTRAL LUZON,ZAMBALES
2209,Subic,REGION 3 - CENTRAL LUZON,ZAMBALES
2210,Palauig,REGION 3 - CENTRAL LUZON,ZAMBALES
2211,Masinloc,REGION 3 - CENTRAL LUZON,ZAMBALES
2212,Candelaria,REGION 3 - CENTRAL LUZON,ZAMBALES
2213,Sta. Cruz,REGION 3 - CENTRAL LUZON,ZAMBALES
2300,Tarlac,REGION 3 - CENTRAL LUZON,TARLAC
2301,San Miguel,REGION 3 - CENTRAL LUZON,TARLAC
2302,Gerona,REGION 3 - CENTRAL LUZON,TARLAC
2303,Sta. Ignacia,REGION 3 - CENTRAL LUZON,TARLAC
2304,Mayantoc,REGION 3 - CENTRAL LUZON,TARLAC
2305,San Clemente,REGION 3 - CENTRAL LUZON,TARLAC
2306,Camiling,REGION 3 - CENTRAL LUZON,TARLAC
2307,Paniqui,REGION 3 - CENTRAL LUZON,TARLAC
2308,Moncada,REGION 3 - CENTRAL LUZON,TARLAC
2309,San Manuel,REGION 3 - CENTRAL LUZON,TARLAC
2310,Anao,REGION 3 - CENTRAL LUZON,TARLAC
2311,Ramos,REGION 3 - CENTRAL LUZON,TARLAC
2312,Pura,REGION 3 - CENTRAL LUZON,TARLAC
2313,Victoria,REGION 3 - CENTRAL LUZON,TARLAC
2314,La Paz,REGION 3 - CENTRAL LUZON,TARLAC
2315,Capas,REGION 3 - CENTRAL LUZON,TARLAC
2316,Concepcion,REGION 3 - CENTRAL LUZON,TARLAC
2317,Bamban,REGION 3 - CENTRAL LUZON,TARLAC
2318,San Jose,REGION 3 - CENTRAL LUZON,TARLAC
2400,Dagupan City,REGION 1 - ILOCOS REGION,PANGASINAN
2401,Lingayen,REGION 1 - ILOCOS REGION,PANGASINAN
2402,Labrador,REGION 1 - ILOCOS REGION,PANGASINAN
2403,Sual,REGION 1 - ILOCOS REGION,PANGASINAN
2404,Alaminos,REGION 1 - ILOCOS REGION,PANGASINAN
2405,Anda,REGION 1 - ILOCOS REGION,PANGASINAN
2406,Bolinao,REGION 1 - ILOCOS REGION,PANGASINAN
2407,Bani,REGION 1 - ILOCOS REGION,PANGASINAN
2408,Agno,REGION 1 - ILOCOS REGION,PANGASINAN
2409,Mabini,REGION 1 - ILOCOS REGION,PANGASINAN
2410,Burgos,REGION 1 - ILOCOS REGION,PANGASINAN
2411,Dasol,REGION 1 - ILOCOS REGION,PANGASINAN
2412,Infanta,REGION 1 - ILOCOS REGION,PANGASINAN
2413,Mangatarem,REGION 1 - ILOCOS REGION,PANGASINAN
2414,Urbiztondo,REGION 1 - ILOCOS REGION,PANGASINAN
2415,Aguilar,REGION 1 - ILOCOS REGION,PANGASINAN
2416,Bugallon,REGION 1 - ILOCOS REGION,PANGASINAN
2417,Binmaley,REGION 1 - ILOCOS REGION,PANGASINAN
2418,Calasiao,REGION 1 - ILOCOS REGION,PANGASINAN
2419,Santa Barbara,REGION 1 - ILOCOS REGION,PANGASINAN
2420,San Carlos City,REGION 1 - ILOCOS REGION,PANGASINAN
2421,Malasiqui,REGION 1 - ILOCOS REGION,PANGASINAN
2422,Basista,REGION 1 - ILOCOS REGION,PANGASINAN
2423,Bayambang,REGION 1 - ILOCOS REGION,PANGASINAN
2424,Bautista,REGION 1 - ILOCOS REGION,PANGASINAN
2425,Alcala,REGION 1 - ILOCOS REGION,PANGASINAN
2426,SantoTomas,REGION 1 - ILOCOS REGION,PANGASINAN
2427,Villasis,REGION 1 - ILOCOS REGION,PANGASINAN
2428,Urdaneta,REGION 1 - ILOCOS REGION,PANGASINAN
2429,Mapandan,REGION 1 - ILOCOS REGION,PANGASINAN
2430,Manaoag,REGION 1 - ILOCOS REGION,PANGASINAN
2431,San Jacinto,REGION 1 - ILOCOS REGION,PANGASINAN
2432,Mangaldan,REGION 1 - ILOCOS REGION,PANGASINAN
2433,San Fabian,REGION 1 - ILOCOS REGION,PANGASINAN
2434,Sison,REGION 1 - ILOCOS REGION,PANGASINAN
2435,Pozorrubio,REGION 1 - ILOCOS REGION,PANGASINAN
2436,Binalonan,REGION 1 - ILOCOS REGION,PANGASINAN
2437,Laoac,REGION 1 - ILOCOS REGION,PANGASINAN
2438,San Manuel,REGION 1 - ILOCOS REGION,PANGASINAN
2439,Asingan,REGION 1 - ILOCOS REGION,PANGASINAN
2440,Santa Maria,REGION 1 - ILOCOS REGION,PANGASINAN
2441,Rosales,REGION 1 - ILOCOS REGION,PANGASINAN
2442,Balungao,REGION 1 - ILOCOS REGION,PANGASINAN
2443,Umingan,REGION 1 - ILOCOS REGION,PANGASINAN
2444,San Quintin,REGION 1 - ILOCOS REGION,PANGASINAN
2445,Tayug,REGION 1 - ILOCOS REGION,PANGASINAN
2446,Natividad,REGION 1 - ILOCOS REGION,PANGASINAN
2447,San Nicolas,REGION 1 - ILOCOS REGION,PANGASINAN
2500,San Fernando City,REGION 1 - ILOCOS REGION,LA UNION
2501,Bauang,REGION 1 - ILOCOS REGION,LA UNION
2502,Caba,REGION 1 - ILOCOS REGION,LA UNION
2503,Aringay,REGION 1 - ILOCOS REGION,LA UNION
2504,Agoo,REGION 1 - ILOCOS REGION,LA UNION
2505,Santo Tomas,REGION 1 - ILOCOS REGION,LA UNION
2506,Rosario,REGION 1 - ILOCOS REGION,LA UNION
2507,Damortis,REGION 1 - ILOCOS REGION,LA UNION
2508,Pugo,REGION 1 - ILOCOS REGION,LA UNION
2509,Tubao,REGION 1 - ILOCOS REGION,LA UNION
2510,Burgos,REGION 1 - ILOCOS REGION,LA UNION
2511,Naguilian,REGION 1 - ILOCOS REGION,LA UNION
2512,Bagulin,REGION 1 - ILOCOS REGION,LA UNION
2513,San Gabriel,REGION 1 - ILOCOS REGION,LA UNION
2514,San Juan,REGION 1 - ILOCOS REGION,LA UNION
2515,Bacnotan,REGION 1 - ILOCOS REGION,LA UNION
2516,Santol,REGION 1 - ILOCOS REGION,LA UNION
2517,Balaoan,REGION 1 - ILOCOS REGION,LA UNION
2518,Luna,REGION 1 - ILOCOS REGION,LA UNION
2519,Bangar,REGION 1 - ILOCOS REGION,LA UNION
2520,Sudipen,REGION 1 - ILOCOS REGION,LA UNION
2600,Baguio City,REGION 14 - CAR,BENGUET
2601,La Trinidad,REGION 14 - CAR,BENGUET
2602,Philippine Military Academy (PMA),REGION 14 - CAR,BENGUET
2603,Tuba,REGION 14 - CAR,BENGUET
2604,Itogon,REGION 14 - CAR,BENGUET
2605,Bokod,REGION 14 - CAR,BENGUET
2606,Kabayan,REGION 14 - CAR,BENGUET
2607,Buguias,REGION 14 - CAR,BENGUET
2608,Mankayan,REGION 14 - CAR,BENGUET
2609,Lepanto,REGION 14 - CAR,BENGUET
2610,Bakun,REGION 14 - CAR,BENGUET
2611,Kibungan,REGION 14 - CAR,BENGUET
2612,Atok,REGION 14 - CAR,BENGUET
2613,Kapangan,REGION 14 - CAR,BENGUET
2614,Sablan,REGION 14 - CAR,BENGUET
2615,Tublay,REGION 14 - CAR,BENGUET
2616,Bontoc,REGION 14 - CAR,MOUNTAIN PROVINCE
2617,Sadanga,REGION 14 - CAR,MOUNTAIN PROVINCE
2618,Besao,REGION 14 - CAR,MOUNTAIN PROVINCE
2619,Sagada,REGION 14 - CAR,MOUNTAIN PROVINCE
2620,Tadian,REGION 14 - CAR,MOUNTAIN PROVINCE
2621,Bauko,REGION 14 - CAR,MOUNTAIN PROVINCE
2622,Sabangan,REGION 14 - CAR,MOUNTAIN PROVINCE
2623,Barlig,REGION 14 - CAR,MOUNTAIN PROVINCE
2624,Natonin,REGION 14 - CAR,MOUNTAIN PROVINCE
2625,Paracelis,REGION 14 - CAR,MOUNTAIN PROVINCE
2700,Vigan,REGION 1 - ILOCOS REGION,ILOCOS SUR
2701,Santa Catalina,REGION 1 - ILOCOS REGION,ILOCOS SUR
2702,Caoayan,REGION 1 - ILOCOS REGION,ILOCOS SUR
2703,Santa,REGION 1 - ILOCOS REGION,ILOCOS SUR
2704,Narvacan,REGION 1 - ILOCOS REGION,ILOCOS SUR
2705,Santa Maria,REGION 1 - ILOCOS REGION,ILOCOS SUR
2706,San Esteban,REGION 1 - ILOCOS REGION,ILOCOS SUR
2707,Santiago,REGION 1 - ILOCOS REGION,ILOCOS SUR
2708,Banayoyo,REGION 1 - ILOCOS REGION,ILOCOS SUR
2709,Galimuyod,REGION 1 - ILOCOS REGION,ILOCOS SUR
2710,Candon,REGION 1 - ILOCOS REGION,ILOCOS SUR
2711,Salcedo (Baugen),REGION 1 - ILOCOS REGION,ILOCOS SUR
2712,Santa Lucia,REGION 1 - ILOCOS REGION,ILOCOS SUR
2713,Santa Cruz,REGION 1 - ILOCOS REGION,ILOCOS SUR
2714,Tagudin,REGION 1 - ILOCOS REGION,ILOCOS SUR
2715,Suyo,REGION 1 - ILOCOS REGION,ILOCOS SUR
2716,Alilem,REGION 1 - ILOCOS REGION,ILOCOS SUR
2717,Sugpon,REGION 1 - ILOCOS REGION,ILOCOS SUR
2718,Cervantes,REGION 1 - ILOCOS REGION,ILOCOS SUR
2719,Sigay,REGION 1 - ILOCOS REGION,ILOCOS SUR
2720,Gregorio del Pilar (Concepcion),REGION 1 - ILOCOS REGION,ILOCOS SUR
2721,Quirino (Angkaki),REGION 1 - ILOCOS REGION,ILOCOS SUR
2722,San Emilio,REGION 1 - ILOCOS REGION,ILOCOS SUR
2723,Lidlidda,REGION 1 - ILOCOS REGION,ILOCOS SUR
2724,Burgos,REGION 1 - ILOCOS REGION,ILOCOS SUR
2725,Nagbukel,REGION 1 - ILOCOS REGION,ILOCOS SUR
2726,San Vicente,REGION 1 - ILOCOS REGION,ILOCOS SUR
2727,Bantay,REGION 1 - ILOCOS REGION,ILOCOS SUR
2728,San Ildefonso,REGION 1 - ILOCOS REGION,ILOCOS SUR
2729,Santo Domingo,REGION 1 - ILOCOS REGION,ILOCOS SUR
2730,Magsingal,REGION 1 - ILOCOS REGION,ILOCOS SUR
2731,San Juan (Lapog),REGION 1 - ILOCOS REGION,ILOCOS SUR
2732,Cabugao,REGION 1 - ILOCOS REGION,ILOCOS SUR
2733,Sinait,REGION 1 - ILOCOS REGION,ILOCOS SUR
2800,Bangued,REGION 14 - CAR,ABRA
2801,Dolores,REGION 14 - CAR,ABRA
2802,Lagangilang,REGION 14 - CAR,ABRA
2803,Tayum,REGION 14 - CAR,ABRA
2804,Peñarrubia,REGION 14 - CAR,ABRA
2805,Bucay,REGION 14 - CAR,ABRA
2806,Pidigan,REGION 14 - CAR,ABRA
2807,Langiden,REGION 14 - CAR,ABRA
2808,San Quintin,REGION 14 - CAR,ABRA
2809,San Isidro,REGION 14 - CAR,ABRA
2810,Manabo,REGION 14 - CAR,ABRA
2811,Villaviciosa,REGION 14 - CAR,ABRA
2812,Pilar,REGION 14 - CAR,ABRA
2813,Luba,REGION 14 - CAR,ABRA
2814,Tubo,REGION 14 - CAR,ABRA
2815,Boliney,REGION 14 - CAR,ABRA
2816,Daguioman,REGION 14 - CAR,ABRA
2817,Bucloc,REGION 14 - CAR,ABRA
2818,Sallapadan,REGION 14 - CAR,ABRA
2819,Licuan-Baay,REGION 14 - CAR,ABRA
2820,Malibcong,REGION 14 - CAR,ABRA
2821,Lacub,REGION 14 - CAR,ABRA
2822,Tineg,REGION 14 - CAR,ABRA
2823,San Juan,REGION 14 - CAR,ABRA
2824,Lagayan,REGION 14 - CAR,ABRA
2825,Danglas,REGION 14 - CAR,ABRA
2826,La Paz,REGION 14 - CAR,ABRA
2900,Laoag City,REGION 1 - ILOCOS REGION,ILOCOS NORTE
2901,San Nicolas,REGION 1 - ILOCOS REGION,ILOCOS NORTE
2902,Paoay,REGION 1 - ILOCOS REGION,ILOCOS NORTE
2903,Currimao,REGION 1 - ILOCOS REGION,ILOCOS NORTE
2904,Badoc,REGION 1 - ILOCOS REGION,ILOCOS NORTE
2905,Pinili,REGION 1 - ILOCOS REGION,ILOCOS NORTE
2906,Batac,REGION 1 - ILOCOS REGION,ILOCOS NORTE
2907,Marcos,REGION 1 - ILOCOS REGION,ILOCOS NORTE
2908,Banna (formerly Espiritu),REGION 1 - ILOCOS REGION,ILOCOS NORTE
2909,Nueva Era,REGION 1 - ILOCOS REGION,ILOCOS NORTE
2910,Solsona,REGION 1 - ILOCOS REGION,ILOCOS NORTE
2911,Carasi,REGION 1 - ILOCOS REGION,ILOCOS NORTE
2912,Piddig,REGION 1 - ILOCOS REGION,ILOCOS NORTE
2913,Dingras,REGION 1 - ILOCOS REGION,ILOCOS NORTE
2914,Sarrat,REGION 1 - ILOCOS REGION,ILOCOS NORTE
2915,Vintar,REGION 1 - ILOCOS REGION,ILOCOS NORTE
2916,Bacarra,REGION 1 - ILOCOS REGION,ILOCOS NORTE
2917,Pasuquin,REGION 1 - ILOCOS REGION,ILOCOS NORTE
2918,Burgos,REGION 1 - ILOCOS REGION,ILOCOS NORTE
2919,Pagudpud,REGION 1 - ILOCOS REGION,ILOCOS NORTE
2920,Bangui,REGION 1 - ILOCOS REGION,ILOCOS NORTE
2921,Dumalneg,REGION 1 - ILOCOS REGION,ILOCOS NORTE
2922,Adams,REGION 1 - ILOCOS REGION,ILOCOS NORTE
3000,Malolos,REGION 3 - CENTRAL LUZON,BULACAN
3001,Paombong,REGION 3 - CENTRAL LUZON,BULACAN
3002,Hagonoy,REGION 3 - CENTRAL LUZON,BULACAN
3003,Calumpit,REGION 3 - CENTRAL LUZON,BULACAN
3004,Plaridel,REGION 3 - CENTRAL LUZON,BULACAN
3005,Pulilan,REGION 3 - CENTRAL LUZON,BULACAN
3006,Baliuag,REGION 3 - CENTRAL LUZON,BULACAN
3007,Bustos,REGION 3 - CENTRAL LUZON,BULACAN
3008,San Rafael,REGION 3 - CENTRAL LUZON,BULACAN
3009,Doña Remedios Trinidad,REGION 3 - CENTRAL LUZON,BULACAN
3010,San Ildefonso,REGION 3 - CENTRAL LUZON,BULACAN
3011,San Miguel,REGION 3 - CENTRAL LUZON,BULACAN
3012,Angat,REGION 3 - CENTRAL LUZON,BULACAN
3013,Norzagaray,REGION 3 - CENTRAL LUZON,BULACAN
3014,Pandi,REGION 3 - CENTRAL LUZON,BULACAN
3015,Guiguinto,REGION 3 - CENTRAL LUZON,BULACAN
3016,Balagtas,REGION 3 - CENTRAL LUZON,BULACAN
3017,Bulacan,REGION 3 - CENTRAL LUZON,BULACAN
3018,Bocaue,REGION 3 - CENTRAL LUZON,BULACAN
3019,Marilao,REGION 3 - CENTRAL LUZON,BULACAN
3020,Meycauayan,REGION 3 - CENTRAL LUZON,BULACAN
3021,Obando,REGION 3 - CENTRAL LUZON,BULACAN
3022,Sta. Maria,REGION 3 - CENTRAL LUZON,BULACAN
3023,San Jose Del Monte,REGION 3 - CENTRAL LUZON,BULACAN
3024,Sapang Palay,REGION 3 - CENTRAL LUZON,BULACAN
3025,Cruz na Daan,REGION 3 - CENTRAL LUZON,BULACAN
3100,Cabanatuan City,REGION 3 - CENTRAL LUZON,NUEVA ECIJA
3101,Sta. Rosa,REGION 3 - CENTRAL LUZON,NUEVA ECIJA
3102,San Leonardo,REGION 3 - CENTRAL LUZON,NUEVA ECIJA
3103,Peñaranda,REGION 3 - CENTRAL LUZON,NUEVA ECIJA
3104,Gen. Tinio,REGION 3 - CENTRAL LUZON,NUEVA ECIJA
3105,Gapan City,REGION 3 - CENTRAL LUZON,NUEVA ECIJA
3106,San Isidro,REGION 3 - CENTRAL LUZON,NUEVA ECIJA
3107,Cabiao,REGION 3 - CENTRAL LUZON,NUEVA ECIJA
3108,San Antonio,REGION 3 - CENTRAL LUZON,NUEVA ECIJA
3109,Jaen,REGION 3 - CENTRAL LUZON,NUEVA ECIJA
3110,Zaragoza,REGION 3 - CENTRAL LUZON,NUEVA ECIJA
3111,Aliaga,REGION 3 - CENTRAL LUZON,NUEVA ECIJA
3112,Licab,REGION 3 - CENTRAL LUZON,NUEVA ECIJA
3113,Quezon,REGION 3 - CENTRAL LUZON,NUEVA ECIJA
3114,Talavera,REGION 3 - CENTRAL LUZON,NUEVA ECIJA
3115,Guimba,REGION 3 - CENTRAL LUZON,NUEVA ECIJA
3116,Nampicuan,REGION 3 - CENTRAL LUZON,NUEVA ECIJA
3117,Cuyapo,REGION 3 - CENTRAL LUZON,NUEVA ECIJA
3118,Talugtog,REGION 3 - CENTRAL LUZON,NUEVA ECIJA
3119,Muñoz,REGION 3 - CENTRAL LUZON,NUEVA ECIJA
3120,Central Luzon State University,REGION 3 - CENTRAL LUZON,NUEVA ECIJA
3121,San Jose City,REGION 3 - CENTRAL LUZON,NUEVA ECIJA
3122,Lupao,REGION 3 - CENTRAL LUZON,NUEVA ECIJA
3123,Carrangalan,REGION 3 - CENTRAL LUZON,NUEVA ECIJA
3124,Pantabangan,REGION 3 - CENTRAL LUZON,NUEVA ECIJA
3125,Gen. M. Natividad,REGION 3 - CENTRAL LUZON,NUEVA ECIJA
3126,Llanera,REGION 3 - CENTRAL LUZON,NUEVA ECIJA
3127,Rizal,REGION 3 - CENTRAL LUZON,NUEVA ECIJA
3128,Bongabon,REGION 3 - CENTRAL LUZON,NUEVA ECIJA
3129,Laur,REGION 3 - CENTRAL LUZON,NUEVA ECIJA
3130,Fort Magsaysay,REGION 3 - CENTRAL LUZON,NUEVA ECIJA
3131,Gabaldon,REGION 3 - CENTRAL LUZON,NUEVA ECIJA
3132,Palayan City,REGION 3 - CENTRAL LUZON,NUEVA ECIJA
3133,Sto. Domingo,REGION 3 - CENTRAL LUZON,NUEVA ECIJA
3200,Baler,REGION 3 - CENTRAL LUZON,AURORA
3201,San Luis,REGION 3 - CENTRAL LUZON,AURORA
3202,Maria Aurora,REGION 3 - CENTRAL LUZON,AURORA
3203,Dipaculao,REGION 3 - CENTRAL LUZON,AURORA
3204,Casiguran,REGION 3 - CENTRAL LUZON,AURORA
3205,Dilasag,REGION 3 - CENTRAL LUZON,AURORA
3206,Dinalungan,REGION 3 - CENTRAL LUZON,AURORA
3207,Dingalan,REGION 3 - CENTRAL LUZON,AURORA
3300,City of Ilagan,REGION 2 - CAGAYAN VALLEY,ISABELA
3301,Gamu,REGION 2 - CAGAYAN VALLEY,ISABELA
3302,Naguillan,REGION 2 - CAGAYAN VALLEY,ISABELA
3303,Reina Mercedes,REGION 2 - CAGAYAN VALLEY,ISABELA
3304,Luna,REGION 2 - CAGAYAN VALLEY,ISABELA
3305,City of Cauayan,REGION 2 - CAGAYAN VALLEY,ISABELA
3306,Alicia,REGION 2 - CAGAYAN VALLEY,ISABELA
3307,Angadanan,REGION 2 - CAGAYAN VALLEY,ISABELA
3308,San Guillermo,REGION 2 - CAGAYAN VALLEY,ISABELA
3309,Echague,REGION 2 - CAGAYAN VALLEY,ISABELA
3310,San Isidro,REGION 2 - CAGAYAN VALLEY,ISABELA
3311,Santiago CIty,REGION 2 - CAGAYAN VALLEY,ISABELA
3312,Cordon,REGION 2 - CAGAYAN VALLEY,ISABELA
3313,Jones,REGION 2 - CAGAYAN VALLEY,ISABELA
3314,San Agustin,REGION 2 - CAGAYAN VALLEY,ISABELA
3315,Cabatuan,REGION 2 - CAGAYAN VALLEY,ISABELA
3316,Aurora,REGION 2 - CAGAYAN VALLEY,ISABELA
3317,San Manuel,REGION 2 - CAGAYAN VALLEY,ISABELA
3318,San Mateo,REGION 2 - CAGAYAN VALLEY,ISABELA
3319,Ramon,REGION 2 - CAGAYAN VALLEY,ISABELA
3320,Roxas,REGION 2 - CAGAYAN VALLEY,ISABELA
3321,Quirino,REGION 2 - CAGAYAN VALLEY,ISABELA
3322,Burgos,REGION 2 - CAGAYAN VALLEY,ISABELA
3323,Mallig,REGION 2 - CAGAYAN VALLEY,ISABELA
3324,Quezon,REGION 2 - CAGAYAN VALLEY,ISABELA
3325,Tumauini,REGION 2 - CAGAYAN VALLEY,ISABELA
3326,Delfin Albano,REGION 2 - CAGAYAN VALLEY,ISABELA
3327,Sto. Tomas,REGION 2 - CAGAYAN VALLEY,ISABELA
3328,Cabagan,REGION 2 - CAGAYAN VALLEY,ISABELA
3329,San Pablo,REGION 2 - CAGAYAN VALLEY,ISABELA
3330,Sta. Maria,REGION 2 - CAGAYAN VALLEY,ISABELA
3331,Benito Soliven,REGION 2 - CAGAYAN VALLEY,ISABELA
3332,San Mariano,REGION 2 - CAGAYAN VALLEY,ISABELA
3333,Maconacon,REGION 2 - CAGAYAN VALLEY,ISABELA
3334,Palanan,REGION 2 - CAGAYAN VALLEY,ISABELA
3335,Divilacan,REGION 2 - CAGAYAN VALLEY,ISABELA
3336,Dinapigue,REGION 2 - CAGAYAN VALLEY,ISABELA
3400,Cabarroguis,REGION 2 - CAGAYAN VALLEY,QUIRINO
3401,Diffun,REGION 2 - CAGAYAN VALLEY,QUIRINO
3402,Saguday,REGION 2 - CAGAYAN VALLEY,QUIRINO
3403,Aglipay,REGION 2 - CAGAYAN VALLEY,QUIRINO
3404,Maddela,REGION 2 - CAGAYAN VALLEY,QUIRINO
3405,Nagtipunan,REGION 2 - CAGAYAN VALLEY,QUIRINO
3500,Tuguegarao City,REGION 2 - CAGAYAN VALLEY,CAGAYAN
3501,Enrile,REGION 2 - CAGAYAN VALLEY,CAGAYAN
3502,Peñablanca,REGION 2 - CAGAYAN VALLEY,CAGAYAN
3503,Solana,REGION 2 - CAGAYAN VALLEY,CAGAYAN
3504,Iguig,REGION 2 - CAGAYAN VALLEY,CAGAYAN
3505,Amulung,REGION 2 - CAGAYAN VALLEY,CAGAYAN
3506,Baggao,REGION 2 - CAGAYAN VALLEY,CAGAYAN
3507,Alcala,REGION 2 - CAGAYAN VALLEY,CAGAYAN
3508,Gattaran,REGION 2 - CAGAYAN VALLEY,CAGAYAN
3509,Lal-lo,REGION 2 - CAGAYAN VALLEY,CAGAYAN
3510,Camalaniugan,REGION 2 - CAGAYAN VALLEY,CAGAYAN
3511,Buguey,REGION 2 - CAGAYAN VALLEY,CAGAYAN
3512,Sta. Teresita,REGION 2 - CAGAYAN VALLEY,CAGAYAN
3513,Gonzaga,REGION 2 - CAGAYAN VALLEY,CAGAYAN
3514,Sta. Ana,REGION 2 - CAGAYAN VALLEY,CAGAYAN
3515,Aparri,REGION 2 - CAGAYAN VALLEY,CAGAYAN
3516,Ballesteros,REGION 2 - CAGAYAN VALLEY,CAGAYAN
3517,Abulug,REGION 2 - CAGAYAN VALLEY,CAGAYAN
3518,Sanchez-Mira,REGION 2 - CAGAYAN VALLEY,CAGAYAN
3519,Claveria,REGION 2 - CAGAYAN VALLEY,CAGAYAN
3520,Calayan,REGION 2 - CAGAYAN VALLEY,CAGAYAN
3521,Santa Praxedes,REGION 2 - CAGAYAN VALLEY,CAGAYAN
3522,Pamplona,REGION 2 - CAGAYAN VALLEY,CAGAYAN
3523,Allacapan,REGION 2 - CAGAYAN VALLEY,CAGAYAN
3524,Lasam,REGION 2 - CAGAYAN VALLEY,CAGAYAN
3525,Santo Niño,REGION 2 - CAGAYAN VALLEY,CAGAYAN
3526,Rizal,REGION 2 - CAGAYAN VALLEY,CAGAYAN
3527,Piat,REGION 2 - CAGAYAN VALLEY,CAGAYAN
3528,Tuao,REGION 2 - CAGAYAN VALLEY,CAGAYAN
3600,Lagawe,REGION 14 - CAR,IFUGAO
3601,Banaue,REGION 14 - CAR,IFUGAO
3602,Mayoyao,REGION 14 - CAR,IFUGAO
3603,Hungduan,REGION 14 - CAR,IFUGAO
3604,Kiangan,REGION 14 - CAR,IFUGAO
3605,Lamut,REGION 14 - CAR,IFUGAO
3606,Aguinaldo,REGION 14 - CAR,IFUGAO
3607,Hingyon,REGION 14 - CAR,IFUGAO
3608,Alfonso Lista (formerly Potia),REGION 14 - CAR,IFUGAO
3609,Tinoc,REGION 14 - CAR,IFUGAO
3610,Asipulo,REGION 14 - CAR,IFUGAO
3700,Bayombong,REGION 2 - CAGAYAN VALLEY,NUEVA VIZCAYA
3701,Ambaguio,REGION 2 - CAGAYAN VALLEY,NUEVA VIZCAYA
3702,Bambang,REGION 2 - CAGAYAN VALLEY,NUEVA VIZCAYA
3703,Kasibu,REGION 2 - CAGAYAN VALLEY,NUEVA VIZCAYA
3704,Aritao,REGION 2 - CAGAYAN VALLEY,NUEVA VIZCAYA
3705,Sta. Fe,REGION 2 - CAGAYAN VALLEY,NUEVA VIZCAYA
3706,Dupax del Norte,REGION 2 - CAGAYAN VALLEY,NUEVA VIZCAYA
3707,Dupax del Sur,REGION 2 - CAGAYAN VALLEY,NUEVA VIZCAYA
3708,Kayapa,REGION 2 - CAGAYAN VALLEY,NUEVA VIZCAYA
3709,Solano,REGION 2 - CAGAYAN VALLEY,NUEVA VIZCAYA
3710,Villaverde,REGION 2 - CAGAYAN VALLEY,NUEVA VIZCAYA
3711,Bagabag,REGION 2 - CAGAYAN VALLEY,NUEVA VIZCAYA
3712,Diadi,REGION 2 - CAGAYAN VALLEY,NUEVA VIZCAYA
3713,Quezon,REGION 2 - CAGAYAN VALLEY,NUEVA VIZCAYA
3714,Alfonso Castañeda,REGION 2 - CAGAYAN VALLEY,NUEVA VIZCAYA
3800,Tabuk City,REGION 14 - CAR,KALINGA-APAYAO
3801,Balbalan,REGION 14 - CAR,KALINGA-APAYAO
3802,Lubuagan,REGION 14 - CAR,KALINGA-APAYAO
3803,Pasil,REGION 14 - CAR,KALINGA-APAYAO
3804,Tinglayan,REGION 14 - CAR,KALINGA-APAYAO
3805,Tanudan,REGION 14 - CAR,KALINGA-APAYAO
3806,Pinukpuk,REGION 14 - CAR,KALINGA-APAYAO
3807,Conner,REGION 14 - CAR,KALINGA-APAYAO
3808,Rizal,REGION 14 - CAR,KALINGA-APAYAO
3809,Kabugao,REGION 14 - CAR,KALINGA-APAYAO
3810,Flora,REGION 14 - CAR,KALINGA-APAYAO
3811,Santa Marcela,REGION 14 - CAR,KALINGA-APAYAO
3812,Pudtol,REGION 14 - CAR,KALINGA-APAYAO
3813,Luna,REGION 14 - CAR,KALINGA-APAYAO
3814,Calanasan,REGION 14 - CAR,KALINGA-APAYAO
3900,Basco,REGION 2 - CAGAYAN VALLEY,BATANES
3901,Mahatao,REGION 2 - CAGAYAN VALLEY,BATANES
3902,Ivana,REGION 2 - CAGAYAN VALLEY,BATANES
3903,Uyugan,REGION 2 - CAGAYAN VALLEY,BATANES
3904,Sabtang,REGION 2 - CAGAYAN VALLEY,BATANES
3905,Itbayat,REGION 2 - CAGAYAN VALLEY,BATANES
4000,San Pablo City,REGION 4A - CALABARZON,LAGUNA
4001,Alaminos,REGION 4A - CALABARZON,LAGUNA
4002,Nagcarlan,REGION 4A - CALABARZON,LAGUNA
4003,Rizal,REGION 4A - CALABARZON,LAGUNA
4004,Liliw,REGION 4A - CALABARZON,LAGUNA
4005,Majayjay,REGION 4A - CALABARZON,LAGUNA
4006,Botocan,REGION 4A - CALABARZON,LAGUNA
4007,Magdalena,REGION 4A - CALABARZON,LAGUNA
4008,Pagsanjan,REGION 4A - CALABARZON,LAGUNA
4009,Sta. Cruz,REGION 4A - CALABARZON,LAGUNA
4010,Pila,REGION 4A - CALABARZON,LAGUNA
4011,Victoria,REGION 4A - CALABARZON,LAGUNA
4012,Caluan,REGION 4A - CALABARZON,LAGUNA
4013,Cavinti,REGION 4A - CALABARZON,LAGUNA
4014,Lumban,REGION 4A - CALABARZON,LAGUNA
4015,Kalayaan,REGION 4A - CALABARZON,LAGUNA
4016,Paete,REGION 4A - CALABARZON,LAGUNA
4017,Pakil,REGION 4A - CALABARZON,LAGUNA
4018,Pangil,REGION 4A - CALABARZON,LAGUNA
4019,Siniloan,REGION 4A - CALABARZON,LAGUNA
4020,Mabitac,REGION 4A - CALABARZON,LAGUNA
4021,Famy,REGION 4A - CALABARZON,LAGUNA
4022,Sta. Maria,REGION 4A - CALABARZON,LAGUNA
4023,San Pedro,REGION 4A - CALABARZON,LAGUNA
4024,Biñan,REGION 4A - CALABARZON,LAGUNA
4025,Cabuyao,REGION 4A - CALABARZON,LAGUNA
4026,Sta. Rosa,REGION 4A - CALABARZON,LAGUNA
4027,Calamba,REGION 4A - CALABARZON,LAGUNA
4028,Canlubang,REGION 4A - CALABARZON,LAGUNA
4029,Camp Vicente Lim,REGION 4A - CALABARZON,LAGUNA
4030,Los Baños,REGION 4A - CALABARZON,LAGUNA
4031,College Los Baños,REGION 4A - CALABARZON,LAGUNA
4032,Luisiana,REGION 4A - CALABARZON,LAGUNA
4033,Bay,REGION 4A - CALABARZON,LAGUNA
4034,Laguna Technopark,REGION 4A - CALABARZON,LAGUNA
4100,Cavite City,REGION 4A - CALABARZON,CAVITE
4101,Cavite Naval Base,REGION 4A - CALABARZON,CAVITE
4102,Bacoor,REGION 4A - CALABARZON,CAVITE
4103,Imus,REGION 4A - CALABARZON,CAVITE
4104,Kawit,REGION 4A - CALABARZON,CAVITE
4105,Noveleta,REGION 4A - CALABARZON,CAVITE
4106,Rosario,REGION 4A - CALABARZON,CAVITE
4107,Gen. Trias,REGION 4A - CALABARZON,CAVITE
4108,Tanza,REGION 4A - CALABARZON,CAVITE
4109,Trece Martirez City,REGION 4A - CALABARZON,CAVITE
4110,Naic,REGION 4A - CALABARZON,CAVITE
4111,Ternate,REGION 4A - CALABARZON,CAVITE
4112,Maragondon,REGION 4A - CALABARZON,CAVITE
4113,Magallanes,REGION 4A - CALABARZON,CAVITE
4114,Dasmariñas,REGION 4A - CALABARZON,CAVITE
4115,Dasmariñas Resettlement Area,REGION 4A - CALABARZON,CAVITE
4116,Carmona,REGION 4A - CALABARZON,CAVITE
4117,Gen. Mariano Alvarez,REGION 4A - CALABARZON,CAVITE
4118,Silang,REGION 4A - CALABARZON,CAVITE
4119,Amadeo,REGION 4A - CALABARZON,CAVITE
4120,Tagaytay,REGION 4A - CALABARZON,CAVITE
4121,Mendez,REGION 4A - CALABARZON,CAVITE
4122,Indang,REGION 4A - CALABARZON,CAVITE
4123,Alfonso,REGION 4A - CALABARZON,CAVITE
4124,Gen. Aguinaldo (Bailen),REGION 4A - CALABARZON,CAVITE
4125,Corregidor,REGION 4A - CALABARZON,CAVITE
4126,Ist Cavite IND. Estate,REGION 4A - CALABARZON,CAVITE
4135,Molino,REGION 4A - CALABARZON,CAVITE
4200,Batangas City,REGION 4A - CALABARZON,BATANGAS
4201,Bauan,REGION 4A - CALABARZON,BATANGAS
4202,Mabini,REGION 4A - CALABARZON,BATANGAS
4203,Tingloy,REGION 4A - CALABARZON,BATANGAS
4204,San Pascual,REGION 4A - CALABARZON,BATANGAS
4205,Alitagtag,REGION 4A - CALABARZON,BATANGAS
4206,Sta. Teresita,REGION 4A - CALABARZON,BATANGAS
4207,San Nicolas,REGION 4A - CALABARZON,BATANGAS
4208,Taal,REGION 4A - CALABARZON,BATANGAS
4209,Lemery,REGION 4A - CALABARZON,BATANGAS
4210,San Luis,REGION 4A - CALABARZON,BATANGAS
4211,Agoncillo,REGION 4A - CALABARZON,BATANGAS
4212,Calaca,REGION 4A - CALABARZON,BATANGAS
4213,Balayan,REGION 4A - CALABARZON,BATANGAS
4214,Tuy,REGION 4A - CALABARZON,BATANGAS
4215,Calatagan,REGION 4A - CALABARZON,BATANGAS
4216,Lian,REGION 4A - CALABARZON,BATANGAS
4217,Lipa City,REGION 4A - CALABARZON,BATANGAS
4218,Fernando Airbase,REGION 4A - CALABARZON,BATANGAS
4219,Balete,REGION 4A - CALABARZON,BATANGAS
4220,Talisay,REGION 4A - CALABARZON,BATANGAS
4221,Laurel,REGION 4A - CALABARZON,BATANGAS
4222,Cuenca,REGION 4A - CALABARZON,BATANGAS
4223,Mataas na Kahoy,REGION 4A - CALABARZON,BATANGAS
4224,Padre Garcia,REGION 4A - CALABARZON,BATANGAS
4225,Rosario,REGION 4A - CALABARZON,BATANGAS
4226,San Juan,REGION 4A - CALABARZON,BATANGAS
4227,San Jose,REGION 4A - CALABARZON,BATANGAS
4228,Taysan,REGION 4A - CALABARZON,BATANGAS
4229,Lobo,REGION 4A - CALABARZON,BATANGAS
4230,Ibaan,REGION 4A - CALABARZON,BATANGAS
4231,Nasugbu,REGION 4A - CALABARZON,BATANGAS
4232,Tanauan,REGION 4A - CALABARZON,BATANGAS
4233,Malvar,REGION 4A - CALABARZON,BATANGAS
4234,Sto. Tomas,REGION 4A - CALABARZON,BATANGAS
4300,Quezon Capitol,REGION 4A - CALABARZON,QUEZON PROVINCE
4301,Lucena City,REGION 4A - CALABARZON,QUEZON PROVINCE
4302,Pagbilao,REGION 4A - CALABARZON,QUEZON PROVINCE
4303,Padre Burgos,REGION 4A - CALABARZON,QUEZON PROVINCE
4304,Agdangan,REGION 4A - CALABARZON,QUEZON PROVINCE
4305,Unisan,REGION 4A - CALABARZON,QUEZON PROVINCE
4306,Plaridel,REGION 4A - CALABARZON,QUEZON PROVINCE
4307,Gumaca,REGION 4A - CALABARZON,QUEZON PROVINCE
4308,Pitogo,REGION 4A - CALABARZON,QUEZON PROVINCE
4309,Macalelon,REGION 4A - CALABARZON,QUEZON PROVINCE
4310,General Luna,REGION 4A - CALABARZON,QUEZON PROVINCE
4311,Catanauan,REGION 4A - CALABARZON,QUEZON PROVINCE
4312,Mulanay,REGION 4A - CALABARZON,QUEZON PROVINCE
4313,San Narciso,REGION 4A - CALABARZON,QUEZON PROVINCE
4314,San Andres,REGION 4A - CALABARZON,QUEZON PROVINCE
4315,San Francisco,REGION 4A - CALABARZON,QUEZON PROVINCE
4316,Lopez,REGION 4A - CALABARZON,QUEZON PROVINCE
4317,Hondagua,REGION 4A - CALABARZON,QUEZON PROVINCE
4318,Calauag,REGION 4A - CALABARZON,QUEZON PROVINCE
4319,Guinayangan,REGION 4A - CALABARZON,QUEZON PROVINCE
4320,Buenavista,REGION 4A - CALABARZON,QUEZON PROVINCE
4321,Tagkawayan,REGION 4A - CALABARZON,QUEZON PROVINCE
4322,Sariaya,REGION 4A - CALABARZON,QUEZON PROVINCE
4323,Candelaria,REGION 4A - CALABARZON,QUEZON PROVINCE
4324,San Antonio,REGION 4A - CALABARZON,QUEZON PROVINCE
4325,Tiaong,REGION 4A - CALABARZON,QUEZON PROVINCE
4326,Dolores,REGION 4A - CALABARZON,QUEZON PROVINCE
4327,Tayabas,REGION 4A - CALABARZON,QUEZON PROVINCE
4328,Lucban,REGION 4A - CALABARZON,QUEZON PROVINCE
4329,Sampaloc,REGION 4A - CALABARZON,QUEZON PROVINCE
4330,Mauban,REGION 4A - CALABARZON,QUEZON PROVINCE
4331,Atimonan,REGION 4A - CALABARZON,QUEZON PROVINCE
4332,Quezon,REGION 4A - CALABARZON,QUEZON PROVINCE
4333,Alabat,REGION 4A - CALABARZON,QUEZON PROVINCE
4334,Perez,REGION 4A - CALABARZON,QUEZON PROVINCE
4335,Real,REGION 4A - CALABARZON,QUEZON PROVINCE
4336,Infanta,REGION 4A - CALABARZON,QUEZON PROVINCE
4337,Panukulan,REGION 4A - CALABARZON,QUEZON PROVINCE
4338,General Nakar,REGION 4A - CALABARZON,QUEZON PROVINCE
4339,Polilio,REGION 4A - CALABARZON,QUEZON PROVINCE
4340,Burdeos,REGION 4A - CALABARZON,QUEZON PROVINCE
4341,Patnanungan,REGION 4A - CALABARZON,QUEZON PROVINCE
4342,Jomalig,REGION 4A - CALABARZON,QUEZON PROVINCE
4400,Naga City,REGION 5 - BICOL REGION,CAMARINES SUR
4401,Camaligan,REGION 5 - BICOL REGION,CAMARINES SUR
4402,Canaman,REGION 5 - BICOL REGION,CAMARINES SUR
4403,Magarao,REGION 5 - BICOL REGION,CAMARINES SUR
4404,Bombon,REGION 5 - BICOL REGION,CAMARINES SUR
4405,Calabanga,REGION 5 - BICOL REGION,CAMARINES SUR
4406,Cabusao,REGION 5 - BICOL REGION,CAMARINES SUR
4407,Libmanan,REGION 5 - BICOL REGION,CAMARINES SUR
4408,Sipocot,REGION 5 - BICOL REGION,CAMARINES SUR
4409,Lupi,REGION 5 - BICOL REGION,CAMARINES SUR
4410,Ragay,REGION 5 - BICOL REGION,CAMARINES SUR
4411,Del Gallego,REGION 5 - BICOL REGION,CAMARINES SUR
4412,Gainza,REGION 5 - BICOL REGION,CAMARINES SUR
4413,Milaor,REGION 5 - BICOL REGION,CAMARINES SUR
4414,Minalabac,REGION 5 - BICOL REGION,CAMARINES SUR
4415,San Fernando,REGION 5 - BICOL REGION,CAMARINES SUR
4416,Pamplona,REGION 5 - BICOL REGION,CAMARINES SUR
4417,Pasacao,REGION 5 - BICOL REGION,CAMARINES SUR
4418,Pili,REGION 5 - BICOL REGION,CAMARINES SUR
4419,Ocampo,REGION 5 - BICOL REGION,CAMARINES SUR
4420,Tigaon,REGION 5 - BICOL REGION,CAMARINES SUR
4421,Sagnay,REGION 5 - BICOL REGION,CAMARINES SUR
4422,Goa,REGION 5 - BICOL REGION,CAMARINES SUR
4423,San Jose,REGION 5 - BICOL REGION,CAMARINES SUR
4424,Presentacion,REGION 5 - BICOL REGION,CAMARINES SUR
4425,Lagonoy,REGION 5 - BICOL REGION,CAMARINES SUR
4426,Tinambac,REGION 5 - BICOL REGION,CAMARINES SUR
4427,Siruma,REGION 5 - BICOL REGION,CAMARINES SUR
4428,Garchitorena,REGION 5 - BICOL REGION,CAMARINES SUR
4429,Caramoan,REGION 5 - BICOL REGION,CAMARINES SUR
4430,Bula,REGION 5 - BICOL REGION,CAMARINES SUR
4431,Iriga City,REGION 5 - BICOL REGION,CAMARINES SUR
4432,Baao,REGION 5 - BICOL REGION,CAMARINES SUR
4433,Buhi,REGION 5 - BICOL REGION,CAMARINES SUR
4434,Nabua,REGION 5 - BICOL REGION,CAMARINES SUR
4435,Bato,REGION 5 - BICOL REGION,CAMARINES SUR
4436,Balatan,REGION 5 - BICOL REGION,CAMARINES SUR
4500,Legazpi City,REGION 5 - BICOL REGION,ALBAY
4501,Daraga (Locsin),REGION 5 - BICOL REGION,ALBAY
4502,Camalig,REGION 5 - BICOL REGION,ALBAY
4503,Guinobatan,REGION 5 - BICOL REGION,ALBAY
4504,Ligao,REGION 5 - BICOL REGION,ALBAY
4505,Oas,REGION 5 - BICOL REGION,ALBAY
4506,Polangui,REGION 5 - BICOL REGION,ALBAY
4507,Libon,REGION 5 - BICOL REGION,ALBAY
4508,Sto. Domingo,REGION 5 - BICOL REGION,ALBAY
4509,Bacacay,REGION 5 - BICOL REGION,ALBAY
4510,Malilipot,REGION 5 - BICOL REGION,ALBAY
4511,Tabaco,REGION 5 - BICOL REGION,ALBAY
4512,Malinao,REGION 5 - BICOL REGION,ALBAY
4513,Tiwi,REGION 5 - BICOL REGION,ALBAY
4514,Manito,REGION 5 - BICOL REGION,ALBAY
4515,Jovellar,REGION 5 - BICOL REGION,ALBAY
4516,Pio Duran (Malacbalac),REGION 5 - BICOL REGION,ALBAY
4517,Rapu-Rapu,REGION 5 - BICOL REGION,ALBAY
4600,Daet,REGION 5 - BICOL REGION,CAMARINES NORTE
4601,Mercedes,REGION 5 - BICOL REGION,CAMARINES NORTE
4602,Talisay,REGION 5 - BICOL REGION,CAMARINES NORTE
4603,Vinzons,REGION 5 - BICOL REGION,CAMARINES NORTE
4604,Labo,REGION 5 - BICOL REGION,CAMARINES NORTE
4605,Paracale,REGION 5 - BICOL REGION,CAMARINES NORTE
4606,Jose Panganiban,REGION 5 - BICOL REGION,CAMARINES NORTE
4607,Capalonga,REGION 5 - BICOL REGION,CAMARINES NORTE
4608,Basud,REGION 5 - BICOL REGION,CAMARINES NORTE
4609,San Vicente,REGION 5 - BICOL REGION,CAMARINES NORTE
4610,San Lorenzo Ruiz (formerly Imelda),REGION 5 - BICOL REGION,CAMARINES NORTE
4611,Sta. Elena,REGION 5 - BICOL REGION,CAMARINES NORTE
4612,Tulay na Lupa,REGION 5 - BICOL REGION,CAMARINES NORTE
4700,Sorsogon,REGION 5 - BICOL REGION,SORSOGON
4701,Bacon,REGION 5 - BICOL REGION,SORSOGON
4702,Casiguran,REGION 5 - BICOL REGION,SORSOGON
4703,Juban,REGION 5 - BICOL REGION,SORSOGON
4704,Bulusan,REGION 5 - BICOL REGION,SORSOGON
4705,Magallanes,REGION 5 - BICOL REGION,SORSOGON
4706,Bulan,REGION 5 - BICOL REGION,SORSOGON
4707,Irosin,REGION 5 - BICOL REGION,SORSOGON
4708,Matnog,REGION 5 - BICOL REGION,SORSOGON
4709,Sta. Magdalena,REGION 5 - BICOL REGION,SORSOGON
4710,Gubat,REGION 5 - BICOL REGION,SORSOGON
4711,Prieto Diaz,REGION 5 - BICOL REGION,SORSOGON
4712,Barcelona,REGION 5 - BICOL REGION,SORSOGON
4713,Castilla,REGION 5 - BICOL REGION,SORSOGON
4714,Pilar,REGION 5 - BICOL REGION,SORSOGON
4715,Donsol,REGION 5 - BICOL REGION,SORSOGON
4800,Virac,REGION 5 - BICOL REGION,CATANDUANES
4801,Bato,REGION 5 - BICOL REGION,CATANDUANES
4802,San Miguel,REGION 5 - BICOL REGION,CATANDUANES
4803,Baras,REGION 5 - BICOL REGION,CATANDUANES
4804,Gigmoto,REGION 5 - BICOL REGION,CATANDUANES
4805,Viga,REGION 5 - BICOL REGION,CATANDUANES
4806,Panganiban,REGION 5 - BICOL REGION,CATANDUANES
4807,Bagamanoc,REGION 5 - BICOL REGION,CATANDUANES
4808,Caramoran,REGION 5 - BICOL REGION,CATANDUANES
4809,Pandan,REGION 5 - BICOL REGION,CATANDUANES
4810,San Andres,REGION 5 - BICOL REGION,CATANDUANES
4900,Boac,REGION 4B - MIMAROPA,MARINDUQUE
4901,Mogpog,REGION 4B - MIMAROPA,MARINDUQUE
4902,Sta. Cruz,REGION 4B - MIMAROPA,MARINDUQUE
4903,Torrijos,REGION 4B - MIMAROPA,MARINDUQUE
4904,Buenavista,REGION 4B - MIMAROPA,MARINDUQUE
4905,Gasan,REGION 4B - MIMAROPA,MARINDUQUE
5000,Iloilo City,REGION 6 - WESTERN VISAYAS,ILOILO
5001,Pavia,REGION 6 - WESTERN VISAYAS,ILOILO
5002,Santa Barbara,REGION 6 - WESTERN VISAYAS,ILOILO
5003,Leganes,REGION 6 - WESTERN VISAYAS,ILOILO
5004,Zarraga,REGION 6 - WESTERN VISAYAS,ILOILO
5005,New Lucena,REGION 6 - WESTERN VISAYAS,ILOILO
5006,Dumangas,REGION 6 - WESTERN VISAYAS,ILOILO
5007,Barotac Nuevo,REGION 6 - WESTERN VISAYAS,ILOILO
5008,Pototan,REGION 6 - WESTERN VISAYAS,ILOILO
5009,Anilao,REGION 6 - WESTERN VISAYAS,ILOILO
5010,Banate,REGION 6 - WESTERN VISAYAS,ILOILO
5011,Barotac Viejo,REGION 6 - WESTERN VISAYAS,ILOILO
5012,Ajuy,REGION 6 - WESTERN VISAYAS,ILOILO
5013,Concepcion,REGION 6 - WESTERN VISAYAS,ILOILO
5014,Sara,REGION 6 - WESTERN VISAYAS,ILOILO
5015,San Dionisio,REGION 6 - WESTERN VISAYAS,ILOILO
5016,Batad,REGION 6 - WESTERN VISAYAS,ILOILO
5017,Estancia,REGION 6 - WESTERN VISAYAS,ILOILO
5018,Balasan,REGION 6 - WESTERN VISAYAS,ILOILO
5019,Carles,REGION 6 - WESTERN VISAYAS,ILOILO
5020,Oton,REGION 6 - WESTERN VISAYAS,ILOILO
5021,Tigbauan,REGION 6 - WESTERN VISAYAS,ILOILO
5022,Guimbal,REGION 6 - WESTERN VISAYAS,ILOILO
5023,Miagao,REGION 6 - WESTERN VISAYAS,ILOILO
5024,San Joaquin,REGION 6 - WESTERN VISAYAS,ILOILO
5025,San Miguel,REGION 6 - WESTERN VISAYAS,ILOILO
5026,Leon,REGION 6 - WESTERN VISAYAS,ILOILO
5027,Tubungan,REGION 6 - WESTERN VISAYAS,ILOILO
5028,Alimodian,REGION 6 - WESTERN VISAYAS,ILOILO
5029,Igbaras,REGION 6 - WESTERN VISAYAS,ILOILO
5030,Maasin,REGION 6 - WESTERN VISAYAS,ILOILO
5031,Cabatuan,REGION 6 - WESTERN VISAYAS,ILOILO
5032,Mina,REGION 6 - WESTERN VISAYAS,ILOILO
5033,Badiangan,REGION 6 - WESTERN VISAYAS,ILOILO
5034,Janiuay,REGION 6 - WESTERN VISAYAS,ILOILO
5035,Dingle,REGION 6 - WESTERN VISAYAS,ILOILO
5036,San Enrique,REGION 6 - WESTERN VISAYAS,ILOILO
5037,Passi,REGION 6 - WESTERN VISAYAS,ILOILO
5038,Dueñas,REGION 6 - WESTERN VISAYAS,ILOILO
5039,San Rafael,REGION 6 - WESTERN VISAYAS,ILOILO
5040,Calinog,REGION 6 - WESTERN VISAYAS,ILOILO
5041,Bingawan,REGION 6 - WESTERN VISAYAS,ILOILO
5042,Lambunao,REGION 6 - WESTERN VISAYAS,ILOILO
5043,Lemery,REGION 6 - WESTERN VISAYAS,ILOILO
5044,Buenavista,REGION 6 - WESTERN VISAYAS,GUIMARAS
5045,Jordan,REGION 6 - WESTERN VISAYAS,GUIMARAS
5046,Nueva Valencia,REGION 6 - WESTERN VISAYAS,GUIMARAS
5047,San Lorenzo,REGION 6 - WESTERN VISAYAS,GUIMARAS
5048,Sibunag,REGION 6 - WESTERN VISAYAS,GUIMARAS
5100,San Jose,REGION 4B - MIMAROPA,OCCIDENTAL MINDORO
5101,Magsaysay,REGION 4B - MIMAROPA,OCCIDENTAL MINDORO
5102,Calintaan,REGION 4B - MIMAROPA,OCCIDENTAL MINDORO
5103,Rizal,REGION 4B - MIMAROPA,OCCIDENTAL MINDORO
5104,Sablayan,REGION 4B - MIMAROPA,OCCIDENTAL MINDORO
5105,Sta. Cruz,REGION 4B - MIMAROPA,OCCIDENTAL MINDORO
5106,Mamburao,REGION 4B - MIMAROPA,OCCIDENTAL MINDORO
5107,Palauan,REGION 4B - MIMAROPA,OCCIDENTAL MINDORO
5108,Abra de Ilog,REGION 4B - MIMAROPA,OCCIDENTAL MINDORO
5109,Lubang,REGION 4B - MIMAROPA,OCCIDENTAL MINDORO
5110,Tilik,REGION 4B - MIMAROPA,OCCIDENTAL MINDORO
5111,Looc,REGION 4B - MIMAROPA,OCCIDENTAL MINDORO
5200,Calapan,REGION 4B - MIMAROPA,ORIENTAL MINDORO
5201,Baco,REGION 4B - MIMAROPA,ORIENTAL MINDORO
5202,San Teodoro,REGION 4B - MIMAROPA,ORIENTAL MINDORO
5203,Puerto Galera,REGION 4B - MIMAROPA,ORIENTAL MINDORO
5204,Naujan,REGION 4B - MIMAROPA,ORIENTAL MINDORO
5205,Victoria,REGION 4B - MIMAROPA,ORIENTAL MINDORO
5206,Pola,REGION 4B - MIMAROPA,ORIENTAL MINDORO
5207,Socorro,REGION 4B - MIMAROPA,ORIENTAL MINDORO
5208,Pinamalayan,REGION 4B - MIMAROPA,ORIENTAL MINDORO
5209,Gloria,REGION 4B - MIMAROPA,ORIENTAL MINDORO
5210,Bansud,REGION 4B - MIMAROPA,ORIENTAL MINDORO
5211,Bongabong,REGION 4B - MIMAROPA,ORIENTAL MINDORO
5212,Roxas,REGION 4B - MIMAROPA,ORIENTAL MINDORO
5213,Mansalay,REGION 4B - MIMAROPA,ORIENTAL MINDORO
5214,Bulalacao,REGION 4B - MIMAROPA,ORIENTAL MINDORO
5300,Puerto Princesa City,REGION 4B - MIMAROPA,PALAWAN
5301,Iwahig Penal Colony,REGION 4B - MIMAROPA,PALAWAN
5302,Aborlan,REGION 4B - MIMAROPA,PALAWAN
5303,Narra (Panacan),REGION 4B - MIMAROPA,PALAWAN
5304,Quezon,REGION 4B - MIMAROPA,PALAWAN
5305,Brooke's Point,REGION 4B - MIMAROPA,PALAWAN
5306,Batazara,REGION 4B - MIMAROPA,PALAWAN
5307,Balabac,REGION 4B - MIMAROPA,PALAWAN
5308,Roxas,REGION 4B - MIMAROPA,PALAWAN
5309,San Vicente,REGION 4B - MIMAROPA,PALAWAN
5310,Dumaran,REGION 4B - MIMAROPA,PALAWAN
5311,Araceli,REGION 4B - MIMAROPA,PALAWAN
5312,Taytay,REGION 4B - MIMAROPA,PALAWAN
5313,El Nido (Baquit),REGION 4B - MIMAROPA,PALAWAN
5314,Linapacan,REGION 4B - MIMAROPA,PALAWAN
5315,Culion,REGION 4B - MIMAROPA,PALAWAN
5316,Coron,REGION 4B - MIMAROPA,PALAWAN
5317,Busuanga,REGION 4B - MIMAROPA,PALAWAN
5318,Cuyo,REGION 4B - MIMAROPA,PALAWAN
5319,Magsaysay,REGION 4B - MIMAROPA,PALAWAN
5320,Agutaya,REGION 4B - MIMAROPA,PALAWAN
5321,Cagayancillo,REGION 4B - MIMAROPA,PALAWAN
5322,Kalayaan,REGION 4B - MIMAROPA,PALAWAN
5323,Rizal (Marcos),REGION 4B - MIMAROPA,PALAWAN
5324,Sofronio Española,REGION 4B - MIMAROPA,PALAWAN
5400,Masbate,REGION 5 - BICOL REGION,MASBATE
5401,Mobo,REGION 5 - BICOL REGION,MASBATE
5402,Uson,REGION 5 - BICOL REGION,MASBATE
5403,Dimasalang,REGION 5 - BICOL REGION,MASBATE
5404,Palanas,REGION 5 - BICOL REGION,MASBATE
5405,Cataingan,REGION 5 - BICOL REGION,MASBATE
5406,Pio V. Corpuz,REGION 5 - BICOL REGION,MASBATE
5407,Esperanza,REGION 5 - BICOL REGION,MASBATE
5408,Placer,REGION 5 - BICOL REGION,MASBATE
5409,Cawayan,REGION 5 - BICOL REGION,MASBATE
5410,Milagros,REGION 5 - BICOL REGION,MASBATE
5411,Mandaon,REGION 5 - BICOL REGION,MASBATE
5412,Balud,REGION 5 - BICOL REGION,MASBATE
5413,Baleno,REGION 5 - BICOL REGION,MASBATE
5414,Aroroy,REGION 5 - BICOL REGION,MASBATE
5415,Batuan,REGION 5 - BICOL REGION,MASBATE
5416,San Fernando,REGION 5 - BICOL REGION,MASBATE
5417,San Jacinto,REGION 5 - BICOL REGION,MASBATE
5418,Monreal,REGION 5 - BICOL REGION,MASBATE
5419,Claveria,REGION 5 - BICOL REGION,MASBATE
5420,San Pascual,REGION 5 - BICOL REGION,MASBATE
5421,Buenavista,REGION 5 - BICOL REGION,MASBATE
5500,Romblon,REGION 4B - MIMAROPA,ROMBLON
5501,San Agustin,REGION 4B - MIMAROPA,ROMBLON
5502,Sta. Maria (Imelda),REGION 4B - MIMAROPA,ROMBLON
5503,Calatrava,REGION 4B - MIMAROPA,ROMBLON
5504,San Andres,REGION 4B - MIMAROPA,ROMBLON
5505,Odiongan,REGION 4B - MIMAROPA,ROMBLON
5506,Ferrol,REGION 4B - MIMAROPA,ROMBLON
5507,Looc,REGION 4B - MIMAROPA,ROMBLON
5508,Sta. Fe,REGION 4B - MIMAROPA,ROMBLON
5509,Alcantara,REGION 4B - MIMAROPA,ROMBLON
5510,San Jose,REGION 4B - MIMAROPA,ROMBLON
5511,Magdiwang,REGION 4B - MIMAROPA,ROMBLON
5512,Cajidiocan,REGION 4B - MIMAROPA,ROMBLON
5513,San fernando,REGION 4B - MIMAROPA,ROMBLON
5514,Corcuera,REGION 4B - MIMAROPA,ROMBLON
5515,Banton (Jones),REGION 4B - MIMAROPA,ROMBLON
5516,Concepcion,REGION 4B - MIMAROPA,ROMBLON
5600,Kalibo,REGION 6 - WESTERN VISAYAS,AKLAN
5601,Banga,REGION 6 - WESTERN VISAYAS,AKLAN
5602,Libacao,REGION 6 - WESTERN VISAYAS,AKLAN
5603,Madalag,REGION 6 - WESTERN VISAYAS,AKLAN
5604,Numancia,REGION 6 - WESTERN VISAYAS,AKLAN
5605,Lezo,REGION 6 - WESTERN VISAYAS,AKLAN
5606,Malinao,REGION 6 - WESTERN VISAYAS,AKLAN
5607,Nabas,REGION 6 - WESTERN VISAYAS,AKLAN
5608,Malay,REGION 6 - WESTERN VISAYAS,AKLAN
5609,Buruanga,REGION 6 - WESTERN VISAYAS,AKLAN
5610,New Washington,REGION 6 - WESTERN VISAYAS,AKLAN
5611,Makato,REGION 6 - WESTERN VISAYAS,AKLAN
5612,Tangalan,REGION 6 - WESTERN VISAYAS,AKLAN
5613,Ibajay,REGION 6 - WESTERN VISAYAS,AKLAN
5614,Balete,REGION 6 - WESTERN VISAYAS,AKLAN
5615,Batan,REGION 6 - WESTERN VISAYAS,AKLAN
5616,Altavas,REGION 6 - WESTERN VISAYAS,AKLAN
5700,San Jose de Buanavista,REGION 6 - WESTERN VISAYAS,ANTIQUE
5701,Belison,REGION 6 - WESTERN VISAYAS,ANTIQUE
5702,Patnongon,REGION 6 - WESTERN VISAYAS,ANTIQUE
5703,Valderrama,REGION 6 - WESTERN VISAYAS,ANTIQUE
5704,Bugasong,REGION 6 - WESTERN VISAYAS,ANTIQUE
5705,Laua-an,REGION 6 - WESTERN VISAYAS,ANTIQUE
5706,Barbaza,REGION 6 - WESTERN VISAYAS,ANTIQUE
5707,Tibiao,REGION 6 - WESTERN VISAYAS,ANTIQUE
5708,Culasi,REGION 6 - WESTERN VISAYAS,ANTIQUE
5709,Sebaste,REGION 6 - WESTERN VISAYAS,ANTIQUE
5710,Libertad,REGION 6 - WESTERN VISAYAS,ANTIQUE
5711,Caluya,REGION 6 - WESTERN VISAYAS,ANTIQUE
5712,Pandan,REGION 6 - WESTERN VISAYAS,ANTIQUE
5713,Sibalom,REGION 6 - WESTERN VISAYAS,ANTIQUE
5714,San Remegio,REGION 6 - WESTERN VISAYAS,ANTIQUE
5715,Hamtic,REGION 6 - WESTERN VISAYAS,ANTIQUE
5716,Tobias Fornier (Dao),REGION 6 - WESTERN VISAYAS,ANTIQUE
5717,Anini-y,REGION 6 - WESTERN VISAYAS,ANTIQUE
5800,Roxas City,REGION 6 - WESTERN VISAYAS,CAPIZ
5801,Panay,REGION 6 - WESTERN VISAYAS,CAPIZ
5802,Pontevedra,REGION 6 - WESTERN VISAYAS,CAPIZ
5803,President Roxas,REGION 6 - WESTERN VISAYAS,CAPIZ
5804,Pilar,REGION 6 - WESTERN VISAYAS,CAPIZ
5805,Ivisan,REGION 6 - WESTERN VISAYAS,CAPIZ
5806,Sapian,REGION 6 - WESTERN VISAYAS,CAPIZ
5807,Mambusao,REGION 6 - WESTERN VISAYAS,CAPIZ
5808,Jamindan,REGION 6 - WESTERN VISAYAS,CAPIZ
5809,Maayon,REGION 6 - WESTERN VISAYAS,CAPIZ
5810,Dao,REGION 6 - WESTERN VISAYAS,CAPIZ
5811,Cuartero,REGION 6 - WESTERN VISAYAS,CAPIZ
5812,Dumarao,REGION 6 - WESTERN VISAYAS,CAPIZ
5813,Dumalag,REGION 6 - WESTERN VISAYAS,CAPIZ
5814,Tapaz,REGION 6 - WESTERN VISAYAS,CAPIZ
5815,Panitan,REGION 6 - WESTERN VISAYAS,CAPIZ
5816,Sigma,REGION 6 - WESTERN VISAYAS,CAPIZ
6000,Cebu City,REGION 7 - CENTRAL VISAYAS,CEBU
6001,Consolacion,REGION 7 - CENTRAL VISAYAS,CEBU
6002,Liloan,REGION 7 - CENTRAL VISAYAS,CEBU
6003,Compostela,REGION 7 - CENTRAL VISAYAS,CEBU
6004,Danao City,REGION 7 - CENTRAL VISAYAS,CEBU
6005,Carmen,REGION 7 - CENTRAL VISAYAS,CEBU
6006,Catmon,REGION 7 - CENTRAL VISAYAS,CEBU
6007,Sogod,REGION 7 - CENTRAL VISAYAS,CEBU
6008,Borbon,REGION 7 - CENTRAL VISAYAS,CEBU
6009,Tabogon,REGION 7 - CENTRAL VISAYAS,CEBU
6010,Bogo,REGION 7 - CENTRAL VISAYAS,CEBU
6011,San Remegio,REGION 7 - CENTRAL VISAYAS,CEBU
6012,Medellin,REGION 7 - CENTRAL VISAYAS,CEBU
6013,DaanBantayan,REGION 7 - CENTRAL VISAYAS,CEBU
6014,Mandaue City,REGION 7 - CENTRAL VISAYAS,CEBU
6015,Lapu-Lapu City,REGION 7 - CENTRAL VISAYAS,CEBU
6016,Mactan Airport,REGION 7 - CENTRAL VISAYAS,CEBU
6017,Cordova,REGION 7 - CENTRAL VISAYAS,CEBU
6018,San Fernando,REGION 7 - CENTRAL VISAYAS,CEBU
6019,Carcar,REGION 7 - CENTRAL VISAYAS,CEBU
6020,Sibonga,REGION 7 - CENTRAL VISAYAS,CEBU
6021,Argao,REGION 7 - CENTRAL VISAYAS,CEBU
6022,Dalaguete,REGION 7 - CENTRAL VISAYAS,CEBU
6023,Alcoy,REGION 7 - CENTRAL VISAYAS,CEBU
6024,Boljoon,REGION 7 - CENTRAL VISAYAS,CEBU
6025,Oslob,REGION 7 - CENTRAL VISAYAS,CEBU
6026,Santander,REGION 7 - CENTRAL VISAYAS,CEBU
6027,Samboan,REGION 7 - CENTRAL VISAYAS,CEBU
6028,Ginatilan,REGION 7 - CENTRAL VISAYAS,CEBU
6029,Malabuyoc,REGION 7 - CENTRAL VISAYAS,CEBU
6030,Alegria,REGION 7 - CENTRAL VISAYAS,CEBU
6031,Badian,REGION 7 - CENTRAL VISAYAS,CEBU
6032,Moalboal,REGION 7 - CENTRAL VISAYAS,CEBU
6033,Alcantara,REGION 7 - CENTRAL VISAYAS,CEBU
6034,Ronda,REGION 7 - CENTRAL VISAYAS,CEBU
6035,Dumanjug,REGION 7 - CENTRAL VISAYAS,CEBU
6036,Barili,REGION 7 - CENTRAL VISAYAS,CEBU
6037,Naga,REGION 7 - CENTRAL VISAYAS,CEBU
6038,Toledo City,REGION 7 - CENTRAL VISAYAS,CEBU
6039,Pinamungajan,REGION 7 - CENTRAL VISAYAS,CEBU
6040,Aloguinsan,REGION 7 - CENTRAL VISAYAS,CEBU
6041,Balamban,REGION 7 - CENTRAL VISAYAS,CEBU
6042,Asturias,REGION 7 - CENTRAL VISAYAS,CEBU
6043,Tuburan,REGION 7 - CENTRAL VISAYAS,CEBU
6044,Tabuelan,REGION 7 - CENTRAL VISAYAS,CEBU
6045,Talisay,REGION 7 - CENTRAL VISAYAS,CEBU
6046,Minglanilla,REGION 7 - CENTRAL VISAYAS,CEBU
6047,Santa Fe,REGION 7 - CENTRAL VISAYAS,CEBU
6048,Pilar,REGION 7 - CENTRAL VISAYAS,CEBU
6049,Poro,REGION 7 - CENTRAL VISAYAS,CEBU
6050,San Francisco,REGION 7 - CENTRAL VISAYAS,CEBU
6051,Tudela,REGION 7 - CENTRAL VISAYAS,CEBU
6052,Bantayan,REGION 7 - CENTRAL VISAYAS,CEBU
6053,Madridejos,REGION 7 - CENTRAL VISAYAS,CEBU
6100,Bacolod City,REGION 18 - NIR,NEGROS OCCIDENTAL
6101,Bago City,REGION 18 - NIR,NEGROS OCCIDENTAL
6102,Pulupandan,REGION 18 - NIR,NEGROS OCCIDENTAL
6103,Valladolid,REGION 18 - NIR,NEGROS OCCIDENTAL
6104,San Enrique,REGION 18 - NIR,NEGROS OCCIDENTAL
6105,Pontevedra,REGION 18 - NIR,NEGROS OCCIDENTAL
6106,Hinigaran,REGION 18 - NIR,NEGROS OCCIDENTAL
6107,Binalbagan,REGION 18 - NIR,NEGROS OCCIDENTAL
6108,Himamaylan,REGION 18 - NIR,NEGROS OCCIDENTAL
6109,Ilog,REGION 18 - NIR,NEGROS OCCIDENTAL
6110,Candoni,REGION 18 - NIR,NEGROS OCCIDENTAL
6111,Kabankalan,REGION 18 - NIR,NEGROS OCCIDENTAL
6112,Cauayan,REGION 18 - NIR,NEGROS OCCIDENTAL
6113,Sipalay,REGION 18 - NIR,NEGROS OCCIDENTAL
6114,Hinoba-an (Asia),REGION 18 - NIR,NEGROS OCCIDENTAL
6115,Talisay,REGION 18 - NIR,NEGROS OCCIDENTAL
6116,Silay City,REGION 18 - NIR,NEGROS OCCIDENTAL
6117,Silay Hawaiian Central,REGION 18 - NIR,NEGROS OCCIDENTAL
6118,Enrique Magalona,REGION 18 - NIR,NEGROS OCCIDENTAL
6119,Victorias,REGION 18 - NIR,NEGROS OCCIDENTAL
6120,Manapla,REGION 18 - NIR,NEGROS OCCIDENTAL
6121,Cadiz City,REGION 18 - NIR,NEGROS OCCIDENTAL
6122,Sagay,REGION 18 - NIR,NEGROS OCCIDENTAL
6123,Paraiso (Fabrica),REGION 18 - NIR,NEGROS OCCIDENTAL
6124,Escalante,REGION 18 - NIR,NEGROS OCCIDENTAL
6125,Toboso,REGION 18 - NIR,NEGROS OCCIDENTAL
6126,Calatrava,REGION 18 - NIR,NEGROS OCCIDENTAL
6127,San Carlos City,REGION 18 - NIR,NEGROS OCCIDENTAL
6128,Isabela,REGION 18 - NIR,NEGROS OCCIDENTAL
6129,Murcia,REGION 18 - NIR,NEGROS OCCIDENTAL
6130,La Carlota City,REGION 18 - NIR,NEGROS OCCIDENTAL
6131,La Castellana,REGION 18 - NIR,NEGROS OCCIDENTAL
6132,Moises Padilla (Magallon),REGION 18 - NIR,NEGROS OCCIDENTAL
6133,Don Salvador Benedicto,REGION 18 - NIR,NEGROS OCCIDENTAL
6200,Dumaguete City,REGION 18 - NIR,NEGROS ORIENTAL
6201,Sibulan,REGION 18 - NIR,NEGROS ORIENTAL
6202,San Jose,REGION 18 - NIR,NEGROS ORIENTAL
6203,Amlan (Ayuquitan),REGION 18 - NIR,NEGROS ORIENTAL
6204,Tanjay,REGION 18 - NIR,NEGROS ORIENTAL
6205,Pamplona,REGION 18 - NIR,NEGROS ORIENTAL
6206,Bais City,REGION 18 - NIR,NEGROS ORIENTAL
6207,Mabinay,REGION 18 - NIR,NEGROS ORIENTAL
6208,Manjuyod,REGION 18 - NIR,NEGROS ORIENTAL
6209,Bindoy (Payabon),REGION 18 - NIR,NEGROS ORIENTAL
6210,Ayungon,REGION 18 - NIR,NEGROS ORIENTAL
6211,Tayasan,REGION 18 - NIR,NEGROS ORIENTAL
6212,Jimalalud,REGION 18 - NIR,NEGROS ORIENTAL
6213,La Libertad,REGION 18 - NIR,NEGROS ORIENTAL
6214,Guihulngan,REGION 18 - NIR,NEGROS ORIENTAL
6215,Valencia (Luzurriaga),REGION 18 - NIR,NEGROS ORIENTAL
6216,Bacong,REGION 18 - NIR,NEGROS ORIENTAL
6217,Dauin,REGION 18 - NIR,NEGROS ORIENTAL
6218,Zamboanguita,REGION 18 - NIR,NEGROS ORIENTAL
6219,Siaton,REGION 18 - NIR,NEGROS ORIENTAL
6220,Santa Catalina,REGION 18 - NIR,NEGROS ORIENTAL
6221,Bayawan (Tulong),REGION 18 - NIR,NEGROS ORIENTAL
6222,Basay,REGION 18 - NIR,NEGROS ORIENTAL
6223,Canlaon City,REGION 18 - NIR,NEGROS ORIENTAL
6224,Vallehermoso,REGION 18 - NIR,NEGROS ORIENTAL
6225,Siquijor,REGION 7 - CENTRAL VISAYAS,SIQUIJOR
6226,Larena,REGION 7 - CENTRAL VISAYAS,SIQUIJOR
6227,San Juan,REGION 7 - CENTRAL VISAYAS,SIQUIJOR
6228,Lazi,REGION 7 - CENTRAL VISAYAS,SIQUIJOR
6229,Maria,REGION 7 - CENTRAL VISAYAS,SIQUIJOR
6230,Enrique Villanueva,REGION 7 - CENTRAL VISAYAS,SIQUIJOR
6300,Tagbilaran City,REGION 7 - CENTRAL VISAYAS,BOHOL
6301,Baclayon,REGION 7 - CENTRAL VISAYAS,BOHOL
6302,Alburquerque,REGION 7 - CENTRAL VISAYAS,BOHOL
6303,Loay,REGION 7 - CENTRAL VISAYAS,BOHOL
6304,Lila,REGION 7 - CENTRAL VISAYAS,BOHOL
6305,Dimiao,REGION 7 - CENTRAL VISAYAS,BOHOL
6306,Valencia,REGION 7 - CENTRAL VISAYAS,BOHOL
6307,Garcia Hernandez,REGION 7 - CENTRAL VISAYAS,BOHOL
6308,Jagna,REGION 7 - CENTRAL VISAYAS,BOHOL
6309,Duero,REGION 7 - CENTRAL VISAYAS,BOHOL
6310,Guindulman,REGION 7 - CENTRAL VISAYAS,BOHOL
6311,Anda,REGION 7 - CENTRAL VISAYAS,BOHOL
6312,Candijay,REGION 7 - CENTRAL VISAYAS,BOHOL
6313,Mabini,REGION 7 - CENTRAL VISAYAS,BOHOL
6314,Alicia,REGION 7 - CENTRAL VISAYAS,BOHOL
6315,Ubay,REGION 7 - CENTRAL VISAYAS,BOHOL
6316,Loboc,REGION 7 - CENTRAL VISAYAS,BOHOL
6317,Bilar,REGION 7 - CENTRAL VISAYAS,BOHOL
6318,Batuan,REGION 7 - CENTRAL VISAYAS,BOHOL
6319,Carmen,REGION 7 - CENTRAL VISAYAS,BOHOL
6320,Sierra Bullones,REGION 7 - CENTRAL VISAYAS,BOHOL
6321,Pilar,REGION 7 - CENTRAL VISAYAS,BOHOL
6322,Dagohoy,REGION 7 - CENTRAL VISAYAS,BOHOL
6323,San Miguel,REGION 7 - CENTRAL VISAYAS,BOHOL
6324,Trinidad,REGION 7 - CENTRAL VISAYAS,BOHOL
6325,Talibon,REGION 7 - CENTRAL VISAYAS,BOHOL
6326,Bien Unido,REGION 7 - CENTRAL VISAYAS,BOHOL
6327,Loon,REGION 7 - CENTRAL VISAYAS,BOHOL
6328,Calape,REGION 7 - CENTRAL VISAYAS,BOHOL
6329,Tubigon,REGION 7 - CENTRAL VISAYAS,BOHOL
6330,Clarin,REGION 7 - CENTRAL VISAYAS,BOHOL
6331,Sagbayan (Borja),REGION 7 - CENTRAL VISAYAS,BOHOL
6332,Inabanga,REGION 7 - CENTRAL VISAYAS,BOHOL
6333,Buenavista,REGION 7 - CENTRAL VISAYAS,BOHOL
6334,Jetafe,REGION 7 - CENTRAL VISAYAS,BOHOL
6335,Antequera,REGION 7 - CENTRAL VISAYAS,BOHOL
6336,Maribojoc,REGION 7 - CENTRAL VISAYAS,BOHOL
6337,Corella,REGION 7 - CENTRAL VISAYAS,BOHOL
6338,Sikatuna,REGION 7 - CENTRAL VISAYAS,BOHOL
6339,Dauis,REGION 7 - CENTRAL VISAYAS,BOHOL
6340,Panglao,REGION 7 - CENTRAL VISAYAS,BOHOL
6341,Cortes,REGION 7 - CENTRAL VISAYAS,BOHOL
6342,Balilihan,REGION 7 - CENTRAL VISAYAS,BOHOL
6343,Catigbian,REGION 7 - CENTRAL VISAYAS,BOHOL
6344,Danao,REGION 7 - CENTRAL VISAYAS,BOHOL
6345,San Isidro,REGION 7 - CENTRAL VISAYAS,BOHOL
6346,President Carlos P. Garcia (Pitogo),REGION 7 - CENTRAL VISAYAS,BOHOL
6347,Sevilla,REGION 7 - CENTRAL VISAYAS,BOHOL
6400,Catarman,REGION 8 - EASTERN VISAYAS,NORTHERN SAMAR
6401,Bobon,REGION 8 - EASTERN VISAYAS,NORTHERN SAMAR
6402,San Jose,REGION 8 - EASTERN VISAYAS,NORTHERN SAMAR
6403,Lope de Vega,REGION 8 - EASTERN VISAYAS,NORTHERN SAMAR
6404,Lavezares,REGION 8 - EASTERN VISAYAS,NORTHERN SAMAR
6405,Allen,REGION 8 - EASTERN VISAYAS,NORTHERN SAMAR
6406,Victoria,REGION 8 - EASTERN VISAYAS,NORTHERN SAMAR
6407,San Antonio,REGION 8 - EASTERN VISAYAS,NORTHERN SAMAR
6408,Capul,REGION 8 - EASTERN VISAYAS,NORTHERN SAMAR
6409,San Isidro,REGION 8 - EASTERN VISAYAS,NORTHERN SAMAR
6410,Biri,REGION 8 - EASTERN VISAYAS,NORTHERN SAMAR
6411,Laoang,REGION 8 - EASTERN VISAYAS,NORTHERN SAMAR
6412,Mapanas,REGION 8 - EASTERN VISAYAS,NORTHERN SAMAR
6413,Pambujan,REGION 8 - EASTERN VISAYAS,NORTHERN SAMAR
6414,Silvino Lobos,REGION 8 - EASTERN VISAYAS,NORTHERN SAMAR
6415,San Roque,REGION 8 - EASTERN VISAYAS,NORTHERN SAMAR
6416,Rosario,REGION 8 - EASTERN VISAYAS,NORTHERN SAMAR
6417,Mondragon,REGION 8 - EASTERN VISAYAS,NORTHERN SAMAR
6418,Catubig,REGION 8 - EASTERN VISAYAS,NORTHERN SAMAR
6419,San Vicente,REGION 8 - EASTERN VISAYAS,NORTHERN SAMAR
6420,Las Navas,REGION 8 - EASTERN VISAYAS,NORTHERN SAMAR
6421,Palapag,REGION 8 - EASTERN VISAYAS,NORTHERN SAMAR
6422,Gamay,REGION 8 - EASTERN VISAYAS,NORTHERN SAMAR
6423,Lapinig,REGION 8 - EASTERN VISAYAS,NORTHERN SAMAR
6500,Tacloban City,REGION 8 - EASTERN VISAYAS,LEYTE
6501,Palo,REGION 8 - EASTERN VISAYAS,LEYTE
6502,Tanauan,REGION 8 - EASTERN VISAYAS,LEYTE
6503,Tolosa,REGION 8 - EASTERN VISAYAS,LEYTE
6504,Tabontabon,REGION 8 - EASTERN VISAYAS,LEYTE
6505,Dulag,REGION 8 - EASTERN VISAYAS,LEYTE
6506,Julita,REGION 8 - EASTERN VISAYAS,LEYTE
6507,Mayorga,REGION 8 - EASTERN VISAYAS,LEYTE
6508,La Paz,REGION 8 - EASTERN VISAYAS,LEYTE
6509,Macarthur,REGION 8 - EASTERN VISAYAS,LEYTE
6510,Abuyog,REGION 8 - EASTERN VISAYAS,LEYTE
6511,Javier (Bugho),REGION 8 - EASTERN VISAYAS,LEYTE
6512,Mahaplag,REGION 8 - EASTERN VISAYAS,LEYTE
6513,Sta. Fe,REGION 8 - EASTERN VISAYAS,LEYTE
6514,Pastrana,REGION 8 - EASTERN VISAYAS,LEYTE
6515,Dagami,REGION 8 - EASTERN VISAYAS,LEYTE
6516,Burauen,REGION 8 - EASTERN VISAYAS,LEYTE
6517,Alangalang,REGION 8 - EASTERN VISAYAS,LEYTE
6518,San Miguel,REGION 8 - EASTERN VISAYAS,LEYTE
6519,Barugo,REGION 8 - EASTERN VISAYAS,LEYTE
6520,Babatngon,REGION 8 - EASTERN VISAYAS,LEYTE
6521,Baybay,REGION 8 - EASTERN VISAYAS,LEYTE
6522,Inopacan,REGION 8 - EASTERN VISAYAS,LEYTE
6523,Hindang,REGION 8 - EASTERN VISAYAS,LEYTE
6524,Hilongos,REGION 8 - EASTERN VISAYAS,LEYTE
6525,Bato,REGION 8 - EASTERN VISAYAS,LEYTE
6526,Matalom,REGION 8 - EASTERN VISAYAS,LEYTE
6527,Jaro,REGION 8 - EASTERN VISAYAS,LEYTE
6528,Tunga,REGION 8 - EASTERN VISAYAS,LEYTE
6529,Carigara,REGION 8 - EASTERN VISAYAS,LEYTE
6530,Capoocan,REGION 8 - EASTERN VISAYAS,LEYTE
6531,Kananga,REGION 8 - EASTERN VISAYAS,LEYTE
6532,Matag-ob,REGION 8 - EASTERN VISAYAS,LEYTE
6533,Leyte,REGION 8 - EASTERN VISAYAS,LEYTE
6534,Calubian,REGION 8 - EASTERN VISAYAS,LEYTE
6535,San Isidro,REGION 8 - EASTERN VISAYAS,LEYTE
6536,Tabango,REGION 8 - EASTERN VISAYAS,LEYTE
6537,Villaba,REGION 8 - EASTERN VISAYAS,LEYTE
6538,Palompon,REGION 8 - EASTERN VISAYAS,LEYTE
6539,Isabel,REGION 8 - EASTERN VISAYAS,LEYTE
6540,Merida,REGION 8 - EASTERN VISAYAS,LEYTE
6541,Ormoc City,REGION 8 - EASTERN VISAYAS,LEYTE
6542,Albuera,REGION 8 - EASTERN VISAYAS,LEYTE
6543,Naval,REGION 8 - EASTERN VISAYAS,BILIRAN
6544,Almeria,REGION 8 - EASTERN VISAYAS,BILIRAN
6545,Kawayan,REGION 8 - EASTERN VISAYAS,BILIRAN
6546,Maripipi,REGION 8 - EASTERN VISAYAS,BILIRAN
6547,Culaba,REGION 8 - EASTERN VISAYAS,BILIRAN
6548,Caibiran,REGION 8 - EASTERN VISAYAS,BILIRAN
6549,Biliran,REGION 8 - EASTERN VISAYAS,BILIRAN
6550,Cabucgayan,REGION 8 - EASTERN VISAYAS,BILIRAN
6600,Maasin,REGION 8 - EASTERN VISAYAS,SOUTHERN LEYTE
6601,Macrohon,REGION 8 - EASTERN VISAYAS,SOUTHERN LEYTE
6602,Padre Burgos,REGION 8 - EASTERN VISAYAS,SOUTHERN LEYTE
6603,Malitbog,REGION 8 - EASTERN VISAYAS,SOUTHERN LEYTE
6604,Bontoc,REGION 8 - EASTERN VISAYAS,SOUTHERN LEYTE
6605,Tomas Oppus,REGION 8 - EASTERN VISAYAS,SOUTHERN LEYTE
6606,Sogod,REGION 8 - EASTERN VISAYAS,SOUTHERN LEYTE
6607,Silago,REGION 8 - EASTERN VISAYAS,SOUTHERN LEYTE
6608,Hinunangan,REGION 8 - EASTERN VISAYAS,SOUTHERN LEYTE
6609,Hinundayan,REGION 8 - EASTERN VISAYAS,SOUTHERN LEYTE
6610,Anahawan,REGION 8 - EASTERN VISAYAS,SOUTHERN LEYTE
6611,San Juan (Cabalian),REGION 8 - EASTERN VISAYAS,SOUTHERN LEYTE
6612,Liloan,REGION 8 - EASTERN VISAYAS,SOUTHERN LEYTE
6613,San Francisco,REGION 8 - EASTERN VISAYAS,SOUTHERN LEYTE
6614,Pintuyan,REGION 8 - EASTERN VISAYAS,SOUTHERN LEYTE
6615,Libagon,REGION 8 - EASTERN VISAYAS,SOUTHERN LEYTE
6616,Saint Bernard,REGION 8 - EASTERN VISAYAS,SOUTHERN LEYTE
6617,San Ricardo,REGION 8 - EASTERN VISAYAS,SOUTHERN LEYTE
6618,Limasawa,REGION 8 - EASTERN VISAYAS,SOUTHERN LEYTE
6700,Catbalogan,REGION 8 - EASTERN VISAYAS,WESTERN SAMAR
6701,Jiabong,REGION 8 - EASTERN VISAYAS,WESTERN SAMAR
6702,Motiong,REGION 8 - EASTERN VISAYAS,WESTERN SAMAR
6703,Wright,REGION 8 - EASTERN VISAYAS,WESTERN SAMAR
6704,Tarangnan,REGION 8 - EASTERN VISAYAS,WESTERN SAMAR
6705,Pagsanghan,REGION 8 - EASTERN VISAYAS,WESTERN SAMAR
6706,Gandara,REGION 8 - EASTERN VISAYAS,WESTERN SAMAR
6707,San Jorge,REGION 8 - EASTERN VISAYAS,WESTERN SAMAR
6708,Matuguinao,REGION 8 - EASTERN VISAYAS,WESTERN SAMAR
6709,Sta. Margarita,REGION 8 - EASTERN VISAYAS,WESTERN SAMAR
6710,Calbayog City,REGION 8 - EASTERN VISAYAS,WESTERN SAMAR
6711,Sto. Niño,REGION 8 - EASTERN VISAYAS,WESTERN SAMAR
6712,Tagapul-an,REGION 8 - EASTERN VISAYAS,WESTERN SAMAR
6713,Hinabangan,REGION 8 - EASTERN VISAYAS,WESTERN SAMAR
6714,San Sebastian,REGION 8 - EASTERN VISAYAS,WESTERN SAMAR
6715,Calbiga,REGION 8 - EASTERN VISAYAS,WESTERN SAMAR
6716,Pinabacdao,REGION 8 - EASTERN VISAYAS,WESTERN SAMAR
6717,Villareal,REGION 8 - EASTERN VISAYAS,WESTERN SAMAR
6718,Sta. Rita,REGION 8 - EASTERN VISAYAS,WESTERN SAMAR
6719,Talalora,REGION 8 - EASTERN VISAYAS,WESTERN SAMAR
6720,Basey,REGION 8 - EASTERN VISAYAS,WESTERN SAMAR
6721,Marabut,REGION 8 - EASTERN VISAYAS,WESTERN SAMAR
6722,Daram,REGION 8 - EASTERN VISAYAS,WESTERN SAMAR
6723,San Jose de Buan,REGION 8 - EASTERN VISAYAS,WESTERN SAMAR
6724,Almagro,REGION 8 - EASTERN VISAYAS,WESTERN SAMAR
6725,Zumarraga,REGION 8 - EASTERN VISAYAS,WESTERN SAMAR
6800,Borongan,REGION 8 - EASTERN VISAYAS,EASTERN SAMAR
6801,Balangkayan,REGION 8 - EASTERN VISAYAS,EASTERN SAMAR
6802,Maydolong,REGION 8 - EASTERN VISAYAS,EASTERN SAMAR
6803,Llorente,REGION 8 - EASTERN VISAYAS,EASTERN SAMAR
6804,Hernani,REGION 8 - EASTERN VISAYAS,EASTERN SAMAR
6805,General MacArthur,REGION 8 - EASTERN VISAYAS,EASTERN SAMAR
6806,Can-Avid,REGION 8 - EASTERN VISAYAS,EASTERN SAMAR
6807,Salcedo,REGION 8 - EASTERN VISAYAS,EASTERN SAMAR
6808,Mercedes,REGION 8 - EASTERN VISAYAS,EASTERN SAMAR
6809,Guiuan,REGION 8 - EASTERN VISAYAS,EASTERN SAMAR
6810,Quinapondan,REGION 8 - EASTERN VISAYAS,EASTERN SAMAR
6811,Giporlos,REGION 8 - EASTERN VISAYAS,EASTERN SAMAR
6812,Balangiga,REGION 8 - EASTERN VISAYAS,EASTERN SAMAR
6813,Lawaan,REGION 8 - EASTERN VISAYAS,EASTERN SAMAR
6814,San Julian,REGION 8 - EASTERN VISAYAS,EASTERN SAMAR
6815,Sulat,REGION 8 - EASTERN VISAYAS,EASTERN SAMAR
6816,Taft,REGION 8 - EASTERN VISAYAS,EASTERN SAMAR
6817,Dolores,REGION 8 - EASTERN VISAYAS,EASTERN SAMAR
6818,Oras,REGION 8 - EASTERN VISAYAS,EASTERN SAMAR
6819,Jipapad,REGION 8 - EASTERN VISAYAS,EASTERN SAMAR
6820,Maslog,REGION 8 - EASTERN VISAYAS,EASTERN SAMAR
6821,San Policarpio,REGION 8 - EASTERN VISAYAS,EASTERN SAMAR
6822,Arteche,REGION 8 - EASTERN VISAYAS,EASTERN SAMAR
7000,Zamboanga City,REGION 9 - ZAMBOANGA PENINSULA,ZAMBOANGA DEL SUR
7001,Ipil,REGION 9 - ZAMBOANGA PENINSULA,ZAMBOANGA SIBUGAY
7002,Roseller Lim,REGION 9 - ZAMBOANGA PENINSULA,ZAMBOANGA SIBUGAY
7003,Titay,REGION 9 - ZAMBOANGA PENINSULA,ZAMBOANGA SIBUGAY
7004,Naga,REGION 9 - ZAMBOANGA PENINSULA,ZAMBOANGA SIBUGAY
7005,Kabasalan,REGION 9 - ZAMBOANGA PENINSULA,ZAMBOANGA SIBUGAY
7006,Siay,REGION 9 - ZAMBOANGA PENINSULA,ZAMBOANGA SIBUGAY
7007,Imelda,REGION 9 - ZAMBOANGA PENINSULA,ZAMBOANGA SIBUGAY
7008,Payao,REGION 9 - ZAMBOANGA PENINSULA,ZAMBOANGA SIBUGAY
7009,Buug,REGION 9 - ZAMBOANGA PENINSULA,ZAMBOANGA SIBUGAY
7010,Mabuhay,REGION 9 - ZAMBOANGA PENINSULA,ZAMBOANGA SIBUGAY
7011,Bayog,REGION 9 - ZAMBOANGA PENINSULA,ZAMBOANGA DEL SUR
7012,Talusan,REGION 9 - ZAMBOANGA PENINSULA,ZAMBOANGA SIBUGAY
7013,Kumalarang,REGION 9 - ZAMBOANGA PENINSULA,ZAMBOANGA DEL SUR
7014,Lakewood,REGION 9 - ZAMBOANGA PENINSULA,ZAMBOANGA DEL SUR
7015,Dumalinao,REGION 9 - ZAMBOANGA PENINSULA,ZAMBOANGA DEL SUR
7016,Pagadian City,REGION 9 - ZAMBOANGA PENINSULA,ZAMBOANGA DEL SUR
7017,Labangan,REGION 9 - ZAMBOANGA PENINSULA,ZAMBOANGA DEL SUR
7018,Tungawan,REGION 9 - ZAMBOANGA PENINSULA,ZAMBOANGA SIBUGAY
7019,Tukuran,REGION 9 - ZAMBOANGA PENINSULA,ZAMBOANGA DEL SUR
7020,Aurora,REGION 9 - ZAMBOANGA PENINSULA,ZAMBOANGA DEL SUR
7021,Midsalip,REGION 9 - ZAMBOANGA PENINSULA,ZAMBOANGA DEL SUR
7022,Don Mariano Marcos,REGION 9 - ZAMBOANGA PENINSULA,ZAMBOANGA DEL SUR
7023,Molave,REGION 9 - ZAMBOANGA PENINSULA,ZAMBOANGA DEL SUR
7024,Ramon Magsaysay,REGION 9 - ZAMBOANGA PENINSULA,ZAMBOANGA DEL SUR
7025,Tambulig,REGION 9 - ZAMBOANGA PENINSULA,ZAMBOANGA DEL SUR
7026,Mahayag,REGION 9 - ZAMBOANGA PENINSULA,ZAMBOANGA DEL SUR
7027,Josefina,REGION 9 - ZAMBOANGA PENINSULA,ZAMBOANGA DEL SUR
7028,Dumingag,REGION 9 - ZAMBOANGA PENINSULA,ZAMBOANGA DEL SUR
7029,San Miguel,REGION 9 - ZAMBOANGA PENINSULA,ZAMBOANGA DEL SUR
7030,Dinas,REGION 9 - ZAMBOANGA PENINSULA,ZAMBOANGA DEL SUR
7031,San Pablo,REGION 9 - ZAMBOANGA PENINSULA,ZAMBOANGA DEL SUR
7032,Dimataling,REGION 9 - ZAMBOANGA PENINSULA,ZAMBOANGA DEL SUR
7033,Pitogo,REGION 9 - ZAMBOANGA PENINSULA,ZAMBOANGA DEL SUR
7034,Tabina,REGION 9 - ZAMBOANGA PENINSULA,ZAMBOANGA DEL SUR
7035,Margo sa Tubig,REGION 9 - ZAMBOANGA PENINSULA,ZAMBOANGA DEL SUR
7036,Vicencio Sagun,REGION 9 - ZAMBOANGA PENINSULA,ZAMBOANGA DEL SUR
7037,Lapuyan,REGION 9 - ZAMBOANGA PENINSULA,ZAMBOANGA DEL SUR
7038,Malangas,REGION 9 - ZAMBOANGA PENINSULA,ZAMBOANGA SIBUGAY
7039,Diplahan,REGION 9 - ZAMBOANGA PENINSULA,ZAMBOANGA SIBUGAY
7040,Alicia,REGION 9 - ZAMBOANGA PENINSULA,ZAMBOANGA SIBUGAY
7041,Olutanga,REGION 9 - ZAMBOANGA PENINSULA,ZAMBOANGA SIBUGAY
7042,Guipos,REGION 9 - ZAMBOANGA PENINSULA,ZAMBOANGA DEL SUR
7043,Tigbao,REGION 9 - ZAMBOANGA PENINSULA,ZAMBOANGA DEL SUR
7100,Dipolog City,REGION 9 - ZAMBOANGA PENINSULA,ZAMBOANGA DEL NORTE
7101,Dapitan City,REGION 9 - ZAMBOANGA PENINSULA,ZAMBOANGA DEL NORTE
7102,President Manuel A. Roxas,REGION 9 - ZAMBOANGA PENINSULA,ZAMBOANGA DEL NORTE
7103,Sibutad,REGION 9 - ZAMBOANGA PENINSULA,ZAMBOANGA DEL NORTE
7104,Rizal,REGION 9 - ZAMBOANGA PENINSULA,ZAMBOANGA DEL NORTE
7105,Piñan (New Piñan),REGION 9 - ZAMBOANGA PENINSULA,ZAMBOANGA DEL NORTE
7106,Polanco,REGION 9 - ZAMBOANGA PENINSULA,ZAMBOANGA DEL NORTE
7107,Mutia,REGION 9 - ZAMBOANGA PENINSULA,ZAMBOANGA DEL NORTE
7108,Sergio Osmeña,REGION 9 - ZAMBOANGA PENINSULA,ZAMBOANGA DEL NORTE
7109,Katipunan,REGION 9 - ZAMBOANGA PENINSULA,ZAMBOANGA DEL NORTE
7110,Manukan,REGION 9 - ZAMBOANGA PENINSULA,ZAMBOANGA DEL NORTE
7111,Jose Dalman (Ponot),REGION 9 - ZAMBOANGA PENINSULA,ZAMBOANGA DEL NORTE
7112,Sindangan,REGION 9 - ZAMBOANGA PENINSULA,ZAMBOANGA DEL NORTE
7113,Siayan,REGION 9 - ZAMBOANGA PENINSULA,ZAMBOANGA DEL NORTE
7114,Salug,REGION 9 - ZAMBOANGA PENINSULA,ZAMBOANGA DEL NORTE
7115,Liloy,REGION 9 - ZAMBOANGA PENINSULA,ZAMBOANGA DEL NORTE
7116,Tampilisan,REGION 9 - ZAMBOANGA PENINSULA,ZAMBOANGA DEL NORTE
7117,Labason,REGION 9 - ZAMBOANGA PENINSULA,ZAMBOANGA DEL NORTE
7118,Gutalac,REGION 9 - ZAMBOANGA PENINSULA,ZAMBOANGA DEL NORTE
7119,La Libertad,REGION 9 - ZAMBOANGA PENINSULA,ZAMBOANGA DEL NORTE
7120,Siocon,REGION 9 - ZAMBOANGA PENINSULA,ZAMBOANGA DEL NORTE
7121,Siraway,REGION 9 - ZAMBOANGA PENINSULA,ZAMBOANGA DEL NORTE
7122,Sibuco,REGION 9 - ZAMBOANGA PENINSULA,ZAMBOANGA DEL NORTE
7123,Baliguian,REGION 9 - ZAMBOANGA PENINSULA,ZAMBOANGA DEL NORTE
7124,Kalawit,REGION 9 - ZAMBOANGA PENINSULA,ZAMBOANGA DEL NORTE
7125,Leon B. Postigo (Bacungan),REGION 9 - ZAMBOANGA PENINSULA,ZAMBOANGA DEL NORTE
7126,Godod,REGION 9 - ZAMBOANGA PENINSULA,ZAMBOANGA DEL NORTE
7200,Ozamis City,REGION 10 - NORTHERN MINDANAO,MISAMIS OCCIDENTAL
7201,Clarin,REGION 10 - NORTHERN MINDANAO,MISAMIS OCCIDENTAL
7202,Tudela,REGION 10 - NORTHERN MINDANAO,MISAMIS OCCIDENTAL
7203,Sinacaban,REGION 10 - NORTHERN MINDANAO,MISAMIS OCCIDENTAL
7204,Jimenez,REGION 10 - NORTHERN MINDANAO,MISAMIS OCCIDENTAL
7205,Panaon,REGION 10 - NORTHERN MINDANAO,MISAMIS OCCIDENTAL
7206,Aloran,REGION 10 - NORTHERN MINDANAO,MISAMIS OCCIDENTAL
7207,Oroquieta City,REGION 10 - NORTHERN MINDANAO,MISAMIS OCCIDENTAL
7208,Lopez Jaena,REGION 10 - NORTHERN MINDANAO,MISAMIS OCCIDENTAL
7209,Plaridel,REGION 10 - NORTHERN MINDANAO,MISAMIS OCCIDENTAL
7210,Calamba,REGION 10 - NORTHERN MINDANAO,MISAMIS OCCIDENTAL
7211,Baliangao,REGION 10 - NORTHERN MINDANAO,MISAMIS OCCIDENTAL
7212,Sapang dalaga,REGION 10 - NORTHERN MINDANAO,MISAMIS OCCIDENTAL
7213,Concepcion,REGION 10 - NORTHERN MINDANAO,MISAMIS OCCIDENTAL
7214,Tangub City,REGION 10 - NORTHERN MINDANAO,MISAMIS OCCIDENTAL
7215,Bonifacio,REGION 10 - NORTHERN MINDANAO,MISAMIS OCCIDENTAL
7216,Don Victoriano Chiongbian,REGION 10 - NORTHERN MINDANAO,MISAMIS OCCIDENTAL
7300,Isabela de Basilan,REGION 15 - ARMM,BASILAN
7301,Lantawan,REGION 15 - ARMM,BASILAN
7302,Lamitan,REGION 15 - ARMM,BASILAN
7303,Maluso,REGION 15 - ARMM,BASILAN
7304,Tipo-Tipo,REGION 15 - ARMM,BASILAN
7305,Sumisip,REGION 15 - ARMM,BASILAN
7306,Tuburan,REGION 15 - ARMM,BASILAN
7307,Akbar,REGION 15 - ARMM,BASILAN
7308,Al-Barka,REGION 15 - ARMM,BASILAN
7309,Hadji Mohammad Ajul,REGION 15 - ARMM,BASILAN
7310,Hadji Muhtamad,REGION 15 - ARMM,BASILAN
7311,Ungkaya Pukan,REGION 15 - ARMM,BASILAN
7312,Tabuan-Lasa,REGION 15 - ARMM,BASILAN
7400,Jolo,REGION 15 - ARMM,SULU
7401,Patikul,REGION 15 - ARMM,SULU
7402,Panamao,REGION 15 - ARMM,SULU
7403,Talipao,REGION 15 - ARMM,SULU
7404,Luuk,REGION 15 - ARMM,SULU
7405,Pata,REGION 15 - ARMM,SULU
7406,Banguingui (formerly Tongkil),REGION 15 - ARMM,SULU
7407,Indanan,REGION 15 - ARMM,SULU
7408,Parang,REGION 15 - ARMM,SULU
7409,Maimbung,REGION 15 - ARMM,SULU
7410,Tapul,REGION 15 - ARMM,SULU
7411,Lugus,REGION 15 - ARMM,SULU
7412,Siasi,REGION 15 - ARMM,SULU
7413,Hadji Panglima Tahil (formerly Marungas),REGION 15 - ARMM,SULU
7414,Panguntaran,REGION 15 - ARMM,SULU
7415,Panglima Estino,REGION 15 - ARMM,SULU
7416,Kalingalan Kalauang,REGION 15 - ARMM,SULU
7417,Omar,REGION 15 - ARMM,SULU
7418,Pandami,REGION 15 - ARMM,SULU
7500,Bongao,REGION 15 - ARMM,TAWI-TAWI
7501,Panglima Sugala (formerly Balimbing),REGION 15 - ARMM,TAWI-TAWI
7502,Tandu Bas,REGION 15 - ARMM,TAWI-TAWI
7503,Sapa-Sapa,REGION 15 - ARMM,TAWI-TAWI
7504,South Ubian,REGION 15 - ARMM,TAWI-TAWI
7505,Simunul,REGION 15 - ARMM,TAWI-TAWI
7506,Sitangkai,REGION 15 - ARMM,TAWI-TAWI
7507,Turtle Island (Taganak),REGION 15 - ARMM,TAWI-TAWI
7508,Mapun (formerly Cagayan de Sulu),REGION 15 - ARMM,TAWI-TAWI
7509,Languyan,REGION 15 - ARMM,TAWI-TAWI
7510,Sibutu,REGION 15 - ARMM,TAWI-TAWI
8000,Davao City,REGION 11 - DAVAO REGION,DAVAO DEL SUR
8001,Santa Cruz,REGION 11 - DAVAO REGION,DAVAO DEL SUR
8002,Digos,REGION 11 - DAVAO REGION,DAVAO DEL SUR
8003,Matanao,REGION 11 - DAVAO REGION,DAVAO DEL SUR
8004,Magsaysay,REGION 11 - DAVAO REGION,DAVAO DEL SUR
8005,Bansalan,REGION 11 - DAVAO REGION,DAVAO DEL SUR
8006,Hagonoy,REGION 11 - DAVAO REGION,DAVAO DEL SUR
8007,Padada,REGION 11 - DAVAO REGION,DAVAO DEL SUR
8008,Kiblawan,REGION 11 - DAVAO REGION,DAVAO DEL SUR
8009,Sulop,REGION 11 - DAVAO REGION,DAVAO DEL SUR
8010,Malalag,REGION 11 - DAVAO REGION,DAVAO DEL SUR
8011,Santa Maria,REGION 11 - DAVAO REGION,DAVAO OCCIDENTAL
8012,Malita,REGION 11 - DAVAO REGION,DAVAO OCCIDENTAL
8013,Don Marcelino,REGION 11 - DAVAO REGION,DAVAO OCCIDENTAL
8014,Jose Abad Santos,REGION 11 - DAVAO REGION,DAVAO OCCIDENTAL
8015,Sarangani,REGION 11 - DAVAO REGION,DAVAO OCCIDENTAL
8016,Ateneo,REGION 11 - DAVAO REGION,DAVAO DEL SUR
8017,Bunawan,REGION 11 - DAVAO REGION,DAVAO DEL SUR
8018,Calinan,REGION 11 - DAVAO REGION,DAVAO DEL SUR
8019,Davao International Airport,REGION 11 - DAVAO REGION,DAVAO DEL SUR
8020,Mandug,REGION 11 - DAVAO REGION,DAVAO DEL SUR
8021,Matina,REGION 11 - DAVAO REGION,DAVAO DEL SUR
8022,Mintal,REGION 11 - DAVAO REGION,DAVAO DEL SUR
8023,Talomo,REGION 11 - DAVAO REGION,DAVAO DEL SUR
8024,Tibungco,REGION 11 - DAVAO REGION,DAVAO DEL SUR
8025,Toril,REGION 11 - DAVAO REGION,DAVAO DEL SUR
8026,University of Mindanao,REGION 11 - DAVAO REGION,DAVAO DEL SUR
8100,Tagum,REGION 11 - DAVAO REGION,DAVAO DEL NORTE
8101,Carmen,REGION 11 - DAVAO REGION,DAVAO DEL NORTE
8102,Asuncion (formerly Saug),REGION 11 - DAVAO REGION,DAVAO DEL NORTE
8104,New Corella,REGION 11 - DAVAO REGION,DAVAO DEL NORTE
8105,Panabo,REGION 11 - DAVAO REGION,DAVAO DEL NORTE
8106,Braulio E. Dujali,REGION 11 - DAVAO REGION,DAVAO DEL NORTE
8107,Talaingod,REGION 11 - DAVAO REGION,DAVAO DEL NORTE
8112,Santo Tomas,REGION 11 - DAVAO REGION,DAVAO DEL NORTE
8113,Kapalong,REGION 11 - DAVAO REGION,DAVAO DEL NORTE
8118,Babak,REGION 11 - DAVAO REGION,DAVAO DEL NORTE
8119,Samal,REGION 11 - DAVAO REGION,DAVAO DEL NORTE
8120,Kaputian,REGION 11 - DAVAO REGION,DAVAO DEL NORTE
8121,San Isidro,REGION 11 - DAVAO REGION,DAVAO DEL NORTE
8200,Mati,REGION 11 - DAVAO REGION,DAVAO ORIENTAL
8201,Tarragona,REGION 11 - DAVAO REGION,DAVAO ORIENTAL
8202,Manay,REGION 11 - DAVAO REGION,DAVAO ORIENTAL
8203,Caraga,REGION 11 - DAVAO REGION,DAVAO ORIENTAL
8204,Baganga,REGION 11 - DAVAO REGION,DAVAO ORIENTAL
8205,Cateel,REGION 11 - DAVAO REGION,DAVAO ORIENTAL
8206,Boston,REGION 11 - DAVAO REGION,DAVAO ORIENTAL
8207,Lupon,REGION 11 - DAVAO REGION,DAVAO ORIENTAL
8208,Banaybanay,REGION 11 - DAVAO REGION,DAVAO ORIENTAL
8209,San Isidro,REGION 11 - DAVAO REGION,DAVAO ORIENTAL
8210,Gov. Generoso,REGION 11 - DAVAO REGION,DAVAO ORIENTAL
8300,Tandag,REGION 13 - CARAGA,SURIGAO DEL SUR
8301,San Miguel,REGION 13 - CARAGA,SURIGAO DEL SUR
8302,Tago,REGION 13 - CARAGA,SURIGAO DEL SUR
8303,Bayabas,REGION 13 - CARAGA,SURIGAO DEL SUR
8304,Cagwait,REGION 13 - CARAGA,SURIGAO DEL SUR
8305,San Agustin,REGION 13 - CARAGA,SURIGAO DEL SUR
8306,Marihatag,REGION 13 - CARAGA,SURIGAO DEL SUR
8307,Lianga,REGION 13 - CARAGA,SURIGAO DEL SUR
8308,Tagbina,REGION 13 - CARAGA,SURIGAO DEL SUR
8309,Barobo,REGION 13 - CARAGA,SURIGAO DEL SUR
8310,Hinatuan,REGION 13 - CARAGA,SURIGAO DEL SUR
8311,Bislig,REGION 13 - CARAGA,SURIGAO DEL SUR
8312,Lingig,REGION 13 - CARAGA,SURIGAO DEL SUR
8313,Cortez,REGION 13 - CARAGA,SURIGAO DEL SUR
8314,Lanuza,REGION 13 - CARAGA,SURIGAO DEL SUR
8315,Carmen,REGION 13 - CARAGA,SURIGAO DEL SUR
8316,Madrid,REGION 13 - CARAGA,SURIGAO DEL SUR
8317,Cantilan,REGION 13 - CARAGA,SURIGAO DEL SUR
8318,Carrascal,REGION 13 - CARAGA,SURIGAO DEL SUR
8319,Malixi,REGION 13 - CARAGA,SURIGAO DEL SUR
8400,Surigao City,REGION 13 - CARAGA,SURIGAO DEL NORTE
8401,San Francisco,REGION 13 - CARAGA,SURIGAO DEL NORTE
8402,Malimono,REGION 13 - CARAGA,SURIGAO DEL NORTE
8403,Tagana-an,REGION 13 - CARAGA,SURIGAO DEL NORTE
8404,Sison,REGION 13 - CARAGA,SURIGAO DEL NORTE
8405,Placer,REGION 13 - CARAGA,SURIGAO DEL NORTE
8406,Tubod,REGION 13 - CARAGA,SURIGAO DEL NORTE
8407,Mainit,REGION 13 - CARAGA,SURIGAO DEL NORTE
8408,Bacuag,REGION 13 - CARAGA,SURIGAO DEL NORTE
8409,Gigaquit,REGION 13 - CARAGA,SURIGAO DEL NORTE
8410,Claver,REGION 13 - CARAGA,SURIGAO DEL NORTE
8411,Cagdianao,REGION 13 - CARAGA,DINAGAT ISLAND
8412,Dinagat,REGION 13 - CARAGA,DINAGAT ISLAND
8413,Basilisa (formerly Rizal),REGION 13 - CARAGA,DINAGAT ISLAND
8414,Libjo (formerly Albor),REGION 13 - CARAGA,DINAGAT ISLAND
8415,Loreto,REGION 13 - CARAGA,DINAGAT ISLAND
8416,Socorro,REGION 13 - CARAGA,SURIGAO DEL NORTE
8417,Dapa,REGION 13 - CARAGA,SURIGAO DEL NORTE
8418,Del Carmen,REGION 13 - CARAGA,SURIGAO DEL NORTE
8419,Gen. Luna,REGION 13 - CARAGA,SURIGAO DEL NORTE
8420,Pilar,REGION 13 - CARAGA,SURIGAO DEL NORTE
8421,San Isidro,REGION 13 - CARAGA,SURIGAO DEL NORTE
8422,Sta. Monica,REGION 13 - CARAGA,SURIGAO DEL NORTE
8423,San Benito,REGION 13 - CARAGA,SURIGAO DEL NORTE
8424,Burgos,REGION 13 - CARAGA,SURIGAO DEL NORTE
8425,Alegria,REGION 13 - CARAGA,SURIGAO DEL NORTE
8426,Tubajon,REGION 13 - CARAGA,DINAGAT ISLAND
8427,San Jose,REGION 13 - CARAGA,DINAGAT ISLAND
8500,Prosperidad,REGION 13 - CARAGA,AGUSAN DEL SUR
8501,San Francisco,REGION 13 - CARAGA,AGUSAN DEL SUR
8502,Bayugan,REGION 13 - CARAGA,AGUSAN DEL SUR
8503,Sibagat,REGION 13 - CARAGA,AGUSAN DEL SUR
8504,Rosario,REGION 13 - CARAGA,AGUSAN DEL SUR
8505,Trento,REGION 13 - CARAGA,AGUSAN DEL SUR
8506,Bunawan,REGION 13 - CARAGA,AGUSAN DEL SUR
8507,Loreto,REGION 13 - CARAGA,AGUSAN DEL SUR
8508,La Paz,REGION 13 - CARAGA,AGUSAN DEL SUR
8509,Veruela,REGION 13 - CARAGA,AGUSAN DEL SUR
8510,Talacogon,REGION 13 - CARAGA,AGUSAN DEL SUR
8511,San Luis,REGION 13 - CARAGA,AGUSAN DEL SUR
8512,Sta. Josefa,REGION 13 - CARAGA,AGUSAN DEL SUR
8513,Esperanza,REGION 13 - CARAGA,AGUSAN DEL SUR
8600,Butuan City,REGION 13 - CARAGA,AGUSAN DEL NORTE
8601,Buenavista,REGION 13 - CARAGA,AGUSAN DEL NORTE
8602,Nasipit,REGION 13 - CARAGA,AGUSAN DEL NORTE
8603,Carmen,REGION 13 - CARAGA,AGUSAN DEL NORTE
8604,Magallanes,REGION 13 - CARAGA,AGUSAN DEL NORTE
8605,Cabadbaran,REGION 13 - CARAGA,AGUSAN DEL NORTE
8606,Tubay,REGION 13 - CARAGA,AGUSAN DEL NORTE
8607,Jabonga,REGION 13 - CARAGA,AGUSAN DEL NORTE
8608,Santiago,REGION 13 - CARAGA,AGUSAN DEL NORTE
8609,Kitcharao,REGION 13 - CARAGA,AGUSAN DEL NORTE
8610,Las Nieves,REGION 13 - CARAGA,AGUSAN DEL NORTE
8611,Remedios T. Romualdez,REGION 13 - CARAGA,AGUSAN DEL NORTE
8700,Malaybalay,REGION 10 - NORTHERN MINDANAO,BUKIDNON
8701,Sumilao,REGION 10 - NORTHERN MINDANAO,BUKIDNON
8702,Impasugong,REGION 10 - NORTHERN MINDANAO,BUKIDNON
8703,Manolo Fortich,REGION 10 - NORTHERN MINDANAO,BUKIDNON
8704,Malitbog,REGION 10 - NORTHERN MINDANAO,BUKIDNON
8705,Phillips,REGION 10 - NORTHERN MINDANAO,BUKIDNON
8706,Libona,REGION 10 - NORTHERN MINDANAO,BUKIDNON
8707,Baungon,REGION 10 - NORTHERN MINDANAO,BUKIDNON
8708,Talakag,REGION 10 - NORTHERN MINDANAO,BUKIDNON
8709,Valencia,REGION 10 - NORTHERN MINDANAO,BUKIDNON
8710,Musuan,REGION 10 - NORTHERN MINDANAO,BUKIDNON
8711,San Fernando,REGION 10 - NORTHERN MINDANAO,BUKIDNON
8712,Don Carlos,REGION 10 - NORTHERN MINDANAO,BUKIDNON
8713,Kadingilan,REGION 10 - NORTHERN MINDANAO,BUKIDNON
8714,Maramag,REGION 10 - NORTHERN MINDANAO,BUKIDNON
8715,Quezon,REGION 10 - NORTHERN MINDANAO,BUKIDNON
8716,Kitaotao,REGION 10 - NORTHERN MINDANAO,BUKIDNON
8717,Pangantucan,REGION 10 - NORTHERN MINDANAO,BUKIDNON
8718,Kalilangan,REGION 10 - NORTHERN MINDANAO,BUKIDNON
8719,Dangcagan,REGION 10 - NORTHERN MINDANAO,BUKIDNON
8720,Kibawe,REGION 10 - NORTHERN MINDANAO,BUKIDNON
8721,Damulog,REGION 10 - NORTHERN MINDANAO,BUKIDNON
8722,Lantapan,REGION 10 - NORTHERN MINDANAO,BUKIDNON
8723,Cabanglasan,REGION 10 - NORTHERN MINDANAO,BUKIDNON
8800,Nabunturan,REGION 11 - DAVAO REGION,COMPOSTELA VALLEY
8801,Montevista,REGION 11 - DAVAO REGION,COMPOSTELA VALLEY
8802,Mawab,REGION 11 - DAVAO REGION,COMPOSTELA VALLEY
8803,Compostela,REGION 11 - DAVAO REGION,COMPOSTELA VALLEY
8804,New Bataan,REGION 11 - DAVAO REGION,COMPOSTELA VALLEY
8805,Monkayo,REGION 11 - DAVAO REGION,COMPOSTELA VALLEY
8806,Maco,REGION 11 - DAVAO REGION,COMPOSTELA VALLEY
8807,Mabini,REGION 11 - DAVAO REGION,COMPOSTELA VALLEY
8808,Maragusan (formerly San Mariano),REGION 11 - DAVAO REGION,COMPOSTELA VALLEY
8809,Pantukan,REGION 11 - DAVAO REGION,COMPOSTELA VALLEY
8810,Laak (formerly San Vicente),REGION 11 - DAVAO REGION,COMPOSTELA VALLEY
9000,Cagayan de Oro City,REGION 10 - NORTHERN MINDANAO,MISAMIS ORIENTAL
9001,Tagoloan,REGION 10 - NORTHERN MINDANAO,MISAMIS ORIENTAL
9002,Villanueva,REGION 10 - NORTHERN MINDANAO,MISAMIS ORIENTAL
9003,Jasaan,REGION 10 - NORTHERN MINDANAO,MISAMIS ORIENTAL
9004,Claveria,REGION 10 - NORTHERN MINDANAO,MISAMIS ORIENTAL
9005,Balingasag,REGION 10 - NORTHERN MINDANAO,MISAMIS ORIENTAL
9006,Lagonglong,REGION 10 - NORTHERN MINDANAO,MISAMIS ORIENTAL
9007,Salay,REGION 10 - NORTHERN MINDANAO,MISAMIS ORIENTAL
9008,Binuangan,REGION 10 - NORTHERN MINDANAO,MISAMIS ORIENTAL
9009,Sugbongcogon,REGION 10 - NORTHERN MINDANAO,MISAMIS ORIENTAL
9010,Kinoguitan,REGION 10 - NORTHERN MINDANAO,MISAMIS ORIENTAL
9011,Balingoan,REGION 10 - NORTHERN MINDANAO,MISAMIS ORIENTAL
9012,Talisayan,REGION 10 - NORTHERN MINDANAO,MISAMIS ORIENTAL
9013,Medina,REGION 10 - NORTHERN MINDANAO,MISAMIS ORIENTAL
9014,Gingoog City,REGION 10 - NORTHERN MINDANAO,MISAMIS ORIENTAL
9015,Magsaysay,REGION 10 - NORTHERN MINDANAO,MISAMIS ORIENTAL
9016,Opol,REGION 10 - NORTHERN MINDANAO,MISAMIS ORIENTAL
9017,El Salvador,REGION 10 - NORTHERN MINDANAO,MISAMIS ORIENTAL
9018,Alubijid,REGION 10 - NORTHERN MINDANAO,MISAMIS ORIENTAL
9019,Laguindingan,REGION 10 - NORTHERN MINDANAO,MISAMIS ORIENTAL
9020,Gitagum,REGION 10 - NORTHERN MINDANAO,MISAMIS ORIENTAL
9021,Libertad,REGION 10 - NORTHERN MINDANAO,MISAMIS ORIENTAL
9022,Initao,REGION 10 - NORTHERN MINDANAO,MISAMIS ORIENTAL
9023,Naawan,REGION 10 - NORTHERN MINDANAO,MISAMIS ORIENTAL
9024,Manticao,REGION 10 - NORTHERN MINDANAO,MISAMIS ORIENTAL
9025,Lugait,REGION 10 - NORTHERN MINDANAO,MISAMIS ORIENTAL
9100,Mambajao,REGION 10 - NORTHERN MINDANAO,CAMIGUIN
9101,Mahinog,REGION 10 - NORTHERN MINDANAO,CAMIGUIN
9102,Guinsiliban,REGION 10 - NORTHERN MINDANAO,CAMIGUIN
9103,Sagay,REGION 10 - NORTHERN MINDANAO,CAMIGUIN
9104,Catarman,REGION 10 - NORTHERN MINDANAO,CAMIGUIN
9200,Iligan City,REGION 10 - NORTHERN MINDANAO,LANAO DEL NORTE
9201,Linamon,REGION 10 - NORTHERN MINDANAO,LANAO DEL NORTE
9202,Kauswagan,REGION 10 - NORTHERN MINDANAO,LANAO DEL NORTE
9203,Matungao,REGION 10 - NORTHERN MINDANAO,LANAO DEL NORTE
9204,Poona Piagapo,REGION 10 - NORTHERN MINDANAO,LANAO DEL NORTE
9205,Bacolod,REGION 10 - NORTHERN MINDANAO,LANAO DEL NORTE
9206,Maigo,REGION 10 - NORTHERN MINDANAO,LANAO DEL NORTE
9207,Kolambugan,REGION 10 - NORTHERN MINDANAO,LANAO DEL NORTE
9208,Pantao Ragat,REGION 10 - NORTHERN MINDANAO,LANAO DEL NORTE
9209,Tubod,REGION 10 - NORTHERN MINDANAO,LANAO DEL NORTE
9210,Baroy,REGION 10 - NORTHERN MINDANAO,LANAO DEL NORTE
9211,Lala,REGION 10 - NORTHERN MINDANAO,LANAO DEL NORTE
9212,Salvador,REGION 10 - NORTHERN MINDANAO,LANAO DEL NORTE
9213,Sapad,REGION 10 - NORTHERN MINDANAO,LANAO DEL NORTE
9214,Kapatagan,REGION 10 - NORTHERN MINDANAO,LANAO DEL NORTE
9215,Sultan Naga Dimaporo (formerly Karomatan),REGION 10 - NORTHERN MINDANAO,LANAO DEL NORTE
9216,Nunungan,REGION 10 - NORTHERN MINDANAO,LANAO DEL NORTE
9217,Baloi,REGION 10 - NORTHERN MINDANAO,LANAO DEL NORTE
9218,Pantar,REGION 10 - NORTHERN MINDANAO,LANAO DEL NORTE
9219,Munai,REGION 10 - NORTHERN MINDANAO,LANAO DEL NORTE
9220,Tangcal,REGION 10 - NORTHERN MINDANAO,LANAO DEL NORTE
9221,Magsaysay,REGION 10 - NORTHERN MINDANAO,LANAO DEL NORTE
9222,Tagoloan,REGION 10 - NORTHERN MINDANAO,LANAO DEL NORTE
9300,Malabang,REGION 15 - ARMM,LANAO DEL SUR
9301,Picong (formerly Sultan Gumander),REGION 15 - ARMM,LANAO DEL SUR
9301,Sultan Gumander,REGION 15 - ARMM,LANAO DEL SUR
9302,Balabagan,REGION 15 - ARMM,LANAO DEL SUR
9303,Marogong,REGION 15 - ARMM,LANAO DEL SUR
9304,Tubaran,REGION 15 - ARMM,LANAO DEL SUR
9305,Butig,REGION 15 - ARMM,LANAO DEL SUR
9306,Lumbayanague,REGION 15 - ARMM,LANAO DEL SUR
9307,Lumbatan,REGION 15 - ARMM,LANAO DEL SUR
9308,Macador Andong,REGION 15 - ARMM,LANAO DEL SUR
9309,Bayang,REGION 15 - ARMM,LANAO DEL SUR
9310,Binidayan,REGION 15 - ARMM,LANAO DEL SUR
9311,Ganassi,REGION 15 - ARMM,LANAO DEL SUR
9312,Pagayawan,REGION 15 - ARMM,LANAO DEL SUR
9313,Pualas,REGION 15 - ARMM,LANAO DEL SUR
9314,Madamba,REGION 15 - ARMM,LANAO DEL SUR
9315,Madalum,REGION 15 - ARMM,LANAO DEL SUR
9316,Bacolod Grande,REGION 15 - ARMM,LANAO DEL SUR
9317,Tugaya,REGION 15 - ARMM,LANAO DEL SUR
9318,Balindong,REGION 15 - ARMM,LANAO DEL SUR
9319,Calanogas,REGION 15 - ARMM,LANAO DEL SUR
9320,Bumbaran,REGION 15 - ARMM,LANAO DEL SUR
9321,Tagoloan - II,REGION 15 - ARMM,LANAO DEL SUR
9322,Kapatagan,REGION 15 - ARMM,LANAO DEL SUR
9323,Lumbaca Unayan,REGION 15 - ARMM,LANAO DEL SUR
9324,Sultan Domalondong,REGION 15 - ARMM,LANAO DEL SUR
9400,Kidapawan,REGION 12 - SOCCSKSARGEN,NORTH COTABATO
9401,Makilala,REGION 12 - SOCCSKSARGEN,NORTH COTABATO
9402,M'lang,REGION 12 - SOCCSKSARGEN,NORTH COTABATO
9403,Tulunan,REGION 12 - SOCCSKSARGEN,NORTH COTABATO
9404,Magpet,REGION 12 - SOCCSKSARGEN,NORTH COTABATO
9405,Pre. Roxas,REGION 12 - SOCCSKSARGEN,NORTH COTABATO
9406,Matalam,REGION 12 - SOCCSKSARGEN,NORTH COTABATO
9407,Kabacan,REGION 12 - SOCCSKSARGEN,NORTH COTABATO
9408,Carmen,REGION 12 - SOCCSKSARGEN,NORTH COTABATO
9409,Pikit,REGION 12 - SOCCSKSARGEN,NORTH COTABATO
9410,Midsayap,REGION 12 - SOCCSKSARGEN,NORTH COTABATO
9411,Libungan,REGION 12 - SOCCSKSARGEN,NORTH COTABATO
9412,Pigkawayan,REGION 12 - SOCCSKSARGEN,NORTH COTABATO
9413,Alamada,REGION 12 - SOCCSKSARGEN,NORTH COTABATO
9414,Antipas,REGION 12 - SOCCSKSARGEN,NORTH COTABATO
9415,Aleosan,REGION 12 - SOCCSKSARGEN,NORTH COTABATO
9416,Banisilan,REGION 12 - SOCCSKSARGEN,NORTH COTABATO
9417,Arakan,REGION 12 - SOCCSKSARGEN,NORTH COTABATO
9500,Gen. Santos City,REGION 12 - SOCCSKSARGEN,SOUTH COTABATO
9501,Alabel,REGION 12 - SOCCSKSARGEN,SARANGANI
9502,Maasim,REGION 12 - SOCCSKSARGEN,SARANGANI
9503,Malungon,REGION 12 - SOCCSKSARGEN,SARANGANI
9504,Polomolok,REGION 12 - SOCCSKSARGEN,SOUTH COTABATO
9505,Tupi,REGION 12 - SOCCSKSARGEN,SOUTH COTABATO
9506,Koronadal,REGION 12 - SOCCSKSARGEN,SOUTH COTABATO
9507,Tampakan,REGION 12 - SOCCSKSARGEN,SOUTH COTABATO
9508,Norala,REGION 12 - SOCCSKSARGEN,SOUTH COTABATO
9509,Sto. Niño,REGION 12 - SOCCSKSARGEN,SOUTH COTABATO
9510,Tantangan,REGION 12 - SOCCSKSARGEN,SOUTH COTABATO
9511,Banga,REGION 12 - SOCCSKSARGEN,SOUTH COTABATO
9512,Surallah,REGION 12 - SOCCSKSARGEN,SOUTH COTABATO
9513,T'boli,REGION 12 - SOCCSKSARGEN,SOUTH COTABATO
9514,Kiamba,REGION 12 - SOCCSKSARGEN,SARANGANI
9515,Maitum,REGION 12 - SOCCSKSARGEN,SARANGANI
9516,Malapatan,REGION 12 - SOCCSKSARGEN,SARANGANI
9517,Glan,REGION 12 - SOCCSKSARGEN,SARANGANI
9518,Lake Sebu,REGION 12 - SOCCSKSARGEN,SOUTH COTABATO
9600,Cotabato City,REGION 15 - ARMM,MAGUINDANAO
9601,Datu Odin Sinsuat (Dinaig),REGION 15 - ARMM,MAGUINDANAO
9602,Upi,REGION 15 - ARMM,MAGUINDANAO
9603,South Upi,REGION 15 - ARMM,MAGUINDANAO
9604,Parang,REGION 15 - ARMM,MAGUINDANAO
9605,Sultan Kudarat,REGION 15 - ARMM,MAGUINDANAO
9606,Kabuntulan,REGION 15 - ARMM,MAGUINDANAO
9607,Datu Piang,REGION 15 - ARMM,MAGUINDANAO
9608,Shariff Aguak (formerly Maganoy),REGION 15 - ARMM,MAGUINDANAO
9609,Ampatuan,REGION 15 - ARMM,MAGUINDANAO
9610,Pagalungan,REGION 15 - ARMM,MAGUINDANAO
9611,Sultan Sa Barongis,REGION 15 - ARMM,MAGUINDANAO
9612,Talayan,REGION 15 - ARMM,MAGUINDANAO
9613,Matanog,REGION 15 - ARMM,MAGUINDANAO
9614,Barira,REGION 15 - ARMM,MAGUINDANAO
9615,Buldon,REGION 15 - ARMM,MAGUINDANAO
9616,Buluan,REGION 15 - ARMM,MAGUINDANAO
9617,Datu Paglas,REGION 15 - ARMM,MAGUINDANAO
9618,General Salipada K. Pendatun,REGION 15 - ARMM,MAGUINDANAO
9620,Mangudadatu,REGION 15 - ARMM,MAGUINDANAO
9621,Datu Abdullah Sangki,REGION 15 - ARMM,MAGUINDANAO
9622,Datu Anggal Midtimbang,REGION 15 - ARMM,MAGUINDANAO
9623,Datu Blah T. Sinsuat,REGION 15 - ARMM,MAGUINDANAO
9624,Datu Hoffer Ampatuan,REGION 15 - ARMM,MAGUINDANAO
9625,Datu Salibo,REGION 15 - ARMM,MAGUINDANAO
9626,Datu Saudi-Ampatuan,REGION 15 - ARMM,MAGUINDANAO
9627,Datu Unsay,REGION 15 - ARMM,MAGUINDANAO
9628,Guindulungan,REGION 15 - ARMM,MAGUINDANAO
9629,Mamasapano,REGION 15 - ARMM,MAGUINDANAO
9630,Northern Kabuntalan,REGION 15 - ARMM,MAGUINDANAO
9631,Datu Montawal (formerly Pagagawan),REGION 15 - ARMM,MAGUINDANAO
9632,Paglat,REGION 15 - ARMM,MAGUINDANAO
9633,Pandag,REGION 15 - ARMM,MAGUINDANAO
9634,Rajah Buayan,REGION 15 - ARMM,MAGUINDANAO
9635,Shariff Saydona Mustapha,REGION 15 - ARMM,MAGUINDANAO
9636,Sultan Mastura,REGION 15 - ARMM,MAGUINDANAO
9637,Sultan Sumagka (formerly Talitay),REGION 15 - ARMM,MAGUINDANAO
9700,Marawi City,REGION 15 - ARMM,LANAO DEL SUR
9701,Saguiaran,REGION 15 - ARMM,LANAO DEL SUR
9702,Mulondo,REGION 15 - ARMM,LANAO DEL SUR
9703,Lumba Bayabao,REGION 15 - ARMM,LANAO DEL SUR
9704,Tamparan,REGION 15 - ARMM,LANAO DEL SUR
9705,Poona Bayabao,REGION 15 - ARMM,LANAO DEL SUR
9706,Masiu,REGION 15 - ARMM,LANAO DEL SUR
9708,Bubong,REGION 15 - ARMM,LANAO DEL SUR
9709,Kapai,REGION 15 - ARMM,LANAO DEL SUR
9710,Piagapo,REGION 15 - ARMM,LANAO DEL SUR
9711,Marantao,REGION 15 - ARMM,LANAO DEL SUR
9712,Taraka,REGION 15 - ARMM,LANAO DEL SUR
9713,Ramain-Ditsaan,REGION 15 - ARMM,LANAO DEL SUR
9714,Buadiposo Buntong,REGION 15 - ARMM,LANAO DEL SUR
9715,Maguing,REGION 15 - ARMM,LANAO DEL SUR
9716,Wao,REGION 15 - ARMM,LANAO DEL SUR
9800,Tacurong,REGION 12 - SOCCSKSARGEN,SULTAN KUDARAT
9801,Columbio,REGION 12 - SOCCSKSARGEN,SULTAN KUDARAT
9802,Mariano Marcos,REGION 12 - SOCCSKSARGEN,SULTAN KUDARAT
9803,Lutayan,REGION 12 - SOCCSKSARGEN,SULTAN KUDARAT
9804,Pres. Quirino,REGION 12 - SOCCSKSARGEN,SULTAN KUDARAT
9805,Isulan,REGION 12 - SOCCSKSARGEN,SULTAN KUDARAT
9806,Esperanza (Ampatuan),REGION 12 - SOCCSKSARGEN,SULTAN KUDARAT
9807,Lebak (Salaman),REGION 12 - SOCCSKSARGEN,SULTAN KUDARAT
9808,Kalamansig,REGION 12 - SOCCSKSARGEN,SULTAN KUDARAT
9809,Palimbang,REGION 12 - SOCCSKSARGEN,SULTAN KUDARAT
9810,Bagumbayan,REGION 12 - SOCCSKSARGEN,SULTAN KUDARAT
9811,Sen. Ninoy Aquino,REGION 12 - SOCCSKSARGEN,SULTAN KUDARAT