[
  {
    "region": "NCR (National Capital Region)",
    "province": "Metro Manila",
    "city_municipality": "Pandacan",
    "zip_code": "1011"
  },
  {
    "region": "Region 4A (CALABARZON)",
    "province": "Rizal",
    "city_municipality": "San Mateo",
    "zip_code": "1850"
  },
  {
    "region": "Region 4A (CALABARZON)",
    "province": "Rizal",
    "city_municipality": "Rodriguez (Montalban)",
    "zip_code": "1860"
  },
  {
    "region": "Region 4A (CALABARZON)",
    "province": "Rizal",
    "city_municipality": "Antipolo",
    "zip_code": "1870"
  },
  {
    "region": "Region 4A (CALABARZON)",
    "province": "Rizal",
    "city_municipality": "Mayamot",
    "zip_code": "1871"
  },
  {
    "region": "Region 4A (CALABARZON)",
    "province": "Rizal",
    "city_municipality": "Bagong Nayon (Cogeo)",
    "zip_code": "1872"
  },
  {
    "region": "Region 4A (CALABARZON)",
    "province": "Rizal",
    "city_municipality": "Langhaya",
    "zip_code": "1874"
  },
  {
    "region": "Region 4A (CALABARZON)",
    "province": "Rizal",
    "city_municipality": "Mambagat",
    "zip_code": "1875"
  },
  {
    "region": "Region 4A (CALABARZON)",
    "province": "Rizal",
    "city_municipality": "Teresa",
    "zip_code": "1880"
  },
  {
    "region": "Region 4A (CALABARZON)",
    "province": "Rizal",
    "city_municipality": "Cainta",
    "zip_code": "1900"
  },
  {
    "region": "Region 4A (CALABARZON)",
    "province": "Rizal",
    "city_municipality": "Pililla",
    "zip_code": "1910"
  },
  {
    "region": "Region 4A (CALABARZON)",
    "province": "Rizal",
    "city_municipality": "Taytay",
    "zip_code": "1920"
  },
  {
    "region": "Region 4A (CALABARZON)",
    "province": "Rizal",
    "city_municipality": "Angono",
    "zip_code": "1930"
  },
  {
    "region": "Region 4A (CALABARZON)",
    "province": "Rizal",
    "city_municipality": "Binangonan",
    "zip_code": "1940"
  },
  {
    "region": "Region 4A (CALABARZON)",
    "province": "Rizal",
    "city_municipality": "Cardona",
    "zip_code": "1950"
  },
  {
    "region": "Region 4A (CALABARZON)",
    "province": "Rizal",
    "city_municipality": "Morong",
    "zip_code": "1960"
  },
  {
    "region": "Region 4A (CALABARZON)",
    "province": "Rizal",
    "city_municipality": "Baras",
    "zip_code": "1970"
  },
  {
    "region": "Region 4A (CALABARZON)",
    "province": "Rizal",
    "city_municipality": "Tanay",
    "zip_code": "1980"
  },
  {
    "region": "Region 4A (CALABARZON)",
    "province": "Rizal",
    "city_municipality": "Jalajala",
    "zip_code": "1990"
  },
  {
    "region": "Region 3 (Central Luzon)",
    "province": "Pampanga",
    "city_municipality": "San Fernando",
    "zip_code": "2000"
  },
  {
    "region": "Region 3 (Central Luzon)",
    "province": "Pampanga",
    "city_municipality": "Bacolor",
    "zip_code": "2001"
  },
  {
    "region": "Region 3 (Central Luzon)",
    "province": "Pampanga",
    "city_municipality": "Santa Rita",
    "zip_code": "2002"
  },
  {
    "region": "Region 3 (Central Luzon)",
    "province": "Pampanga",
    "city_municipality": "Guagua",
    "zip_code": "2003"
  },
  {
    "region": "Region 3 (Central Luzon)",
    "province": "Pampanga",
    "city_municipality": "Sasmuan",
    "zip_code": "2004"
  },
  {
    "region": "Region 3 (Central Luzon)",
    "province": "Pampanga",
    "city_municipality": "Lubao",
    "zip_code": "2005"
  },
  {
    "region": "Region 3 (Central Luzon)",
    "province": "Pampanga",
    "city_municipality": "Floridablanca",
    "zip_code": "2006"
  },
  {
    "region": "Region 3 (Central Luzon)",
    "province": "Pampanga",
    "city_municipality": "Basa airbase",
    "zip_code": "2007"
  },
  {
    "region": "Region 3 (Central Luzon)",
    "province": "Pampanga",
    "city_municipality": "Porac",
    "zip_code": "2008"
  },
  {
    "region": "Region 3 (Central Luzon)",
    "province": "Pampanga",
    "city_municipality": "Angeles City",
    "zip_code": "2009"
  },
  {
    "region": "Region 3 (Central Luzon)",
    "province": "Pampanga",
    "city_municipality": "Mabalacat",
    "zip_code": "2010"
  },
  {
    "region": "Region 3 (Central Luzon)",
    "province": "Pampanga",
    "city_municipality": "Magalang",
    "zip_code": "2011"
  },
  {
    "region": "Region 3 (Central Luzon)",
    "province": "Pampanga",
    "city_municipality": "Arayat",
    "zip_code": "2012"
  },
  {
    "region": "Region 3 (Central Luzon)",
    "province": "Pampanga",
    "city_municipality": "Candaba",
    "zip_code": "2013"
  },
  {
    "region": "Region 3 (Central Luzon)",
    "province": "Pampanga",
    "city_municipality": "San Luis",
    "zip_code": "2014"
  },
  {
    "region": "Region 3 (Central Luzon)",
    "province": "Pampanga",
    "city_municipality": "San Simon",
    "zip_code": "2015"
  },
  {
    "region": "Region 3 (Central Luzon)",
    "province": "Pampanga",
    "city_municipality": "Apalit",
    "zip_code": "2016"
  },
  {
    "region": "Region 3 (Central Luzon)",
    "province": "Pampanga",
    "city_municipality": "Masantol",
    "zip_code": "2017"
  },
  {
    "region": "Region 3 (Central Luzon)",
    "province": "Pampanga",
    "city_municipality": "Macabebe",
    "zip_code": "2018"
  },
  {
    "region": "Region 3 (Central Luzon)",
    "province": "Pampanga",
    "city_municipality": "Minalin",
    "zip_code": "2019"
  },
  {
    "region": "Region 3 (Central Luzon)",
    "province": "Pampanga",
    "city_municipality": "Santo Tomas",
    "zip_code": "2020"
  },
  {
    "region": "Region 3 (Central Luzon)",
    "province": "Pampanga",
    "city_municipality": "Mexico",
    "zip_code": "2021"
  },
  {
    "region": "Region 3 (Central Luzon)",
    "province": "Pampanga",
    "city_municipality": "Santa Ana",
    "zip_code": "2022"
  },
  {
    "region": "Region 3 (Central Luzon)",
    "province": "Pampanga",
    "city_municipality": "CSEZ, Clark",
    "zip_code": "2023"
  },
  {
    "region": "Region 3 (Central Luzon)",
    "province": "Pampanga",
    "city_municipality": "Santa Cruz, Lubao",
    "zip_code": "2025"
  },
  {
    "region": "Region 3 (Central Luzon)",
    "province": "Pampanga",
    "city_municipality": "Dau, Mabalacat",
    "zip_code": "2026"
  },
  {
    "region": "Region 3 (Central Luzon)",
    "province": "Bataan",
    "city_municipality": "Balanga",
    "zip_code": "2100"
  },
  {
    "region": "Region 3 (Central Luzon)",
    "province": "Bataan",
    "city_municipality": "Limay",
    "zip_code": "2103"
  },
  {
    "region": "Region 3 (Central Luzon)",
    "province": "Bataan",
    "city_municipality": "Lamao",
    "zip_code": "2104"
  },
  {
    "region": "Region 3 (Central Luzon)",
    "province": "Bataan",
    "city_municipality": "FAB (Freefort Area of Bataan)",
    "zip_code": "2106"
  },
  {
    "region": "Region 3 (Central Luzon)",
    "province": "Bataan",
    "city_municipality": "Bagac",
    "zip_code": "2107"
  },
  {
    "region": "Region 3 (Central Luzon)",
    "province": "Bataan",
    "city_municipality": "Cabcaben",
    "zip_code": "2109"
  },
  {
    "region": "Region 3 (Central Luzon)",
    "province": "Bataan",
    "city_municipality": "Dinalupihan",
    "zip_code": "2110"
  },
  {
    "region": "Region 3 (Central Luzon)",
    "province": "Bataan",
    "city_municipality": "Hermosa",
    "zip_code": "2111"
  },
  {
    "region": "Region 3 (Central Luzon)",
    "province": "Bataan",
    "city_municipality": "Abucay",
    "zip_code": "2114"
  },
  {
    "region": "Region 3 (Central Luzon)",
    "province": "Zambales",
    "city_municipality": "Olongapo City",
    "zip_code": "2200"
  },
  {
    "region": "Region 3 (Central Luzon)",
    "province": "Zambales",
    "city_municipality": "Iba",
    "zip_code": "2201"
  },
  {
    "region": "Region 3 (Central Luzon)",
    "province": "Zambales",
    "city_municipality": "Botolan",
    "zip_code": "2202"
  },
  {
    "region": "Region 3 (Central Luzon)",
    "province": "Zambales",
    "city_municipality": "Cabangan",
    "zip_code": "2203"
  },
  {
    "region": "Region 3 (Central Luzon)",
    "province": "Zambales",
    "city_municipality": "San Felipe",
    "zip_code": "2204"
  },
  {
    "region": "Region 3 (Central Luzon)",
    "province": "Zambales",
    "city_municipality": "San Narciso",
    "zip_code": "2205"
  },
  {
    "region": "Region 3 (Central Luzon)",
    "province": "Zambales",
    "city_municipality": "San Antonio",
    "zip_code": "2206"
  },
  {
    "region": "Region 3 (Central Luzon)",
    "province": "Zambales",
    "city_municipality": "San Marcelino",
    "zip_code": "2207"
  },
  {
    "region": "Region 3 (Central Luzon)",
    "province": "Zambales",
    "city_municipality": "Castillejos",
    "zip_code": "2208"
  },
  {
    "region": "Region 3 (Central Luzon)",
    "province": "Zambales",
    "city_municipality": "Subic",
    "zip_code": "2209"
  },
  {
    "region": "Region 3 (Central Luzon)",
    "province": "Zambales",
    "city_municipality": "Palauig",
    "zip_code": "2210"
  },
  {
    "region": "Region 3 (Central Luzon)",
    "province": "Zambales",
    "city_municipality": "Candelaria",
    "zip_code": "2212"
  },
  {
    "region": "Region 3 (Central Luzon)",
    "province": "Zambales",
    "city_municipality": "Sta. Cruz",
    "zip_code": "2213"
  },
  {
    "region": "Region 3 (Central Luzon)",
    "province": "Tarlac",
    "city_municipality": "Tarlac",
    "zip_code": "2300"
  },
  {
    "region": "Region 3 (Central Luzon)",
    "province": "Tarlac",
    "city_municipality": "Gerona",
    "zip_code": "2302"
  },
  {
    "region": "Region 3 (Central Luzon)",
    "province": "Tarlac",
    "city_municipality": "Sta. Ignacia",
    "zip_code": "2303"
  },
  {
    "region": "Region 3 (Central Luzon)",
    "province": "Tarlac",
    "city_municipality": "Mayantoc",
    "zip_code": "2304"
  },
  {
    "region": "Region 3 (Central Luzon)",
    "province": "Tarlac",
    "city_municipality": "San Clemente",
    "zip_code": "2305"
  },
  {
    "region": "Region 3 (Central Luzon)",
    "province": "Tarlac",
    "city_municipality": "Camiling",
    "zip_code": "2306"
  },
  {
    "region": "Region 3 (Central Luzon)",
    "province": "Tarlac",
    "city_municipality": "Paniqui",
    "zip_code": "2307"
  },
  {
    "region": "Region 3 (Central Luzon)",
    "province": "Tarlac",
    "city_municipality": "Moncada",
    "zip_code": "2308"
  },
  {
    "region": "Region 3 (Central Luzon)",
    "province": "Tarlac",
    "city_municipality": "San Manuel",
    "zip_code": "2309"
  },
  {
    "region": "Region 3 (Central Luzon)",
    "province": "Tarlac",
    "city_municipality": "Anao",
    "zip_code": "2310"
  },
  {
    "region": "Region 3 (Central Luzon)",
    "province": "Tarlac",
    "city_municipality": "Ramos",
    "zip_code": "2311"
  },
  {
    "region": "Region 3 (Central Luzon)",
    "province": "Tarlac",
    "city_municipality": "Pura",
    "zip_code": "2312"
  },
  {
    "region": "Region 3 (Central Luzon)",
    "province": "Tarlac",
    "city_municipality": "Victoria",
    "zip_code": "2313"
  },
  {
    "region": "Region 3 (Central Luzon)",
    "province": "Tarlac",
    "city_municipality": "La Paz",
    "zip_code": "2314"
  },
  {
    "region": "Region 3 (Central Luzon)",
    "province": "Tarlac",
    "city_municipality": "Capas",
    "zip_code": "2315"
  },
  {
    "region": "Region 3 (Central Luzon)",
    "province": "Tarlac",
    "city_municipality": "Concepcion",
    "zip_code": "2316"
  },
  {
    "region": "Region 3 (Central Luzon)",
    "province": "Tarlac",
    "city_municipality": "Bamban",
    "zip_code": "2317"
  },
  {
    "region": "Region 3 (Central Luzon)",
    "province": "Tarlac",
    "city_municipality": "San Jose",
    "zip_code": "2318"
  },
  {
    "region": "Region 1 (Ilocos Region)",
    "province": "Pangasinan",
    "city_municipality": "Sual",
    "zip_code": "2403"
  },
  {
    "region": "Region 1 (Ilocos Region)",
    "province": "Pangasinan",
    "city_municipality": "Mangatarem",
    "zip_code": "2413"
  },
  {
    "region": "Region 1 (Ilocos Region)",
    "province": "Pangasinan",
    "city_municipality": "Urbiztondo",
    "zip_code": "2414"
  },
  {
    "region": "Region 1 (Ilocos Region)",
    "province": "Pangasinan",
    "city_municipality": "Santa Barbara",
    "zip_code": "2419"
  },
  {
    "region": "Region 1 (Ilocos Region)",
    "province": "Pangasinan",
    "city_municipality": "San Carlos City",
    "zip_code": "2420"
  },
  {
    "region": "Region 1 (Ilocos Region)",
    "province": "Pangasinan",
    "city_municipality": "Santo Tomas",
    "zip_code": "2426"
  },
  {
    "region": "Region 1 (Ilocos Region)",
    "province": "Pangasinan",
    "city_municipality": "Villasis",
    "zip_code": "2427"
  },
  {
    "region": "Region 1 (Ilocos Region)",
    "province": "Pangasinan",
    "city_municipality": "Urdaneta",
    "zip_code": "2428"
  },
  {
    "region": "Region 1 (Ilocos Region)",
    "province": "Pangasinan",
    "city_municipality": "Mapandan",
    "zip_code": "2429"
  },
  {
    "region": "Region 1 (Ilocos Region)",
    "province": "Pangasinan",
    "city_municipality": "San Jacinto",
    "zip_code": "2431"
  },
  {
    "region": "Region 1 (Ilocos Region)",
    "province": "Pangasinan",
    "city_municipality": "Mangaldan",
    "zip_code": "2432"
  },
  {
    "region": "Region 1 (Ilocos Region)",
    "province": "Pangasinan",
    "city_municipality": "San Fabian",
    "zip_code": "2433"
  },
  {
    "region": "Region 1 (Ilocos Region)",
    "province": "Pangasinan",
    "city_municipality": "Sison",
    "zip_code": "2434"
  },
  {
    "region": "Region 1 (Ilocos Region)",
    "province": "Pangasinan",
    "city_municipality": "Pozorrubio",
    "zip_code": "2435"
  },
  {
    "region": "Region 1 (Ilocos Region)",
    "province": "Pangasinan",
    "city_municipality": "San Manuel",
    "zip_code": "2438"
  },
  {
    "region": "Region 1 (Ilocos Region)",
    "province": "Pangasinan",
    "city_municipality": "Santa Maria",
    "zip_code": "2440"
  },
  {
    "region": "Region 1 (Ilocos Region)",
    "province": "Pangasinan",
    "city_municipality": "Rosales",
    "zip_code": "2441"
  },
  {
    "region": "Region 1 (Ilocos Region)",
    "province": "Pangasinan",
    "city_municipality": "Umingan",
    "zip_code": "2443"
  },
  {
    "region": "Region 1 (Ilocos Region)",
    "province": "Pangasinan",
    "city_municipality": "San Quintin",
    "zip_code": "2444"
  },
  {
    "region": "Region 1 (Ilocos Region)",
    "province": "Pangasinan",
    "city_municipality": "Tayug",
    "zip_code": "2445"
  },
  {
    "region": "Region 1 (Ilocos Region)",
    "province": "Pangasinan",
    "city_municipality": "Natividad",
    "zip_code": "2446"
  },
  {
    "region": "Region 1 (Ilocos Region)",
    "province": "Pangasinan",
    "city_municipality": "San Nicolas",
    "zip_code": "2447"
  },
  {
    "region": "CAR (Cordillera Administrative Region)",
    "province": "Benguet",
    "city_municipality": "Baguio City",
    "zip_code": "2600"
  },
  {
    "region": "CAR (Cordillera Administrative Region)",
    "province": "Benguet",
    "city_municipality": "La Trinidad",
    "zip_code": "2601"
  },
  {
    "region": "CAR (Cordillera Administrative Region)",
    "province": "Benguet",
    "city_municipality": "Philippine Military Academy (PMA)",
    "zip_code": "2602"
  },
  {
    "region": "CAR (Cordillera Administrative Region)",
    "province": "Benguet",
    "city_municipality": "Tuba",
    "zip_code": "2603"
  },
  {
    "region": "CAR (Cordillera Administrative Region)",
    "province": "Benguet",
    "city_municipality": "Itogon",
    "zip_code": "2604"
  },
  {
    "region": "CAR (Cordillera Administrative Region)",
    "province": "Benguet",
    "city_municipality": "Bokod",
    "zip_code": "2605"
  },
  {
    "region": "CAR (Cordillera Administrative Region)",
    "province": "Benguet",
    "city_municipality": "Kabayan",
    "zip_code": "2606"
  },
  {
    "region": "CAR (Cordillera Administrative Region)",
    "province": "Benguet",
    "city_municipality": "Buguias",
    "zip_code": "2607"
  },
  {
    "region": "CAR (Cordillera Administrative Region)",
    "province": "Benguet",
    "city_municipality": "Mankayan",
    "zip_code": "2608"
  },
  {
    "region": "CAR (Cordillera Administrative Region)",
    "province": "Benguet",
    "city_municipality": "Bakun",
    "zip_code": "2610"
  },
  {
    "region": "CAR (Cordillera Administrative Region)",
    "province": "Benguet",
    "city_municipality": "Kibungan",
    "zip_code": "2611"
  },
  {
    "region": "CAR (Cordillera Administrative Region)",
    "province": "Benguet",
    "city_municipality": "Atok",
    "zip_code": "2612"
  },
  {
    "region": "CAR (Cordillera Administrative Region)",
    "province": "Benguet",
    "city_municipality": "Kapangan",
    "zip_code": "2613"
  },
  {
    "region": "CAR (Cordillera Administrative Region)",
    "province": "Benguet",
    "city_municipality": "Sablan",
    "zip_code": "2614"
  },
  {
    "region": "CAR (Cordillera Administrative Region)",
    "province": "Benguet",
    "city_municipality": "Tublay",
    "zip_code": "2615"
  },
  {
    "region": "CAR (Cordillera Administrative Region)",
    "province": "Abra",
    "city_municipality": "Bangued",
    "zip_code": "2800"
  },
  {
    "region": "CAR (Cordillera Administrative Region)",
    "province": "Abra",
    "city_municipality": "Dolores",
    "zip_code": "2801"
  },
  {
    "region": "CAR (Cordillera Administrative Region)",
    "province": "Abra",
    "city_municipality": "Lagangilang",
    "zip_code": "2802"
  },
  {
    "region": "CAR (Cordillera Administrative Region)",
    "province": "Abra",
    "city_municipality": "Tayum",
    "zip_code": "2803"
  },
  {
    "region": "CAR (Cordillera Administrative Region)",
    "province": "Abra",
    "city_municipality": "Peñarrubia",
    "zip_code": "2804"
  },
  {
    "region": "CAR (Cordillera Administrative Region)",
    "province": "Abra",
    "city_municipality": "Bucay",
    "zip_code": "2805"
  },
  {
    "region": "CAR (Cordillera Administrative Region)",
    "province": "Abra",
    "city_municipality": "Pidigan",
    "zip_code": "2806"
  },
  {
    "region": "CAR (Cordillera Administrative Region)",
    "province": "Abra",
    "city_municipality": "Langiden",
    "zip_code": "2807"
  },
  {
    "region": "CAR (Cordillera Administrative Region)",
    "province": "Abra",
    "city_municipality": "San Quintin",
    "zip_code": "2808"
  },
  {
    "region": "CAR (Cordillera Administrative Region)",
    "province": "Abra",
    "city_municipality": "San Isidro",
    "zip_code": "2809"
  },
  {
    "region": "CAR (Cordillera Administrative Region)",
    "province": "Abra",
    "city_municipality": "Manabo",
    "zip_code": "2810"
  },
  {
    "region": "CAR (Cordillera Administrative Region)",
    "province": "Abra",
    "city_municipality": "Villaviciosa",
    "zip_code": "2811"
  },
  {
    "region": "CAR (Cordillera Administrative Region)",
    "province": "Abra",
    "city_municipality": "Pilar",
    "zip_code": "2812"
  },
  {
    "region": "CAR (Cordillera Administrative Region)",
    "province": "Abra",
    "city_municipality": "Luba",
    "zip_code": "2813"
  },
  {
    "region": "CAR (Cordillera Administrative Region)",
    "province": "Abra",
    "city_municipality": "Tubo",
    "zip_code": "2814"
  },
  {
    "region": "CAR (Cordillera Administrative Region)",
    "province": "Abra",
    "city_municipality": "Boliney",
    "zip_code": "2815"
  },
  {
    "region": "CAR (Cordillera Administrative Region)",
    "province": "Abra",
    "city_municipality": "Daguioman",
    "zip_code": "2816"
  },
  {
    "region": "CAR (Cordillera Administrative Region)",
    "province": "Abra",
    "city_municipality": "Bucloc",
    "zip_code": "2817"
  },
  {
    "region": "CAR (Cordillera Administrative Region)",
    "province": "Abra",
    "city_municipality": "Sallapadan",
    "zip_code": "2818"
  },
  {
    "region": "CAR (Cordillera Administrative Region)",
    "province": "Abra",
    "city_municipality": "Licuan-Baay",
    "zip_code": "2819"
  },
  {
    "region": "CAR (Cordillera Administrative Region)",
    "province": "Abra",
    "city_municipality": "Malibcong",
    "zip_code": "2820"
  },
  {
    "region": "CAR (Cordillera Administrative Region)",
    "province": "Abra",
    "city_municipality": "Lacub",
    "zip_code": "2821"
  },
  {
    "region": "CAR (Cordillera Administrative Region)",
    "province": "Abra",
    "city_municipality": "Tineg",
    "zip_code": "2822"
  },
  {
    "region": "CAR (Cordillera Administrative Region)",
    "province": "Abra",
    "city_municipality": "San Juan",
    "zip_code": "2823"
  },
  {
    "region": "CAR (Cordillera Administrative Region)",
    "province": "Abra",
    "city_municipality": "Lagayan",
    "zip_code": "2824"
  },
  {
    "region": "CAR (Cordillera Administrative Region)",
    "province": "Abra",
    "city_municipality": "Danglas",
    "zip_code": "2825"
  },
  {
    "region": "CAR (Cordillera Administrative Region)",
    "province": "Abra",
    "city_municipality": "La Paz",
    "zip_code": "2826"
  },
  {
    "region": "Region 3 (Central Luzon)",
    "province": "Bulacan",
    "city_municipality": "Malolos",
    "zip_code": "3000"
  },
  {
    "region": "Region 3 (Central Luzon)",
    "province": "Bulacan",
    "city_municipality": "Paombong",
    "zip_code": "3001"
  },
  {
    "region": "Region 3 (Central Luzon)",
    "province": "Bulacan",
    "city_municipality": "Hagonoy",
    "zip_code": "3002"
  },
  {
    "region": "Region 3 (Central Luzon)",
    "province": "Bulacan",
    "city_municipality": "Calumpit",
    "zip_code": "3003"
  },
  {
    "region": "Region 3 (Central Luzon)",
    "province": "Bulacan",
    "city_municipality": "Plaridel",
    "zip_code": "3004"
  },
  {
    "region": "Region 3 (Central Luzon)",
    "province": "Bulacan",
    "city_municipality": "Pulilan",
    "zip_code": "3005"
  },
  {
    "region": "Region 3 (Central Luzon)",
    "province": "Bulacan",
    "city_municipality": "Baliuag",
    "zip_code": "3006"
  },
  {
    "region": "Region 3 (Central Luzon)",
    "province": "Bulacan",
    "city_municipality": "Bustos",
    "zip_code": "3007"
  },
  {
    "region": "Region 3 (Central Luzon)",
    "province": "Bulacan",
    "city_municipality": "San Rafael",
    "zip_code": "3008"
  },
  {
    "region": "Region 3 (Central Luzon)",
    "province": "Bulacan",
    "city_municipality": "Doña Remedios Trinidad",
    "zip_code": "3009"
  },
  {
    "region": "Region 3 (Central Luzon)",
    "province": "Bulacan",
    "city_municipality": "San Ildefonso",
    "zip_code": "3010"
  },
  {
    "region": "Region 3 (Central Luzon)",
    "province": "Bulacan",
    "city_municipality": "San Miguel",
    "zip_code": "3011"
  },
  {
    "region": "Region 3 (Central Luzon)",
    "province": "Bulacan",
    "city_municipality": "Angat",
    "zip_code": "3012"
  },
  {
    "region": "Region 3 (Central Luzon)",
    "province": "Bulacan",
    "city_municipality": "Norzagaray",
    "zip_code": "3013"
  },
  {
    "region": "Region 3 (Central Luzon)",
    "province": "Bulacan",
    "city_municipality": "Pandi",
    "zip_code": "3014"
  },
  {
    "region": "Region 3 (Central Luzon)",
    "province": "Bulacan",
    "city_municipality": "Guiguinto",
    "zip_code": "3015"
  },
  {
    "region": "Region 3 (Central Luzon)",
    "province": "Bulacan",
    "city_municipality": "Balagtas",
    "zip_code": "3016"
  },
  {
    "region": "Region 3 (Central Luzon)",
    "province": "Bulacan",
    "city_municipality": "Bulacan",
    "zip_code": "3017"
  },
  {
    "region": "Region 3 (Central Luzon)",
    "province": "Bulacan",
    "city_municipality": "Bocaue",
    "zip_code": "3018"
  },
  {
    "region": "Region 3 (Central Luzon)",
    "province": "Bulacan",
    "city_municipality": "Marilao",
    "zip_code": "3019"
  },
  {
    "region": "Region 3 (Central Luzon)",
    "province": "Bulacan",
    "city_municipality": "Meycauayan",
    "zip_code": "3020"
  },
  {
    "region": "Region 3 (Central Luzon)",
    "province": "Bulacan",
    "city_municipality": "Obando",
    "zip_code": "3021"
  },
  {
    "region": "Region 3 (Central Luzon)",
    "province": "Bulacan",
    "city_municipality": "Sta. Maria",
    "zip_code": "3022"
  },
  {
    "region": "Region 3 (Central Luzon)",
    "province": "Bulacan",
    "city_municipality": "San Jose Del Monte",
    "zip_code": "3023"
  },
  {
    "region": "Region 3 (Central Luzon)",
    "province": "Bulacan",
    "city_municipality": "Sapang Palay",
    "zip_code": "3024"
  },
  {
    "region": "Region 3 (Central Luzon)",
    "province": "Bulacan",
    "city_municipality": "Cruz Na Daan",
    "zip_code": "3025"
  },
  {
    "region": "Region 3 (Central Luzon)",
    "province": "Nueva Ecija",
    "city_municipality": "Cabanatuan City",
    "zip_code": "3100"
  },
  {
    "region": "Region 3 (Central Luzon)",
    "province": "Nueva Ecija",
    "city_municipality": "Sta. Rosa",
    "zip_code": "3101"
  },
  {
    "region": "Region 3 (Central Luzon)",
    "province": "Nueva Ecija",
    "city_municipality": "San Leonardo",
    "zip_code": "3102"
  },
  {
    "region": "Region 3 (Central Luzon)",
    "province": "Nueva Ecija",
    "city_municipality": "Peñaranda",
    "zip_code": "3103"
  },
  {
    "region": "Region 3 (Central Luzon)",
    "province": "Nueva Ecija",
    "city_municipality": "Gen. Tinio",
    "zip_code": "3104"
  },
  {
    "region": "Region 3 (Central Luzon)",
    "province": "Nueva Ecija",
    "city_municipality": "Gapan City",
    "zip_code": "3105"
  },
  {
    "region": "Region 3 (Central Luzon)",
    "province": "Nueva Ecija",
    "city_municipality": "San Isidro",
    "zip_code": "3106"
  },
  {
    "region": "Region 3 (Central Luzon)",
    "province": "Nueva Ecija",
    "city_municipality": "Cabiao",
    "zip_code": "3107"
  },
  {
    "region": "Region 3 (Central Luzon)",
    "province": "Nueva Ecija",
    "city_municipality": "San Antonio",
    "zip_code": "3108"
  },
  {
    "region": "Region 3 (Central Luzon)",
    "province": "Nueva Ecija",
    "city_municipality": "Jaen",
    "zip_code": "3109"
  },
  {
    "region": "Region 3 (Central Luzon)",
    "province": "Nueva Ecija",
    "city_municipality": "Zaragoza",
    "zip_code": "3110"
  },
  {
    "region": "Region 3 (Central Luzon)",
    "province": "Nueva Ecija",
    "city_municipality": "Aliaga",
    "zip_code": "3111"
  },
  {
    "region": "Region 3 (Central Luzon)",
    "province": "Nueva Ecija",
    "city_municipality": "Licab",
    "zip_code": "3112"
  },
  {
    "region": "Region 3 (Central Luzon)",
    "province": "Nueva Ecija",
    "city_municipality": "Quezon",
    "zip_code": "3113"
  },
  {
    "region": "Region 3 (Central Luzon)",
    "province": "Nueva Ecija",
    "city_municipality": "Talavera",
    "zip_code": "3114"
  },
  {
    "region": "Region 3 (Central Luzon)",
    "province": "Nueva Ecija",
    "city_municipality": "Guimba",
    "zip_code": "3115"
  },
  {
    "region": "Region 3 (Central Luzon)",
    "province": "Nueva Ecija",
    "city_municipality": "Nampicuan",
    "zip_code": "3116"
  },
  {
    "region": "Region 3 (Central Luzon)",
    "province": "Nueva Ecija",
    "city_municipality": "Cuyapo",
    "zip_code": "3117"
  },
  {
    "region": "Region 3 (Central Luzon)",
    "province": "Nueva Ecija",
    "city_municipality": "Talugtog",
    "zip_code": "3118"
  },
  {
    "region": "Region 3 (Central Luzon)",
    "province": "Nueva Ecija",
    "city_municipality": "Muñoz",
    "zip_code": "3119"
  },
  {
    "region": "Region 3 (Central Luzon)",
    "province": "Nueva Ecija",
    "city_municipality": "Central Luzon State University",
    "zip_code": "3120"
  },
  {
    "region": "Region 3 (Central Luzon)",
    "province": "Nueva Ecija",
    "city_municipality": "San Jose City",
    "zip_code": "3121"
  },
  {
    "region": "Region 3 (Central Luzon)",
    "province": "Nueva Ecija",
    "city_municipality": "Lupao",
    "zip_code": "3122"
  },
  {
    "region": "Region 3 (Central Luzon)",
    "province": "Nueva Ecija",
    "city_municipality": "Carrangalan",
    "zip_code": "3123"
  },
  {
    "region": "Region 3 (Central Luzon)",
    "province": "Nueva Ecija",
    "city_municipality": "Pantabangan",
    "zip_code": "3124"
  },
  {
    "region": "Region 3 (Central Luzon)",
    "province": "Nueva Ecija",
    "city_municipality": "Gen. M. Natividad",
    "zip_code": "3125"
  },
  {
    "region": "Region 3 (Central Luzon)",
    "province": "Nueva Ecija",
    "city_municipality": "Llanera",
    "zip_code": "3126"
  },
  {
    "region": "Region 3 (Central Luzon)",
    "province": "Nueva Ecija",
    "city_municipality": "Rizal",
    "zip_code": "3127"
  },
  {
    "region": "Region 3 (Central Luzon)",
    "province": "Nueva Ecija",
    "city_municipality": "Bongabon",
    "zip_code": "3128"
  },
  {
    "region": "Region 3 (Central Luzon)",
    "province": "Nueva Ecija",
    "city_municipality": "Laur",
    "zip_code": "3129"
  },
  {
    "region": "Region 3 (Central Luzon)",
    "province": "Nueva Ecija",
    "city_municipality": "Fort Magsaysay",
    "zip_code": "3130"
  },
  {
    "region": "Region 3 (Central Luzon)",
    "province": "Nueva Ecija",
    "city_municipality": "Gabaldon",
    "zip_code": "3131"
  },
  {
    "region": "Region 3 (Central Luzon)",
    "province": "Nueva Ecija",
    "city_municipality": "Palayan City",
    "zip_code": "3132"
  },
  {
    "region": "Region 3 (Central Luzon)",
    "province": "Nueva Ecija",
    "city_municipality": "Sto. Domingo",
    "zip_code": "3133"
  },
  {
    "region": "Region 3 (Central Luzon)",
    "province": "Aurora",
    "city_municipality": "Baler",
    "zip_code": "3200"
  },
  {
    "region": "Region 3 (Central Luzon)",
    "province": "Aurora",
    "city_municipality": "San Luis",
    "zip_code": "3201"
  },
  {
    "region": "Region 3 (Central Luzon)",
    "province": "Aurora",
    "city_municipality": "Maria Aurora",
    "zip_code": "3202"
  },
  {
    "region": "Region 3 (Central Luzon)",
    "province": "Aurora",
    "city_municipality": "Dipaculao",
    "zip_code": "3203"
  },
  {
    "region": "Region 3 (Central Luzon)",
    "province": "Aurora",
    "city_municipality": "Casiguran",
    "zip_code": "3204"
  },
  {
    "region": "Region 3 (Central Luzon)",
    "province": "Aurora",
    "city_municipality": "Dilasag",
    "zip_code": "3205"
  },
  {
    "region": "Region 3 (Central Luzon)",
    "province": "Aurora",
    "city_municipality": "Dinalungan",
    "zip_code": "3206"
  },
  {
    "region": "Region 3 (Central Luzon)",
    "province": "Aurora",
    "city_municipality": "Dingalan",
    "zip_code": "3207"
  },
  {
    "region": "Region 2 (Cagayan Valley)",
    "province": "Isabela",
    "city_municipality": "City of Ilagan",
    "zip_code": "3300"
  },
  {
    "region": "Region 2 (Cagayan Valley)",
    "province": "Isabela",
    "city_municipality": "Gamu",
    "zip_code": "3301"
  },
  {
    "region": "Region 2 (Cagayan Valley)",
    "province": "Isabela",
    "city_municipality": "Naguillan",
    "zip_code": "3302"
  },
  {
    "region": "Region 2 (Cagayan Valley)",
    "province": "Isabela",
    "city_municipality": "Reina Mercedes",
    "zip_code": "3303"
  },
  {
    "region": "Region 2 (Cagayan Valley)",
    "province": "Isabela",
    "city_municipality": "Luna",
    "zip_code": "3304"
  },
  {
    "region": "Region 2 (Cagayan Valley)",
    "province": "Isabela",
    "city_municipality": "City of Cauayan",
    "zip_code": "3305"
  },
  {
    "region": "Region 2 (Cagayan Valley)",
    "province": "Isabela",
    "city_municipality": "Alicia",
    "zip_code": "3306"
  },
  {
    "region": "Region 2 (Cagayan Valley)",
    "province": "Isabela",
    "city_municipality": "Angadanan",
    "zip_code": "3307"
  },
  {
    "region": "Region 2 (Cagayan Valley)",
    "province": "Isabela",
    "city_municipality": "San Guillermo",
    "zip_code": "3308"
  },
  {
    "region": "Region 2 (Cagayan Valley)",
    "province": "Isabela",
    "city_municipality": "Echague",
    "zip_code": "3309"
  },
  {
    "region": "Region 2 (Cagayan Valley)",
    "province": "Isabela",
    "city_municipality": "San Isidro",
    "zip_code": "3310"
  },
  {
    "region": "Region 2 (Cagayan Valley)",
    "province": "Isabela",
    "city_municipality": "Santiago CIty",
    "zip_code": "3311"
  },
  {
    "region": "Region 2 (Cagayan Valley)",
    "province": "Isabela",
    "city_municipality": "Cordon",
    "zip_code": "3312"
  },
  {
    "region": "Region 2 (Cagayan Valley)",
    "province": "Isabela",
    "city_municipality": "Jones",
    "zip_code": "3313"
  },
  {
    "region": "Region 2 (Cagayan Valley)",
    "province": "Isabela",
    "city_municipality": "San Agustin",
    "zip_code": "3314"
  },
  {
    "region": "Region 2 (Cagayan Valley)",
    "province": "Isabela",
    "city_municipality": "Cabatuan",
    "zip_code": "3315"
  },
  {
    "region": "Region 2 (Cagayan Valley)",
    "province": "Isabela",
    "city_municipality": "Aurora",
    "zip_code": "3316"
  },
  {
    "region": "Region 2 (Cagayan Valley)",
    "province": "Isabela",
    "city_municipality": "San Manuel",
    "zip_code": "3317"
  },
  {
    "region": "Region 2 (Cagayan Valley)",
    "province": "Isabela",
    "city_municipality": "San Mateo",
    "zip_code": "3318"
  },
  {
    "region": "Region 2 (Cagayan Valley)",
    "province": "Isabela",
    "city_municipality": "Ramon",
    "zip_code": "3319"
  },
  {
    "region": "Region 2 (Cagayan Valley)",
    "province": "Isabela",
    "city_municipality": "Roxas",
    "zip_code": "3320"
  },
  {
    "region": "Region 2 (Cagayan Valley)",
    "province": "Isabela",
    "city_municipality": "Quirino",
    "zip_code": "3321"
  },
  {
    "region": "Region 2 (Cagayan Valley)",
    "province": "Isabela",
    "city_municipality": "Burgos",
    "zip_code": "3322"
  },
  {
    "region": "Region 2 (Cagayan Valley)",
    "province": "Isabela",
    "city_municipality": "Mallig",
    "zip_code": "3323"
  },
  {
    "region": "Region 2 (Cagayan Valley)",
    "province": "Isabela",
    "city_municipality": "Quezon",
    "zip_code": "3324"
  },
  {
    "region": "Region 2 (Cagayan Valley)",
    "province": "Isabela",
    "city_municipality": "Tumauini",
    "zip_code": "3325"
  },
  {
    "region": "Region 2 (Cagayan Valley)",
    "province": "Isabela",
    "city_municipality": "Delfin Albano",
    "zip_code": "3326"
  },
  {
    "region": "Region 2 (Cagayan Valley)",
    "province": "Isabela",
    "city_municipality": "Sto. Tomas",
    "zip_code": "3327"
  },
  {
    "region": "Region 2 (Cagayan Valley)",
    "province": "Isabela",
    "city_municipality": "Cabagan",
    "zip_code": "3328"
  },
  {
    "region": "Region 2 (Cagayan Valley)",
    "province": "Isabela",
    "city_municipality": "San Pablo",
    "zip_code": "3329"
  },
  {
    "region": "Region 2 (Cagayan Valley)",
    "province": "Isabela",
    "city_municipality": "Sta. Maria",
    "zip_code": "3330"
  },
  {
    "region": "Region 2 (Cagayan Valley)",
    "province": "Isabela",
    "city_municipality": "Benito Soliven",
    "zip_code": "3331"
  },
  {
    "region": "Region 2 (Cagayan Valley)",
    "province": "Isabela",
    "city_municipality": "San Mariano",
    "zip_code": "3332"
  },
  {
    "region": "Region 2 (Cagayan Valley)",
    "province": "Isabela",
    "city_municipality": "Maconacon",
    "zip_code": "3333"
  },
  {
    "region": "Region 2 (Cagayan Valley)",
    "province": "Isabela",
    "city_municipality": "Palanan",
    "zip_code": "3334"
  },
  {
    "region": "Region 2 (Cagayan Valley)",
    "province": "Isabela",
    "city_municipality": "Divilacan",
    "zip_code": "3335"
  },
  {
    "region": "Region 2 (Cagayan Valley)",
    "province": "Isabela",
    "city_municipality": "Dinapigue",
    "zip_code": "3336"
  },
  {
    "region": "Region 2 (Cagayan Valley)",
    "province": "Quirino",
    "city_municipality": "Cabarroguis",
    "zip_code": "3400"
  },
  {
    "region": "Region 2 (Cagayan Valley)",
    "province": "Quirino",
    "city_municipality": "Diffun",
    "zip_code": "3401"
  },
  {
    "region": "Region 2 (Cagayan Valley)",
    "province": "Quirino",
    "city_municipality": "Saguday",
    "zip_code": "3402"
  },
  {
    "region": "Region 2 (Cagayan Valley)",
    "province": "Quirino",
    "city_municipality": "Aglipay",
    "zip_code": "3403"
  },
  {
    "region": "Region 2 (Cagayan Valley)",
    "province": "Quirino",
    "city_municipality": "Maddela",
    "zip_code": "3404"
  },
  {
    "region": "Region 2 (Cagayan Valley)",
    "province": "Quirino",
    "city_municipality": "Nagtipunan",
    "zip_code": "3405"
  },
  {
    "region": "Region 2 (Cagayan Valley)",
    "province": "Cagayan",
    "city_municipality": "Tuguegarao City",
    "zip_code": "3500"
  },
  {
    "region": "Region 2 (Cagayan Valley)",
    "province": "Cagayan",
    "city_municipality": "Enrile",
    "zip_code": "3501"
  },
  {
    "region": "Region 2 (Cagayan Valley)",
    "province": "Cagayan",
    "city_municipality": "Peñablanca",
    "zip_code": "3502"
  },
  {
    "region": "Region 2 (Cagayan Valley)",
    "province": "Cagayan",
    "city_municipality": "Solana",
    "zip_code": "3503"
  },
  {
    "region": "Region 2 (Cagayan Valley)",
    "province": "Cagayan",
    "city_municipality": "Iguig",
    "zip_code": "3504"
  },
  {
    "region": "Region 2 (Cagayan Valley)",
    "province": "Cagayan",
    "city_municipality": "Amulung",
    "zip_code": "3505"
  },
  {
    "region": "Region 2 (Cagayan Valley)",
    "province": "Cagayan",
    "city_municipality": "Baggao",
    "zip_code": "3506"
  },
  {
    "region": "Region 2 (Cagayan Valley)",
    "province": "Cagayan",
    "city_municipality": "Alcala",
    "zip_code": "3507"
  },
  {
    "region": "Region 2 (Cagayan Valley)",
    "province": "Cagayan",
    "city_municipality": "Gattaran",
    "zip_code": "3508"
  },
  {
    "region": "Region 2 (Cagayan Valley)",
    "province": "Cagayan",
    "city_municipality": "Lal-lo",
    "zip_code": "3509"
  },
  {
    "region": "Region 2 (Cagayan Valley)",
    "province": "Cagayan",
    "city_municipality": "Camalaniugan",
    "zip_code": "3510"
  },
  {
    "region": "Region 2 (Cagayan Valley)",
    "province": "Cagayan",
    "city_municipality": "Buguey",
    "zip_code": "3511"
  },
  {
    "region": "Region 2 (Cagayan Valley)",
    "province": "Cagayan",
    "city_municipality": "Sta. Teresita",
    "zip_code": "3512"
  },
  {
    "region": "Region 2 (Cagayan Valley)",
    "province": "Cagayan",
    "city_municipality": "Gonzaga",
    "zip_code": "3513"
  },
  {
    "region": "Region 2 (Cagayan Valley)",
    "province": "Cagayan",
    "city_municipality": "Sta. Ana",
    "zip_code": "3514"
  },
  {
    "region": "Region 2 (Cagayan Valley)",
    "province": "Cagayan",
    "city_municipality": "Aparri",
    "zip_code": "3515"
  },
  {
    "region": "Region 2 (Cagayan Valley)",
    "province": "Cagayan",
    "city_municipality": "Ballesteros",
    "zip_code": "3516"
  },
  {
    "region": "Region 2 (Cagayan Valley)",
    "province": "Cagayan",
    "city_municipality": "Abulug",
    "zip_code": "3517"
  },
  {
    "region": "Region 2 (Cagayan Valley)",
    "province": "Cagayan",
    "city_municipality": "Sanchez-Mira",
    "zip_code": "3518"
  },
  {
    "region": "Region 2 (Cagayan Valley)",
    "province": "Cagayan",
    "city_municipality": "Claveria",
    "zip_code": "3519"
  },
  {
    "region": "Region 2 (Cagayan Valley)",
    "province": "Cagayan",
    "city_municipality": "Calayan",
    "zip_code": "3520"
  },
  {
    "region": "Region 2 (Cagayan Valley)",
    "province": "Cagayan",
    "city_municipality": "Santa Praxedes",
    "zip_code": "3521"
  },
  {
    "region": "Region 2 (Cagayan Valley)",
    "province": "Cagayan",
    "city_municipality": "Pamplona",
    "zip_code": "3522"
  },
  {
    "region": "Region 2 (Cagayan Valley)",
    "province": "Cagayan",
    "city_municipality": "Allacapan",
    "zip_code": "3523"
  },
  {
    "region": "Region 2 (Cagayan Valley)",
    "province": "Cagayan",
    "city_municipality": "Lasam",
    "zip_code": "3524"
  },
  {
    "region": "Region 2 (Cagayan Valley)",
    "province": "Cagayan",
    "city_municipality": "Santo Niño",
    "zip_code": "3525"
  },
  {
    "region": "Region 2 (Cagayan Valley)",
    "province": "Cagayan",
    "city_municipality": "Rizal",
    "zip_code": "3526"
  },
  {
    "region": "Region 2 (Cagayan Valley)",
    "province": "Cagayan",
    "city_municipality": "Piat",
    "zip_code": "3527"
  },
  {
    "region": "Region 2 (Cagayan Valley)",
    "province": "Cagayan",
    "city_municipality": "Tuao",
    "zip_code": "3528"
  },
  {
    "region": "CAR (Cordillera Administrative Region)",
    "province": "Ifugao",
    "city_municipality": "Lagawe",
    "zip_code": "3600"
  },
  {
    "region": "CAR (Cordillera Administrative Region)",
    "province": "Ifugao",
    "city_municipality": "Banaue",
    "zip_code": "3601"
  },
  {
    "region": "CAR (Cordillera Administrative Region)",
    "province": "Ifugao",
    "city_municipality": "Mayoyao",
    "zip_code": "3602"
  },
  {
    "region": "CAR (Cordillera Administrative Region)",
    "province": "Ifugao",
    "city_municipality": "Hungduan",
    "zip_code": "3603"
  },
  {
    "region": "CAR (Cordillera Administrative Region)",
    "province": "Ifugao",
    "city_municipality": "Kiangan",
    "zip_code": "3604"
  },
  {
    "region": "CAR (Cordillera Administrative Region)",
    "province": "Ifugao",
    "city_municipality": "Lamut",
    "zip_code": "3605"
  },
  {
    "region": "CAR (Cordillera Administrative Region)",
    "province": "Ifugao",
    "city_municipality": "Aguinaldo",
    "zip_code": "3606"
  },
  {
    "region": "CAR (Cordillera Administrative Region)",
    "province": "Ifugao",
    "city_municipality": "Hingyon",
    "zip_code": "3607"
  },
  {
    "region": "CAR (Cordillera Administrative Region)",
    "province": "Ifugao",
    "city_municipality": "Alfonso Lista (formerly Potia)",
    "zip_code": "3608"
  },
  {
    "region": "CAR (Cordillera Administrative Region)",
    "province": "Ifugao",
    "city_municipality": "Tinoc",
    "zip_code": "3609"
  },
  {
    "region": "CAR (Cordillera Administrative Region)",
    "province": "Ifugao",
    "city_municipality": "Asipulo",
    "zip_code": "3610"
  },
  {
    "region": "Region 2 (Cagayan Valley)",
    "province": "Nueva Vizcaya",
    "city_municipality": "Bayombong",
    "zip_code": "3700"
  },
  {
    "region": "Region 2 (Cagayan Valley)",
    "province": "Nueva Vizcaya",
    "city_municipality": "Ambaguio",
    "zip_code": "3701"
  },
  {
    "region": "Region 2 (Cagayan Valley)",
    "province": "Nueva Vizcaya",
    "city_municipality": "Bambang",
    "zip_code": "3702"
  },
  {
    "region": "Region 2 (Cagayan Valley)",
    "province": "Nueva Vizcaya",
    "city_municipality": "Kasibu",
    "zip_code": "3703"
  },
  {
    "region": "Region 2 (Cagayan Valley)",
    "province": "Nueva Vizcaya",
    "city_municipality": "Aritao",
    "zip_code": "3704"
  },
  {
    "region": "Region 2 (Cagayan Valley)",
    "province": "Nueva Vizcaya",
    "city_municipality": "Sta. Fe",
    "zip_code": "3705"
  },
  {
    "region": "Region 2 (Cagayan Valley)",
    "province": "Nueva Vizcaya",
    "city_municipality": "Dupax del Norte",
    "zip_code": "3706"
  },
  {
    "region": "Region 2 (Cagayan Valley)",
    "province": "Nueva Vizcaya",
    "city_municipality": "Dupax del Sur",
    "zip_code": "3707"
  },
  {
    "region": "Region 2 (Cagayan Valley)",
    "province": "Nueva Vizcaya",
    "city_municipality": "Kayapa",
    "zip_code": "3708"
  },
  {
    "region": "Region 2 (Cagayan Valley)",
    "province": "Nueva Vizcaya",
    "city_municipality": "Solano",
    "zip_code": "3709"
  },
  {
    "region": "Region 2 (Cagayan Valley)",
    "province": "Nueva Vizcaya",
    "city_municipality": "Bagabag",
    "zip_code": "3711"
  },
  {
    "region": "Region 2 (Cagayan Valley)",
    "province": "Nueva Vizcaya",
    "city_municipality": "Diadi",
    "zip_code": "3712"
  },
  {
    "region": "Region 2 (Cagayan Valley)",
    "province": "Nueva Vizcaya",
    "city_municipality": "Quezon",
    "zip_code": "3713"
  },
  {
    "region": "Region 2 (Cagayan Valley)",
    "province": "Nueva Vizcaya",
    "city_municipality": "Alfonso Castañeda",
    "zip_code": "3714"
  },
  {
    "region": "CAR (Cordillera Administrative Region)",
    "province": "Kalinga",
    "city_municipality": "Tabuk City",
    "zip_code": "3800"
  },
  {
    "region": "CAR (Cordillera Administrative Region)",
    "province": "Kalinga",
    "city_municipality": "Balbalan",
    "zip_code": "3801"
  },
  {
    "region": "CAR (Cordillera Administrative Region)",
    "province": "Kalinga",
    "city_municipality": "Lubuagan",
    "zip_code": "3802"
  },
  {
    "region": "CAR (Cordillera Administrative Region)",
    "province": "Kalinga",
    "city_municipality": "Pasil",
    "zip_code": "3803"
  },
  {
    "region": "CAR (Cordillera Administrative Region)",
    "province": "Kalinga",
    "city_municipality": "Tinglayan",
    "zip_code": "3804"
  },
  {
    "region": "CAR (Cordillera Administrative Region)",
    "province": "Kalinga",
    "city_municipality": "Tanudan",
    "zip_code": "3805"
  },
  {
    "region": "CAR (Cordillera Administrative Region)",
    "province": "Kalinga",
    "city_municipality": "Pinukpok",
    "zip_code": "3806"
  },
  {
    "region": "CAR (Cordillera Administrative Region)",
    "province": "Apayao",
    "city_municipality": "Conner",
    "zip_code": "3807"
  },
  {
    "region": "CAR (Cordillera Administrative Region)",
    "province": "Kalinga",
    "city_municipality": "Rizal",
    "zip_code": "3808"
  },
  {
    "region": "CAR (Cordillera Administrative Region)",
    "province": "Apayao",
    "city_municipality": "Kabugao",
    "zip_code": "3809"
  },
  {
    "region": "CAR (Cordillera Administrative Region)",
    "province": "Apayao",
    "city_municipality": "Flora",
    "zip_code": "3810"
  },
  {
    "region": "CAR (Cordillera Administrative Region)",
    "province": "Apayao",
    "city_municipality": "Santa Marcela",
    "zip_code": "3811"
  },
  {
    "region": "CAR (Cordillera Administrative Region)",
    "province": "Apayao",
    "city_municipality": "Pudtol",
    "zip_code": "3812"
  },
  {
    "region": "CAR (Cordillera Administrative Region)",
    "province": "Apayao",
    "city_municipality": "Luna",
    "zip_code": "3813"
  },
  {
    "region": "CAR (Cordillera Administrative Region)",
    "province": "Apayao",
    "city_municipality": "Calanasan",
    "zip_code": "3814"
  },
  {
    "region": "Region 2 (Cagayan Valley)",
    "province": "Batanes",
    "city_municipality": "Basco",
    "zip_code": "3900"
  },
  {
    "region": "Region 2 (Cagayan Valley)",
    "province": "Batanes",
    "city_municipality": "Mahatao",
    "zip_code": "3901"
  },
  {
    "region": "Region 2 (Cagayan Valley)",
    "province": "Batanes",
    "city_municipality": "Ivana",
    "zip_code": "3902"
  },
  {
    "region": "Region 2 (Cagayan Valley)",
    "province": "Batanes",
    "city_municipality": "Uyugan",
    "zip_code": "3903"
  },
  {
    "region": "Region 2 (Cagayan Valley)",
    "province": "Batanes",
    "city_municipality": "Sabtang",
    "zip_code": "3904"
  },
  {
    "region": "Region 2 (Cagayan Valley)",
    "province": "Batanes",
    "city_municipality": "Itbayat",
    "zip_code": "3905"
  },
  {
    "region": "Region 4A (CALABARZON)",
    "province": "Laguna",
    "city_municipality": "San Pablo City",
    "zip_code": "4000"
  },
  {
    "region": "Region 4A (CALABARZON)",
    "province": "Laguna",
    "city_municipality": "Alaminos",
    "zip_code": "4001"
  },
  {
    "region": "Region 4A (CALABARZON)",
    "province": "Laguna",
    "city_municipality": "Nagcarlan",
    "zip_code": "4002"
  },
  {
    "region": "Region 4A (CALABARZON)",
    "province": "Laguna",
    "city_municipality": "Rizal",
    "zip_code": "4003"
  },
  {
    "region": "Region 4A (CALABARZON)",
    "province": "Laguna",
    "city_municipality": "Liliw",
    "zip_code": "4004"
  },
  {
    "region": "Region 4A (CALABARZON)",
    "province": "Laguna",
    "city_municipality": "Majayjay",
    "zip_code": "4005"
  },
  {
    "region": "Region 4A (CALABARZON)",
    "province": "Laguna",
    "city_municipality": "Botocan",
    "zip_code": "4006"
  },
  {
    "region": "Region 4A (CALABARZON)",
    "province": "Laguna",
    "city_municipality": "Magdalena",
    "zip_code": "4007"
  },
  {
    "region": "Region 4A (CALABARZON)",
    "province": "Laguna",
    "city_municipality": "Pagsanjan",
    "zip_code": "4008"
  },
  {
    "region": "Region 4A (CALABARZON)",
    "province": "Laguna",
    "city_municipality": "Sta. Cruz",
    "zip_code": "4009"
  },
  {
    "region": "Region 4A (CALABARZON)",
    "province": "Laguna",
    "city_municipality": "Pila",
    "zip_code": "4010"
  },
  {
    "region": "Region 4A (CALABARZON)",
    "province": "Laguna",
    "city_municipality": "Victoria",
    "zip_code": "4011"
  },
  {
    "region": "Region 4A (CALABARZON)",
    "province": "Laguna",
    "city_municipality": "Caluan",
    "zip_code": "4012"
  },
  {
    "region": "Region 4A (CALABARZON)",
    "province": "Laguna",
    "city_municipality": "Cavinti",
    "zip_code": "4013"
  },
  {
    "region": "Region 4A (CALABARZON)",
    "province": "Laguna",
    "city_municipality": "Lumban",
    "zip_code": "4014"
  },
  {
    "region": "Region 4A (CALABARZON)",
    "province": "Laguna",
    "city_municipality": "Kalayaan",
    "zip_code": "4015"
  },
  {
    "region": "Region 4A (CALABARZON)",
    "province": "Laguna",
    "city_municipality": "Paete",
    "zip_code": "4016"
  },
  {
    "region": "Region 4A (CALABARZON)",
    "province": "Laguna",
    "city_municipality": "Pakil",
    "zip_code": "4017"
  },
  {
    "region": "Region 4A (CALABARZON)",
    "province": "Laguna",
    "city_municipality": "Pangil",
    "zip_code": "4018"
  },
  {
    "region": "Region 4A (CALABARZON)",
    "province": "Laguna",
    "city_municipality": "Siniloan",
    "zip_code": "4019"
  },
  {
    "region": "Region 4A (CALABARZON)",
    "province": "Laguna",
    "city_municipality": "Mabitac",
    "zip_code": "4020"
  },
  {
    "region": "Region 4A (CALABARZON)",
    "province": "Laguna",
    "city_municipality": "Famy",
    "zip_code": "4021"
  },
  {
    "region": "Region 4A (CALABARZON)",
    "province": "Laguna",
    "city_municipality": "Sta. Maria",
    "zip_code": "4022"
  },
  {
    "region": "Region 4A (CALABARZON)",
    "province": "Laguna",
    "city_municipality": "San Pedro",
    "zip_code": "4023"
  },
  {
    "region": "Region 4A (CALABARZON)",
    "province": "Laguna",
    "city_municipality": "Biñan",
    "zip_code": "4024"
  },
  {
    "region": "Region 4A (CALABARZON)",
    "province": "Laguna",
    "city_municipality": "Cabuyao",
    "zip_code": "4025"
  },
  {
    "region": "Region 4A (CALABARZON)",
    "province": "Laguna",
    "city_municipality": "Sta. Rosa",
    "zip_code": "4026"
  },
  {
    "region": "Region 4A (CALABARZON)",
    "province": "Laguna",
    "city_municipality": "Calamba",
    "zip_code": "4027"
  },
  {
    "region": "Region 4A (CALABARZON)",
    "province": "Laguna",
    "city_municipality": "Los Baños",
    "zip_code": "4030"
  },
  {
    "region": "Region 4A (CALABARZON)",
    "province": "Laguna",
    "city_municipality": "College Los Baños",
    "zip_code": "4031"
  },
  {
    "region": "Region 4A (CALABARZON)",
    "province": "Laguna",
    "city_municipality": "Luisiana",
    "zip_code": "4032"
  },
  {
    "region": "Region 4A (CALABARZON)",
    "province": "Laguna",
    "city_municipality": "Bay",
    "zip_code": "4033"
  },
  {
    "region": "Region 4A (CALABARZON)",
    "province": "Laguna",
    "city_municipality": "Laguna Technopark",
    "zip_code": "4034"
  },
  {
    "region": "Region 4A (CALABARZON)",
    "province": "Cavite",
    "city_municipality": "Cavite City",
    "zip_code": "4100"
  },
  {
    "region": "Region 4A (CALABARZON)",
    "province": "Cavite",
    "city_municipality": "Bacoor",
    "zip_code": "4102"
  },
  {
    "region": "Region 4A (CALABARZON)",
    "province": "Cavite",
    "city_municipality": "Imus",
    "zip_code": "4103"
  },
  {
    "region": "Region 4A (CALABARZON)",
    "province": "Cavite",
    "city_municipality": "Kawit",
    "zip_code": "4104"
  },
  {
    "region": "Region 4A (CALABARZON)",
    "province": "Cavite",
    "city_municipality": "Noveleta",
    "zip_code": "4105"
  },
  {
    "region": "Region 4A (CALABARZON)",
    "province": "Cavite",
    "city_municipality": "Rosario",
    "zip_code": "4106"
  },
  {
    "region": "Region 4A (CALABARZON)",
    "province": "Cavite",
    "city_municipality": "Gen. Trias",
    "zip_code": "4107"
  },
  {
    "region": "Region 4A (CALABARZON)",
    "province": "Cavite",
    "city_municipality": "Tanza",
    "zip_code": "4108"
  },
  {
    "region": "Region 4A (CALABARZON)",
    "province": "Cavite",
    "city_municipality": "Trece Martirez City",
    "zip_code": "4109"
  },
  {
    "region": "Region 4A (CALABARZON)",
    "province": "Cavite",
    "city_municipality": "Naic",
    "zip_code": "4110"
  },
  {
    "region": "Region 4A (CALABARZON)",
    "province": "Cavite",
    "city_municipality": "Ternate",
    "zip_code": "4111"
  },
  {
    "region": "Region 4A (CALABARZON)",
    "province": "Cavite",
    "city_municipality": "Maragondon",
    "zip_code": "4112"
  },
  {
    "region": "Region 4A (CALABARZON)",
    "province": "Cavite",
    "city_municipality": "Magallanes",
    "zip_code": "4113"
  },
  {
    "region": "Region 4A (CALABARZON)",
    "province": "Cavite",
    "city_municipality": "Dasmariñas",
    "zip_code": "4114"
  },
  {
    "region": "Region 4A (CALABARZON)",
    "province": "Cavite",
    "city_municipality": "Dasmariñas Resettlement Area",
    "zip_code": "4115"
  },
  {
    "region": "Region 4A (CALABARZON)",
    "province": "Cavite",
    "city_municipality": "Carmona",
    "zip_code": "4116"
  },
  {
    "region": "Region 4A (CALABARZON)",
    "province": "Cavite",
    "city_municipality": "Gen. Mariano Alvarez",
    "zip_code": "4117"
  },
  {
    "region": "Region 4A (CALABARZON)",
    "province": "Cavite",
    "city_municipality": "Silang",
    "zip_code": "4118"
  },
  {
    "region": "Region 4A (CALABARZON)",
    "province": "Cavite",
    "city_municipality": "Amadeo",
    "zip_code": "4119"
  },
  {
    "region": "Region 4A (CALABARZON)",
    "province": "Cavite",
    "city_municipality": "Tagaytay",
    "zip_code": "4120"
  },
  {
    "region": "Region 4A (CALABARZON)",
    "province": "Cavite",
    "city_municipality": "Mendez",
    "zip_code": "4121"
  },
  {
    "region": "Region 4A (CALABARZON)",
    "province": "Cavite",
    "city_municipality": "Indang",
    "zip_code": "4122"
  },
  {
    "region": "Region 4A (CALABARZON)",
    "province": "Cavite",
    "city_municipality": "Alfonso",
    "zip_code": "4123"
  },
  {
    "region": "Region 4A (CALABARZON)",
    "province": "Cavite",
    "city_municipality": "Gen. Aguinaldo (Bailen)",
    "zip_code": "4124"
  },
  {
    "region": "Region 4A (CALABARZON)",
    "province": "Cavite",
    "city_municipality": "Molino",
    "zip_code": "4135"
  },
  {
    "region": "Region 4A (CALABARZON)",
    "province": "Batangas",
    "city_municipality": "Batangas City",
    "zip_code": "4200"
  },
  {
    "region": "Region 4A (CALABARZON)",
    "province": "Batangas",
    "city_municipality": "Bauan",
    "zip_code": "4201"
  },
  {
    "region": "Region 4A (CALABARZON)",
    "province": "Batangas",
    "city_municipality": "Mabini",
    "zip_code": "4202"
  },
  {
    "region": "Region 4A (CALABARZON)",
    "province": "Batangas",
    "city_municipality": "Tingloy",
    "zip_code": "4203"
  },
  {
    "region": "Region 4A (CALABARZON)",
    "province": "Batangas",
    "city_municipality": "San Pascual",
    "zip_code": "4204"
  },
  {
    "region": "Region 4A (CALABARZON)",
    "province": "Batangas",
    "city_municipality": "Alitagtag",
    "zip_code": "4205"
  },
  {
    "region": "Region 4A (CALABARZON)",
    "province": "Batangas",
    "city_municipality": "Sta. Teresita",
    "zip_code": "4206"
  },
  {
    "region": "Region 4A (CALABARZON)",
    "province": "Batangas",
    "city_municipality": "San Nicolas",
    "zip_code": "4207"
  },
  {
    "region": "Region 4A (CALABARZON)",
    "province": "Batangas",
    "city_municipality": "Taal",
    "zip_code": "4208"
  },
  {
    "region": "Region 4A (CALABARZON)",
    "province": "Batangas",
    "city_municipality": "Lemery",
    "zip_code": "4209"
  },
  {
    "region": "Region 4A (CALABARZON)",
    "province": "Batangas",
    "city_municipality": "San Luis",
    "zip_code": "4210"
  },
  {
    "region": "Region 4A (CALABARZON)",
    "province": "Batangas",
    "city_municipality": "Agoncillo",
    "zip_code": "4211"
  },
  {
    "region": "Region 4A (CALABARZON)",
    "province": "Batangas",
    "city_municipality": "Calaca",
    "zip_code": "4212"
  },
  {
    "region": "Region 4A (CALABARZON)",
    "province": "Batangas",
    "city_municipality": "Balayan",
    "zip_code": "4213"
  },
  {
    "region": "Region 4A (CALABARZON)",
    "province": "Batangas",
    "city_municipality": "Tuy",
    "zip_code": "4214"
  },
  {
    "region": "Region 4A (CALABARZON)",
    "province": "Batangas",
    "city_municipality": "Calatagan",
    "zip_code": "4215"
  },
  {
    "region": "Region 4A (CALABARZON)",
    "province": "Batangas",
    "city_municipality": "Lian",
    "zip_code": "4216"
  },
  {
    "region": "Region 4A (CALABARZON)",
    "province": "Batangas",
    "city_municipality": "Lipa City",
    "zip_code": "4217"
  },
  {
    "region": "Region 4A (CALABARZON)",
    "province": "Batangas",
    "city_municipality": "Fernando Airbase",
    "zip_code": "4218"
  },
  {
    "region": "Region 4A (CALABARZON)",
    "province": "Batangas",
    "city_municipality": "Balete",
    "zip_code": "4219"
  },
  {
    "region": "Region 4A (CALABARZON)",
    "province": "Batangas",
    "city_municipality": "Talisay",
    "zip_code": "4220"
  },
  {
    "region": "Region 4A (CALABARZON)",
    "province": "Batangas",
    "city_municipality": "Laurel",
    "zip_code": "4221"
  },
  {
    "region": "Region 4A (CALABARZON)",
    "province": "Batangas",
    "city_municipality": "Cuenca",
    "zip_code": "4222"
  },
  {
    "region": "Region 4A (CALABARZON)",
    "province": "Batangas",
    "city_municipality": "Mataas na Kahoy",
    "zip_code": "4223"
  },
  {
    "region": "Region 4A (CALABARZON)",
    "province": "Batangas",
    "city_municipality": "Padre Garcia",
    "zip_code": "4224"
  },
  {
    "region": "Region 4A (CALABARZON)",
    "province": "Batangas",
    "city_municipality": "Rosario",
    "zip_code": "4225"
  },
  {
    "region": "Region 4A (CALABARZON)",
    "province": "Batangas",
    "city_municipality": "San Juan",
    "zip_code": "4226"
  },
  {
    "region": "Region 4A (CALABARZON)",
    "province": "Batangas",
    "city_municipality": "San Jose",
    "zip_code": "4227"
  },
  {
    "region": "Region 4A (CALABARZON)",
    "province": "Batangas",
    "city_municipality": "Taysan",
    "zip_code": "4228"
  },
  {
    "region": "Region 4A (CALABARZON)",
    "province": "Batangas",
    "city_municipality": "Lobo",
    "zip_code": "4229"
  },
  {
    "region": "Region 4A (CALABARZON)",
    "province": "Batangas",
    "city_municipality": "Ibaan",
    "zip_code": "4230"
  },
  {
    "region": "Region 4A (CALABARZON)",
    "province": "Batangas",
    "city_municipality": "Nasugbu",
    "zip_code": "4231"
  },
  {
    "region": "Region 4A (CALABARZON)",
    "province": "Batangas",
    "city_municipality": "Tanauan",
    "zip_code": "4232"
  },
  {
    "region": "Region 4A (CALABARZON)",
    "province": "Batangas",
    "city_municipality": "Malvar",
    "zip_code": "4233"
  },
  {
    "region": "Region 4A (CALABARZON)",
    "province": "Batangas",
    "city_municipality": "Sto. Tomas",
    "zip_code": "4234"
  },
  {
    "region": "Region 4A (CALABARZON)",
    "province": "Quezon",
    "city_municipality": "Quezon Capitol",
    "zip_code": "4300"
  },
  {
    "region": "Region 4A (CALABARZON)",
    "province": "Quezon",
    "city_municipality": "Lucena City",
    "zip_code": "4301"
  },
  {
    "region": "Region 4A (CALABARZON)",
    "province": "Quezon",
    "city_municipality": "Pagbilao",
    "zip_code": "4302"
  },
  {
    "region": "Region 4A (CALABARZON)",
    "province": "Quezon",
    "city_municipality": "Padre Burgos",
    "zip_code": "4303"
  },
  {
    "region": "Region 4A (CALABARZON)",
    "province": "Quezon",
    "city_municipality": "Agdangan",
    "zip_code": "4304"
  },
  {
    "region": "Region 4A (CALABARZON)",
    "province": "Quezon",
    "city_municipality": "Unisan",
    "zip_code": "4305"
  },
  {
    "region": "Region 4A (CALABARZON)",
    "province": "Quezon",
    "city_municipality": "Plaridel",
    "zip_code": "4306"
  },
  {
    "region": "Region 4A (CALABARZON)",
    "province": "Quezon",
    "city_municipality": "Gumaca",
    "zip_code": "4307"
  },
  {
    "region": "Region 4A (CALABARZON)",
    "province": "Quezon",
    "city_municipality": "Pitogo",
    "zip_code": "4308"
  },
  {
    "region": "Region 4A (CALABARZON)",
    "province": "Quezon",
    "city_municipality": "Macalelon",
    "zip_code": "4309"
  },
  {
    "region": "Region 4A (CALABARZON)",
    "province": "Quezon",
    "city_municipality": "General Luna",
    "zip_code": "4310"
  },
  {
    "region": "Region 4A (CALABARZON)",
    "province": "Quezon",
    "city_municipality": "Catanauan",
    "zip_code": "4311"
  },
  {
    "region": "Region 4A (CALABARZON)",
    "province": "Quezon",
    "city_municipality": "Mulanay",
    "zip_code": "4312"
  },
  {
    "region": "Region 4A (CALABARZON)",
    "province": "Quezon",
    "city_municipality": "San Narciso",
    "zip_code": "4313"
  },
  {
    "region": "Region 4A (CALABARZON)",
    "province": "Quezon",
    "city_municipality": "San Andres",
    "zip_code": "4314"
  },
  {
    "region": "Region 4A (CALABARZON)",
    "province": "Quezon",
    "city_municipality": "San Francisco",
    "zip_code": "4315"
  },
  {
    "region": "Region 4A (CALABARZON)",
    "province": "Quezon",
    "city_municipality": "Lopez",
    "zip_code": "4316"
  },
  {
    "region": "Region 4A (CALABARZON)",
    "province": "Quezon",
    "city_municipality": "Hondagua",
    "zip_code": "4317"
  },
  {
    "region": "Region 4A (CALABARZON)",
    "province": "Quezon",
    "city_municipality": "Calauag",
    "zip_code": "4318"
  },
  {
    "region": "Region 4A (CALABARZON)",
    "province": "Quezon",
    "city_municipality": "Guinayangan",
    "zip_code": "4319"
  },
  {
    "region": "Region 4A (CALABARZON)",
    "province": "Quezon",
    "city_municipality": "Buenavista",
    "zip_code": "4320"
  },
  {
    "region": "Region 4A (CALABARZON)",
    "province": "Quezon",
    "city_municipality": "Tagkawayan",
    "zip_code": "4321"
  },
  {
    "region": "Region 4A (CALABARZON)",
    "province": "Quezon",
    "city_municipality": "Sariaya",
    "zip_code": "4322"
  },
  {
    "region": "Region 4A (CALABARZON)",
    "province": "Quezon",
    "city_municipality": "Candelaria",
    "zip_code": "4323"
  },
  {
    "region": "Region 4A (CALABARZON)",
    "province": "Quezon",
    "city_municipality": "San Antonio",
    "zip_code": "4324"
  },
  {
    "region": "Region 4A (CALABARZON)",
    "province": "Quezon",
    "city_municipality": "Tiaong",
    "zip_code": "4325"
  },
  {
    "region": "Region 4A (CALABARZON)",
    "province": "Quezon",
    "city_municipality": "Dolores",
    "zip_code": "4326"
  },
  {
    "region": "Region 4A (CALABARZON)",
    "province": "Quezon",
    "city_municipality": "Tayabas",
    "zip_code": "4327"
  },
  {
    "region": "Region 4A (CALABARZON)",
    "province": "Quezon",
    "city_municipality": "Lucban",
    "zip_code": "4328"
  },
  {
    "region": "Region 4A (CALABARZON)",
    "province": "Quezon",
    "city_municipality": "Sampaloc",
    "zip_code": "4329"
  },
  {
    "region": "Region 4A (CALABARZON)",
    "province": "Quezon",
    "city_municipality": "Mauban",
    "zip_code": "4330"
  },
  {
    "region": "Region 4A (CALABARZON)",
    "province": "Quezon",
    "city_municipality": "Atimonan",
    "zip_code": "4331"
  },
  {
    "region": "Region 4A (CALABARZON)",
    "province": "Quezon",
    "city_municipality": "Quezon",
    "zip_code": "4332"
  },
  {
    "region": "Region 4A (CALABARZON)",
    "province": "Quezon",
    "city_municipality": "Alabat",
    "zip_code": "4333"
  },
  {
    "region": "Region 4A (CALABARZON)",
    "province": "Quezon",
    "city_municipality": "Perez",
    "zip_code": "4334"
  },
  {
    "region": "Region 4A (CALABARZON)",
    "province": "Quezon",
    "city_municipality": "Real",
    "zip_code": "4335"
  },
  {
    "region": "Region 4A (CALABARZON)",
    "province": "Quezon",
    "city_municipality": "Infanta",
    "zip_code": "4336"
  },
  {
    "region": "Region 4A (CALABARZON)",
    "province": "Quezon",
    "city_municipality": "Panukulan",
    "zip_code": "4337"
  },
  {
    "region": "Region 4A (CALABARZON)",
    "province": "Quezon",
    "city_municipality": "General Nakar",
    "zip_code": "4338"
  },
  {
    "region": "Region 4A (CALABARZON)",
    "province": "Quezon",
    "city_municipality": "Polilio",
    "zip_code": "4339"
  },
  {
    "region": "Region 4A (CALABARZON)",
    "province": "Quezon",
    "city_municipality": "Burdeos",
    "zip_code": "4340"
  },
  {
    "region": "Region 4A (CALABARZON)",
    "province": "Quezon",
    "city_municipality": "Patnanungan",
    "zip_code": "4341"
  },
  {
    "region": "Region 4A (CALABARZON)",
    "province": "Quezon",
    "city_municipality": "Jomalig",
    "zip_code": "4342"
  },
  {
    "region": "Region 5 (Bicol Region)",
    "province": "Camarines Sur (Camsur)",
    "city_municipality": "Naga City",
    "zip_code": "4400"
  },
  {
    "region": "Region 5 (Bicol Region)",
    "province": "Camarines Sur (Camsur)",
    "city_municipality": "Camaligan",
    "zip_code": "4401"
  },
  {
    "region": "Region 5 (Bicol Region)",
    "province": "Camarines Sur (Camsur)",
    "city_municipality": "Canaman",
    "zip_code": "4402"
  },
  {
    "region": "Region 5 (Bicol Region)",
    "province": "Camarines Sur (Camsur)",
    "city_municipality": "Magarao",
    "zip_code": "4403"
  },
  {
    "region": "Region 5 (Bicol Region)",
    "province": "Camarines Sur (Camsur)",
    "city_municipality": "Bombon",
    "zip_code": "4404"
  },
  {
    "region": "Region 5 (Bicol Region)",
    "province": "Camarines Sur (Camsur)",
    "city_municipality": "Calabanga",
    "zip_code": "4405"
  },
  {
    "region": "Region 5 (Bicol Region)",
    "province": "Camarines Sur (Camsur)",
    "city_municipality": "Cabusao",
    "zip_code": "4406"
  },
  {
    "region": "Region 5 (Bicol Region)",
    "province": "Camarines Sur (Camsur)",
    "city_municipality": "Libmanan",
    "zip_code": "4407"
  },
  {
    "region": "Region 5 (Bicol Region)",
    "province": "Camarines Sur (Camsur)",
    "city_municipality": "Sipocot",
    "zip_code": "4408"
  },
  {
    "region": "Region 5 (Bicol Region)",
    "province": "Camarines Sur (Camsur)",
    "city_municipality": "Lupi",
    "zip_code": "4409"
  },
  {
    "region": "Region 5 (Bicol Region)",
    "province": "Camarines Sur (Camsur)",
    "city_municipality": "Ragay",
    "zip_code": "4410"
  },
  {
    "region": "Region 5 (Bicol Region)",
    "province": "Camarines Sur (Camsur)",
    "city_municipality": "Del Gallego",
    "zip_code": "4411"
  },
  {
    "region": "Region 5 (Bicol Region)",
    "province": "Camarines Sur (Camsur)",
    "city_municipality": "Gainza",
    "zip_code": "4412"
  },
  {
    "region": "Region 5 (Bicol Region)",
    "province": "Camarines Sur (Camsur)",
    "city_municipality": "Milaor",
    "zip_code": "4413"
  },
  {
    "region": "Region 5 (Bicol Region)",
    "province": "Camarines Sur (Camsur)",
    "city_municipality": "Minalabac",
    "zip_code": "4414"
  },
  {
    "region": "Region 5 (Bicol Region)",
    "province": "Camarines Sur (Camsur)",
    "city_municipality": "San Fernando",
    "zip_code": "4415"
  },
  {
    "region": "Region 5 (Bicol Region)",
    "province": "Camarines Sur (Camsur)",
    "city_municipality": "Pamplona",
    "zip_code": "4416"
  },
  {
    "region": "Region 5 (Bicol Region)",
    "province": "Camarines Sur (Camsur)",
    "city_municipality": "Pasacao",
    "zip_code": "4417"
  },
  {
    "region": "Region 5 (Bicol Region)",
    "province": "Camarines Sur (Camsur)",
    "city_municipality": "Pili",
    "zip_code": "4418"
  },
  {
    "region": "Region 5 (Bicol Region)",
    "province": "Camarines Sur (Camsur)",
    "city_municipality": "Ocampo",
    "zip_code": "4419"
  },
  {
    "region": "Region 5 (Bicol Region)",
    "province": "Camarines Sur (Camsur)",
    "city_municipality": "Tigaon",
    "zip_code": "4420"
  },
  {
    "region": "Region 5 (Bicol Region)",
    "province": "Camarines Sur (Camsur)",
    "city_municipality": "Sagnay",
    "zip_code": "4421"
  },
  {
    "region": "Region 5 (Bicol Region)",
    "province": "Camarines Sur (Camsur)",
    "city_municipality": "Goa",
    "zip_code": "4422"
  },
  {
    "region": "Region 5 (Bicol Region)",
    "province": "Camarines Sur (Camsur)",
    "city_municipality": "San Jose",
    "zip_code": "4423"
  },
  {
    "region": "Region 5 (Bicol Region)",
    "province": "Camarines Sur (Camsur)",
    "city_municipality": "Presentacion",
    "zip_code": "4424"
  },
  {
    "region": "Region 5 (Bicol Region)",
    "province": "Camarines Sur (Camsur)",
    "city_municipality": "Lagonoy",
    "zip_code": "4425"
  },
  {
    "region": "Region 5 (Bicol Region)",
    "province": "Camarines Sur (Camsur)",
    "city_municipality": "Tinambac",
    "zip_code": "4426"
  },
  {
    "region": "Region 5 (Bicol Region)",
    "province": "Camarines Sur (Camsur)",
    "city_municipality": "Siruma",
    "zip_code": "4427"
  },
  {
    "region": "Region 5 (Bicol Region)",
    "province": "Camarines Sur (Camsur)",
    "city_municipality": "Garchitorena",
    "zip_code": "4428"
  },
  {
    "region": "Region 5 (Bicol Region)",
    "province": "Camarines Sur (Camsur)",
    "city_municipality": "Caramoan",
    "zip_code": "4429"
  },
  {
    "region": "Region 5 (Bicol Region)",
    "province": "Camarines Sur (Camsur)",
    "city_municipality": "Bula",
    "zip_code": "4430"
  },
  {
    "region": "Region 5 (Bicol Region)",
    "province": "Camarines Sur (Camsur)",
    "city_municipality": "Iriga City",
    "zip_code": "4431"
  },
  {
    "region": "Region 5 (Bicol Region)",
    "province": "Camarines Sur (Camsur)",
    "city_municipality": "Baao",
    "zip_code": "4432"
  },
  {
    "region": "Region 5 (Bicol Region)",
    "province": "Camarines Sur (Camsur)",
    "city_municipality": "Buhi",
    "zip_code": "4433"
  },
  {
    "region": "Region 5 (Bicol Region)",
    "province": "Camarines Sur (Camsur)",
    "city_municipality": "Nabua",
    "zip_code": "4434"
  },
  {
    "region": "Region 5 (Bicol Region)",
    "province": "Camarines Sur (Camsur)",
    "city_municipality": "Bato",
    "zip_code": "4435"
  },
  {
    "region": "Region 5 (Bicol Region)",
    "province": "Camarines Sur (Camsur)",
    "city_municipality": "Balatan",
    "zip_code": "4436"
  },
  {
    "region": "Region 5 (Bicol Region)",
    "province": "Albay",
    "city_municipality": "Legazpi City",
    "zip_code": "4500"
  },
  {
    "region": "Region 5 (Bicol Region)",
    "province": "Albay",
    "city_municipality": "Daraga (Locsin)",
    "zip_code": "4501"
  },
  {
    "region": "Region 5 (Bicol Region)",
    "province": "Albay",
    "city_municipality": "Camalig",
    "zip_code": "4502"
  },
  {
    "region": "Region 5 (Bicol Region)",
    "province": "Albay",
    "city_municipality": "Guinobatan",
    "zip_code": "4503"
  },
  {
    "region": "Region 5 (Bicol Region)",
    "province": "Albay",
    "city_municipality": "Ligao",
    "zip_code": "4504"
  },
  {
    "region": "Region 5 (Bicol Region)",
    "province": "Albay",
    "city_municipality": "Oas",
    "zip_code": "4505"
  },
  {
    "region": "Region 5 (Bicol Region)",
    "province": "Albay",
    "city_municipality": "Polangui",
    "zip_code": "4506"
  },
  {
    "region": "Region 5 (Bicol Region)",
    "province": "Albay",
    "city_municipality": "Libon",
    "zip_code": "4507"
  },
  {
    "region": "Region 5 (Bicol Region)",
    "province": "Albay",
    "city_municipality": "Sto. Domingo",
    "zip_code": "4508"
  },
  {
    "region": "Region 5 (Bicol Region)",
    "province": "Albay",
    "city_municipality": "Bacacay",
    "zip_code": "4509"
  },
  {
    "region": "Region 5 (Bicol Region)",
    "province": "Albay",
    "city_municipality": "Malilipot",
    "zip_code": "4510"
  },
  {
    "region": "Region 5 (Bicol Region)",
    "province": "Albay",
    "city_municipality": "Tabaco",
    "zip_code": "4511"
  },
  {
    "region": "Region 5 (Bicol Region)",
    "province": "Albay",
    "city_municipality": "Malinao",
    "zip_code": "4512"
  },
  {
    "region": "Region 5 (Bicol Region)",
    "province": "Albay",
    "city_municipality": "Tiwi",
    "zip_code": "4513"
  },
  {
    "region": "Region 5 (Bicol Region)",
    "province": "Albay",
    "city_municipality": "Manito",
    "zip_code": "4514"
  },
  {
    "region": "Region 5 (Bicol Region)",
    "province": "Albay",
    "city_municipality": "Jovellar",
    "zip_code": "4515"
  },
  {
    "region": "Region 5 (Bicol Region)",
    "province": "Albay",
    "city_municipality": "Pio Duran (Malacbalac)",
    "zip_code": "4516"
  },
  {
    "region": "Region 5 (Bicol Region)",
    "province": "Albay",
    "city_municipality": "Rapu-Rapu",
    "zip_code": "4517"
  },
  {
    "region": "Region 5 (Bicol Region)",
    "province": "Camarines Norte",
    "city_municipality": "Daet",
    "zip_code": "4600"
  },
  {
    "region": "Region 5 (Bicol Region)",
    "province": "Camarines Norte",
    "city_municipality": "Mercedes",
    "zip_code": "4601"
  },
  {
    "region": "Region 5 (Bicol Region)",
    "province": "Camarines Norte",
    "city_municipality": "Talisay",
    "zip_code": "4602"
  },
  {
    "region": "Region 5 (Bicol Region)",
    "province": "Camarines Norte",
    "city_municipality": "Vinzons",
    "zip_code": "4603"
  },
  {
    "region": "Region 5 (Bicol Region)",
    "province": "Camarines Norte",
    "city_municipality": "Labo",
    "zip_code": "4604"
  },
  {
    "region": "Region 5 (Bicol Region)",
    "province": "Camarines Norte",
    "city_municipality": "Paracale",
    "zip_code": "4605"
  },
  {
    "region": "Region 5 (Bicol Region)",
    "province": "Camarines Norte",
    "city_municipality": "Jose Panganiban",
    "zip_code": "4606"
  },
  {
    "region": "Region 5 (Bicol Region)",
    "province": "Camarines Norte",
    "city_municipality": "Capalonga",
    "zip_code": "4607"
  },
  {
    "region": "Region 5 (Bicol Region)",
    "province": "Camarines Norte",
    "city_municipality": "Basud",
    "zip_code": "4608"
  },
  {
    "region": "Region 5 (Bicol Region)",
    "province": "Camarines Norte",
    "city_municipality": "San Vicente",
    "zip_code": "4609"
  },
  {
    "region": "Region 5 (Bicol Region)",
    "province": "Camarines Norte",
    "city_municipality": "San Lorenzo Ruiz (formerly Imelda)",
    "zip_code": "4610"
  },
  {
    "region": "Region 5 (Bicol Region)",
    "province": "Camarines Norte",
    "city_municipality": "Sta. Elena",
    "zip_code": "4611"
  },
  {
    "region": "Region 5 (Bicol Region)",
    "province": "Camarines Norte",
    "city_municipality": "Tulay na Lupa",
    "zip_code": "4612"
  },
  {
    "region": "Region 5 (Bicol Region)",
    "province": "Sorsogon",
    "city_municipality": "Sorsogon",
    "zip_code": "4700"
  },
  {
    "region": "Region 5 (Bicol Region)",
    "province": "Sorsogon",
    "city_municipality": "Bacon",
    "zip_code": "4701"
  },
  {
    "region": "Region 5 (Bicol Region)",
    "province": "Sorsogon",
    "city_municipality": "Casiguran",
    "zip_code": "4702"
  },
  {
    "region": "Region 5 (Bicol Region)",
    "province": "Sorsogon",
    "city_municipality": "Juban",
    "zip_code": "4703"
  },
  {
    "region": "Region 5 (Bicol Region)",
    "province": "Sorsogon",
    "city_municipality": "Bulusan",
    "zip_code": "4704"
  },
  {
    "region": "Region 5 (Bicol Region)",
    "province": "Sorsogon",
    "city_municipality": "Magallanes",
    "zip_code": "4705"
  },
  {
    "region": "Region 5 (Bicol Region)",
    "province": "Sorsogon",
    "city_municipality": "Bulan",
    "zip_code": "4706"
  },
  {
    "region": "Region 5 (Bicol Region)",
    "province": "Sorsogon",
    "city_municipality": "Irosin",
    "zip_code": "4707"
  },
  {
    "region": "Region 5 (Bicol Region)",
    "province": "Sorsogon",
    "city_municipality": "Matnog",
    "zip_code": "4708"
  },
  {
    "region": "Region 5 (Bicol Region)",
    "province": "Sorsogon",
    "city_municipality": "Sta. Magdalena",
    "zip_code": "4709"
  },
  {
    "region": "Region 5 (Bicol Region)",
    "province": "Sorsogon",
    "city_municipality": "Gubat",
    "zip_code": "4710"
  },
  {
    "region": "Region 5 (Bicol Region)",
    "province": "Sorsogon",
    "city_municipality": "Prieto Diaz",
    "zip_code": "4711"
  },
  {
    "region": "Region 5 (Bicol Region)",
    "province": "Sorsogon",
    "city_municipality": "Barcelona",
    "zip_code": "4712"
  },
  {
    "region": "Region 5 (Bicol Region)",
    "province": "Sorsogon",
    "city_municipality": "Castilla",
    "zip_code": "4713"
  },
  {
    "region": "Region 5 (Bicol Region)",
    "province": "Sorsogon",
    "city_municipality": "Pilar",
    "zip_code": "4714"
  },
  {
    "region": "Region 5 (Bicol Region)",
    "province": "Sorsogon",
    "city_municipality": "Donsol",
    "zip_code": "4715"
  },
  {
    "region": "Region 5 (Bicol Region)",
    "province": "Catanduanes",
    "city_municipality": "Virac",
    "zip_code": "4800"
  },
  {
    "region": "Region 5 (Bicol Region)",
    "province": "Catanduanes",
    "city_municipality": "Bato",
    "zip_code": "4801"
  },
  {
    "region": "Region 5 (Bicol Region)",
    "province": "Catanduanes",
    "city_municipality": "San Miguel",
    "zip_code": "4802"
  },
  {
    "region": "Region 5 (Bicol Region)",
    "province": "Catanduanes",
    "city_municipality": "Baras",
    "zip_code": "4803"
  },
  {
    "region": "Region 5 (Bicol Region)",
    "province": "Catanduanes",
    "city_municipality": "Gigmoto",
    "zip_code": "4804"
  },
  {
    "region": "Region 5 (Bicol Region)",
    "province": "Catanduanes",
    "city_municipality": "Viga",
    "zip_code": "4805"
  },
  {
    "region": "Region 5 (Bicol Region)",
    "province": "Catanduanes",
    "city_municipality": "Panganiban",
    "zip_code": "4806"
  },
  {
    "region": "Region 5 (Bicol Region)",
    "province": "Catanduanes",
    "city_municipality": "Bagamanoc",
    "zip_code": "4807"
  },
  {
    "region": "Region 5 (Bicol Region)",
    "province": "Catanduanes",
    "city_municipality": "Caramoran",
    "zip_code": "4808"
  },
  {
    "region": "Region 5 (Bicol Region)",
    "province": "Catanduanes",
    "city_municipality": "Pandan",
    "zip_code": "4809"
  },
  {
    "region": "Region 5 (Bicol Region)",
    "province": "Catanduanes",
    "city_municipality": "San Andres",
    "zip_code": "4810"
  },
  {
    "region": "Region 4B (MIMAROPA)",
    "province": "Marinduque",
    "city_municipality": "Boac",
    "zip_code": "4900"
  },
  {
    "region": "Region 4B (MIMAROPA)",
    "province": "Marinduque",
    "city_municipality": "Mogpog",
    "zip_code": "4901"
  },
  {
    "region": "Region 4B (MIMAROPA)",
    "province": "Marinduque",
    "city_municipality": "Sta. Cruz",
    "zip_code": "4902"
  },
  {
    "region": "Region 4B (MIMAROPA)",
    "province": "Marinduque",
    "city_municipality": "Torrijos",
    "zip_code": "4903"
  },
  {
    "region": "Region 4B (MIMAROPA)",
    "province": "Marinduque",
    "city_municipality": "Buenavista",
    "zip_code": "4904"
  },
  {
    "region": "Region 4B (MIMAROPA)",
    "province": "Marinduque",
    "city_municipality": "Gasan",
    "zip_code": "4905"
  },
  {
    "region": "Region 4B (MIMAROPA)",
    "province": "Occidental Mindoro",
    "city_municipality": "San Jose",
    "zip_code": "5100"
  },
  {
    "region": "Region 4B (MIMAROPA)",
    "province": "Occidental Mindoro",
    "city_municipality": "Magsaysay",
    "zip_code": "5101"
  },
  {
    "region": "Region 4B (MIMAROPA)",
    "province": "Occidental Mindoro",
    "city_municipality": "Calintaan",
    "zip_code": "5102"
  },
  {
    "region": "Region 4B (MIMAROPA)",
    "province": "Occidental Mindoro",
    "city_municipality": "Rizal",
    "zip_code": "5103"
  },
  {
    "region": "Region 4B (MIMAROPA)",
    "province": "Occidental Mindoro",
    "city_municipality": "Sablayan",
    "zip_code": "5104"
  },
  {
    "region": "Region 4B (MIMAROPA)",
    "province": "Occidental Mindoro",
    "city_municipality": "Sta. Cruz",
    "zip_code": "5105"
  },
  {
    "region": "Region 4B (MIMAROPA)",
    "province": "Occidental Mindoro",
    "city_municipality": "Mamburao",
    "zip_code": "5106"
  },
  {
    "region": "Region 4B (MIMAROPA)",
    "province": "Occidental Mindoro",
    "city_municipality": "Palauan",
    "zip_code": "5107"
  },
  {
    "region": "Region 4B (MIMAROPA)",
    "province": "Occidental Mindoro",
    "city_municipality": "Abra de Ilog",
    "zip_code": "5108"
  },
  {
    "region": "Region 4B (MIMAROPA)",
    "province": "Occidental Mindoro",
    "city_municipality": "Lubang",
    "zip_code": "5109"
  },
  {
    "region": "Region 4B (MIMAROPA)",
    "province": "Occidental Mindoro",
    "city_municipality": "Tilik",
    "zip_code": "5110"
  },
  {
    "region": "Region 4B (MIMAROPA)",
    "province": "Occidental Mindoro",
    "city_municipality": "Looc",
    "zip_code": "5111"
  },
  {
    "region": "Region 4B (MIMAROPA)",
    "province": "Oriental Mindoro",
    "city_municipality": "Calapan",
    "zip_code": "5200"
  },
  {
    "region": "Region 4B (MIMAROPA)",
    "province": "Oriental Mindoro",
    "city_municipality": "Baco",
    "zip_code": "5201"
  },
  {
    "region": "Region 4B (MIMAROPA)",
    "province": "Oriental Mindoro",
    "city_municipality": "San Teodoro",
    "zip_code": "5202"
  },
  {
    "region": "Region 4B (MIMAROPA)",
    "province": "Oriental Mindoro",
    "city_municipality": "Puerto Galera",
    "zip_code": "5203"
  },
  {
    "region": "Region 4B (MIMAROPA)",
    "province": "Oriental Mindoro",
    "city_municipality": "Naujan",
    "zip_code": "5204"
  },
  {
    "region": "Region 4B (MIMAROPA)",
    "province": "Oriental Mindoro",
    "city_municipality": "Victoria",
    "zip_code": "5205"
  },
  {
    "region": "Region 4B (MIMAROPA)",
    "province": "Oriental Mindoro",
    "city_municipality": "Pola",
    "zip_code": "5206"
  },
  {
    "region": "Region 4B (MIMAROPA)",
    "province": "Oriental Mindoro",
    "city_municipality": "Socorro",
    "zip_code": "5207"
  },
  {
    "region": "Region 4B (MIMAROPA)",
    "province": "Oriental Mindoro",
    "city_municipality": "Pinamalayan",
    "zip_code": "5208"
  },
  {
    "region": "Region 4B (MIMAROPA)",
    "province": "Oriental Mindoro",
    "city_municipality": "Gloria",
    "zip_code": "5209"
  },
  {
    "region": "Region 4B (MIMAROPA)",
    "province": "Oriental Mindoro",
    "city_municipality": "Bansud",
    "zip_code": "5210"
  },
  {
    "region": "Region 4B (MIMAROPA)",
    "province": "Oriental Mindoro",
    "city_municipality": "Bongabong",
    "zip_code": "5211"
  },
  {
    "region": "Region 4B (MIMAROPA)",
    "province": "Oriental Mindoro",
    "city_municipality": "Roxas",
    "zip_code": "5212"
  },
  {
    "region": "Region 4B (MIMAROPA)",
    "province": "Oriental Mindoro",
    "city_municipality": "Mansalay",
    "zip_code": "5213"
  },
  {
    "region": "Region 4B (MIMAROPA)",
    "province": "Oriental Mindoro",
    "city_municipality": "Bulalacao",
    "zip_code": "5214"
  },
  {
    "region": "Region 4B (MIMAROPA)",
    "province": "Palawan",
    "city_municipality": "Puerto Princesa City",
    "zip_code": "5300"
  },
  {
    "region": "Region 4B (MIMAROPA)",
    "province": "Palawan",
    "city_municipality": "Iwahig Penal Colony",
    "zip_code": "5301"
  },
  {
    "region": "Region 4B (MIMAROPA)",
    "province": "Palawan",
    "city_municipality": "Aborlan",
    "zip_code": "5302"
  },
  {
    "region": "Region 4B (MIMAROPA)",
    "province": "Palawan",
    "city_municipality": "Narra (Panacan)",
    "zip_code": "5303"
  },
  {
    "region": "Region 4B (MIMAROPA)",
    "province": "Palawan",
    "city_municipality": "Quezon",
    "zip_code": "5304"
  },
  {
    "region": "Region 4B (MIMAROPA)",
    "province": "Palawan",
    "city_municipality": "Brooke's Point",
    "zip_code": "5305"
  },
  {
    "region": "Region 4B (MIMAROPA)",
    "province": "Palawan",
    "city_municipality": "Batazara",
    "zip_code": "5306"
  },
  {
    "region": "Region 4B (MIMAROPA)",
    "province": "Palawan",
    "city_municipality": "Balabac",
    "zip_code": "5307"
  },
  {
    "region": "Region 4B (MIMAROPA)",
    "province": "Palawan",
    "city_municipality": "Roxas",
    "zip_code": "5308"
  },
  {
    "region": "Region 4B (MIMAROPA)",
    "province": "Palawan",
    "city_municipality": "San Vicente",
    "zip_code": "5309"
  },
  {
    "region": "Region 4B (MIMAROPA)",
    "province": "Palawan",
    "city_municipality": "Dumaran",
    "zip_code": "5310"
  },
  {
    "region": "Region 4B (MIMAROPA)",
    "province": "Palawan",
    "city_municipality": "Araceli",
    "zip_code": "5311"
  },
  {
    "region": "Region 4B (MIMAROPA)",
    "province": "Palawan",
    "city_municipality": "Taytay",
    "zip_code": "5312"
  },
  {
    "region": "Region 4B (MIMAROPA)",
    "province": "Palawan",
    "city_municipality": "El Nido (Baquit)",
    "zip_code": "5313"
  },
  {
    "region": "Region 4B (MIMAROPA)",
    "province": "Palawan",
    "city_municipality": "Linapacan",
    "zip_code": "5314"
  },
  {
    "region": "Region 4B (MIMAROPA)",
    "province": "Palawan",
    "city_municipality": "Culion",
    "zip_code": "5315"
  },
  {
    "region": "Region 4B (MIMAROPA)",
    "province": "Palawan",
    "city_municipality": "Coron",
    "zip_code": "5316"
  },
  {
    "region": "Region 4B (MIMAROPA)",
    "province": "Palawan",
    "city_municipality": "Busuanga",
    "zip_code": "5317"
  },
  {
    "region": "Region 4B (MIMAROPA)",
    "province": "Palawan",
    "city_municipality": "Cuyo",
    "zip_code": "5318"
  },
  {
    "region": "Region 4B (MIMAROPA)",
    "province": "Palawan",
    "city_municipality": "Magsaysay",
    "zip_code": "5319"
  },
  {
    "region": "Region 4B (MIMAROPA)",
    "province": "Palawan",
    "city_municipality": "Agutaya",
    "zip_code": "5320"
  },
  {
    "region": "Region 4B (MIMAROPA)",
    "province": "Palawan",
    "city_municipality": "Cagayancillo",
    "zip_code": "5321"
  },
  {
    "region": "Region 4B (MIMAROPA)",
    "province": "Palawan",
    "city_municipality": "Kalayaan",
    "zip_code": "5322"
  },
  {
    "region": "Region 4B (MIMAROPA)",
    "province": "Palawan",
    "city_municipality": "Rizal (Marcos)",
    "zip_code": "5323"
  },
  {
    "region": "Region 4B (MIMAROPA)",
    "province": "Palawan",
    "city_municipality": "Sofronio Española",
    "zip_code": "5324"
  },
  {
    "region": "Region 5 (Bicol Region)",
    "province": "Masbate",
    "city_municipality": "Masbate",
    "zip_code": "5400"
  },
  {
    "region": "Region 5 (Bicol Region)",
    "province": "Masbate",
    "city_municipality": "Mobo",
    "zip_code": "5401"
  },
  {
    "region": "Region 5 (Bicol Region)",
    "province": "Masbate",
    "city_municipality": "Uson",
    "zip_code": "5402"
  },
  {
    "region": "Region 5 (Bicol Region)",
    "province": "Masbate",
    "city_municipality": "Dimasalang",
    "zip_code": "5403"
  },
  {
    "region": "Region 5 (Bicol Region)",
    "province": "Masbate",
    "city_municipality": "Palanas",
    "zip_code": "5404"
  },
  {
    "region": "Region 5 (Bicol Region)",
    "province": "Masbate",
    "city_municipality": "Cataingan",
    "zip_code": "5405"
  },
  {
    "region": "Region 5 (Bicol Region)",
    "province": "Masbate",
    "city_municipality": "Pio V. Corpuz",
    "zip_code": "5406"
  },
  {
    "region": "Region 5 (Bicol Region)",
    "province": "Masbate",
    "city_municipality": "Esperanza",
    "zip_code": "5407"
  },
  {
    "region": "Region 5 (Bicol Region)",
    "province": "Masbate",
    "city_municipality": "Placer",
    "zip_code": "5408"
  },
  {
    "region": "Region 5 (Bicol Region)",
    "province": "Masbate",
    "city_municipality": "Cawayan",
    "zip_code": "5409"
  },
  {
    "region": "Region 5 (Bicol Region)",
    "province": "Masbate",
    "city_municipality": "Milagros",
    "zip_code": "5410"
  },
  {
    "region": "Region 5 (Bicol Region)",
    "province": "Masbate",
    "city_municipality": "Mandaon",
    "zip_code": "5411"
  },
  {
    "region": "Region 5 (Bicol Region)",
    "province": "Masbate",
    "city_municipality": "Balud",
    "zip_code": "5412"
  },
  {
    "region": "Region 5 (Bicol Region)",
    "province": "Masbate",
    "city_municipality": "Baleno",
    "zip_code": "5413"
  },
  {
    "region": "Region 5 (Bicol Region)",
    "province": "Masbate",
    "city_municipality": "Aroroy",
    "zip_code": "5414"
  },
  {
    "region": "Region 5 (Bicol Region)",
    "province": "Masbate",
    "city_municipality": "Batuan",
    "zip_code": "5415"
  },
  {
    "region": "Region 5 (Bicol Region)",
    "province": "Masbate",
    "city_municipality": "San Fernando",
    "zip_code": "5416"
  },
  {
    "region": "Region 5 (Bicol Region)",
    "province": "Masbate",
    "city_municipality": "San Jacinto",
    "zip_code": "5417"
  },
  {
    "region": "Region 5 (Bicol Region)",
    "province": "Masbate",
    "city_municipality": "Monreal",
    "zip_code": "5418"
  },
  {
    "region": "Region 5 (Bicol Region)",
    "province": "Masbate",
    "city_municipality": "Claveria",
    "zip_code": "5419"
  },
  {
    "region": "Region 5 (Bicol Region)",
    "province": "Masbate",
    "city_municipality": "San Pascual",
    "zip_code": "5420"
  },
  {
    "region": "Region 4B (MIMAROPA)",
    "province": "Romblon",
    "city_municipality": "Romblon",
    "zip_code": "5500"
  },
  {
    "region": "Region 4B (MIMAROPA)",
    "province": "Romblon",
    "city_municipality": "San Agustin",
    "zip_code": "5501"
  },
  {
    "region": "Region 4B (MIMAROPA)",
    "province": "Romblon",
    "city_municipality": "Sta. Maria (formerly Imelda)",
    "zip_code": "5502"
  },
  {
    "region": "Region 4B (MIMAROPA)",
    "province": "Romblon",
    "city_municipality": "Calatrava",
    "zip_code": "5503"
  },
  {
    "region": "Region 4B (MIMAROPA)",
    "province": "Romblon",
    "city_municipality": "San Andres",
    "zip_code": "5504"
  },
  {
    "region": "Region 4B (MIMAROPA)",
    "province": "Romblon",
    "city_municipality": "Odiongan",
    "zip_code": "5505"
  },
  {
    "region": "Region 4B (MIMAROPA)",
    "province": "Romblon",
    "city_municipality": "Ferrol",
    "zip_code": "5506"
  },
  {
    "region": "Region 4B (MIMAROPA)",
    "province": "Romblon",
    "city_municipality": "Looc",
    "zip_code": "5507"
  },
  {
    "region": "Region 4B (MIMAROPA)",
    "province": "Romblon",
    "city_municipality": "Sta. Fe",
    "zip_code": "5508"
  },
  {
    "region": "Region 4B (MIMAROPA)",
    "province": "Romblon",
    "city_municipality": "Alcantara",
    "zip_code": "5509"
  },
  {
    "region": "Region 4B (MIMAROPA)",
    "province": "Romblon",
    "city_municipality": "San Jose",
    "zip_code": "5510"
  },
  {
    "region": "Region 4B (MIMAROPA)",
    "province": "Romblon",
    "city_municipality": "Magdiwang",
    "zip_code": "5511"
  },
  {
    "region": "Region 4B (MIMAROPA)",
    "province": "Romblon",
    "city_municipality": "Cajidiocan",
    "zip_code": "5512"
  },
  {
    "region": "Region 4B (MIMAROPA)",
    "province": "Romblon",
    "city_municipality": "San fernando",
    "zip_code": "5513"
  },
  {
    "region": "Region 4B (MIMAROPA)",
    "province": "Romblon",
    "city_municipality": "Corcuera",
    "zip_code": "5514"
  },
  {
    "region": "Region 4B (MIMAROPA)",
    "province": "Romblon",
    "city_municipality": "Banton (Jones)",
    "zip_code": "5515"
  },
  {
    "region": "Region 4B (MIMAROPA)",
    "province": "Romblon",
    "city_municipality": "Concepcion",
    "zip_code": "5516"
  },
  {
    "region": "Region 8 (Eastern Visayas)",
    "province": "Samar",
    "city_municipality": "Catbalogan",
    "zip_code": "6700"
  },
  {
    "region": "Region 8 (Eastern Visayas)",
    "province": "Samar",
    "city_municipality": "Jiabong",
    "zip_code": "6701"
  },
  {
    "region": "Region 8 (Eastern Visayas)",
    "province": "Samar",
    "city_municipality": "Motiong",
    "zip_code": "6702"
  },
  {
    "region": "Region 8 (Eastern Visayas)",
    "province": "Samar",
    "city_municipality": "Wright",
    "zip_code": "6703"
  },
  {
    "region": "Region 8 (Eastern Visayas)",
    "province": "Samar",
    "city_municipality": "Tarangnan",
    "zip_code": "6704"
  },
  {
    "region": "Region 8 (Eastern Visayas)",
    "province": "Samar",
    "city_municipality": "Pagsanghan",
    "zip_code": "6705"
  },
  {
    "region": "Region 8 (Eastern Visayas)",
    "province": "Samar",
    "city_municipality": "Gandara",
    "zip_code": "6706"
  },
  {
    "region": "Region 8 (Eastern Visayas)",
    "province": "Samar",
    "city_municipality": "San Jorge",
    "zip_code": "6707"
  },
  {
    "region": "Region 8 (Eastern Visayas)",
    "province": "Samar",
    "city_municipality": "Matuguinao",
    "zip_code": "6708"
  },
  {
    "region": "Region 8 (Eastern Visayas)",
    "province": "Samar",
    "city_municipality": "Sta. Margarita",
    "zip_code": "6709"
  },
  {
    "region": "Region 8 (Eastern Visayas)",
    "province": "Samar",
    "city_municipality": "Calbayog City",
    "zip_code": "6710"
  },
  {
    "region": "Region 8 (Eastern Visayas)",
    "province": "Samar",
    "city_municipality": "Sto. Niño",
    "zip_code": "6711"
  },
  {
    "region": "Region 8 (Eastern Visayas)",
    "province": "Samar",
    "city_municipality": "Tagapul-an",
    "zip_code": "6712"
  },
  {
    "region": "Region 8 (Eastern Visayas)",
    "province": "Samar",
    "city_municipality": "Hinabangan",
    "zip_code": "6713"
  },
  {
    "region": "Region 8 (Eastern Visayas)",
    "province": "Samar",
    "city_municipality": "San Sebastian",
    "zip_code": "6714"
  },
  {
    "region": "Region 8 (Eastern Visayas)",
    "province": "Samar",
    "city_municipality": "Calbiga",
    "zip_code": "6715"
  },
  {
    "region": "Region 8 (Eastern Visayas)",
    "province": "Samar",
    "city_municipality": "Pinabacdao",
    "zip_code": "6716"
  },
  {
    "region": "Region 8 (Eastern Visayas)",
    "province": "Samar",
    "city_municipality": "Villareal",
    "zip_code": "6717"
  },
  {
    "region": "Region 8 (Eastern Visayas)",
    "province": "Samar",
    "city_municipality": "Sta. Rita",
    "zip_code": "6718"
  },
  {
    "region": "Region 8 (Eastern Visayas)",
    "province": "Samar",
    "city_municipality": "Talalora",
    "zip_code": "6719"
  },
  {
    "region": "Region 8 (Eastern Visayas)",
    "province": "Samar",
    "city_municipality": "Basey",
    "zip_code": "6720"
  },
  {
    "region": "Region 8 (Eastern Visayas)",
    "province": "Samar",
    "city_municipality": "Marabut",
    "zip_code": "6721"
  },
  {
    "region": "Region 8 (Eastern Visayas)",
    "province": "Samar",
    "city_municipality": "Daram",
    "zip_code": "6722"
  },
  {
    "region": "Region 8 (Eastern Visayas)",
    "province": "Samar",
    "city_municipality": "San Jose de Buan",
    "zip_code": "6723"
  },
  {
    "region": "Region 8 (Eastern Visayas)",
    "province": "Samar",
    "city_municipality": "Almagro",
    "zip_code": "6724"
  },
  {
    "region": "Region 8 (Eastern Visayas)",
    "province": "Samar",
    "city_municipality": "Zumarraga",
    "zip_code": "6725"
  },
  {
    "region": "Region 10 (Northern Mindanao)",
    "province": "Misamis Occidental",
    "city_municipality": "Ozamis City",
    "zip_code": "7200"
  },
  {
    "region": "Region 10 (Northern Mindanao)",
    "province": "Misamis Occidental",
    "city_municipality": "Clarin",
    "zip_code": "7201"
  },
  {
    "region": "Region 10 (Northern Mindanao)",
    "province": "Misamis Occidental",
    "city_municipality": "Tudela",
    "zip_code": "7202"
  },
  {
    "region": "Region 10 (Northern Mindanao)",
    "province": "Misamis Occidental",
    "city_municipality": "Sinacaban",
    "zip_code": "7203"
  },
  {
    "region": "Region 10 (Northern Mindanao)",
    "province": "Misamis Occidental",
    "city_municipality": "Jimenez",
    "zip_code": "7204"
  },
  {
    "region": "Region 10 (Northern Mindanao)",
    "province": "Misamis Occidental",
    "city_municipality": "Panaon",
    "zip_code": "7205"
  },
  {
    "region": "Region 10 (Northern Mindanao)",
    "province": "Misamis Occidental",
    "city_municipality": "Aloran",
    "zip_code": "7206"
  },
  {
    "region": "Region 10 (Northern Mindanao)",
    "province": "Misamis Occidental",
    "city_municipality": "Oroquieta City",
    "zip_code": "7207"
  },
  {
    "region": "Region 10 (Northern Mindanao)",
    "province": "Misamis Occidental",
    "city_municipality": "Lopez Jaena",
    "zip_code": "7208"
  },
  {
    "region": "Region 10 (Northern Mindanao)",
    "province": "Misamis Occidental",
    "city_municipality": "Plaridel",
    "zip_code": "7209"
  },
  {
    "region": "Region 10 (Northern Mindanao)",
    "province": "Misamis Occidental",
    "city_municipality": "Calamba",
    "zip_code": "7210"
  },
  {
    "region": "Region 10 (Northern Mindanao)",
    "province": "Misamis Occidental",
    "city_municipality": "Baliangao",
    "zip_code": "7211"
  },
  {
    "region": "Region 10 (Northern Mindanao)",
    "province": "Aurora",
    "city_municipality": "Sapang dalaga",
    "zip_code": "7212"
  },
  {
    "region": "Region 10 (Northern Mindanao)",
    "province": "Misamis Occidental",
    "city_municipality": "Concepcion",
    "zip_code": "7213"
  },
  {
    "region": "Region 10 (Northern Mindanao)",
    "province": "Misamis Occidental",
    "city_municipality": "Tangub City",
    "zip_code": "7214"
  },
  {
    "region": "Region 10 (Northern Mindanao)",
    "province": "Misamis Occidental",
    "city_municipality": "Bonifacio",
    "zip_code": "7215"
  },
  {
    "region": "Region 10 (Northern Mindanao)",
    "province": "Misamis Occidental",
    "city_municipality": "Don Victoriano Chiongbian",
    "zip_code": "7216"
  },
  {
    "region": "Region 11 (Davao Region)",
    "province": "Davao del Sur",
    "city_municipality": "Davao City",
    "zip_code": "8000"
  },
  {
    "region": "Region 11 (Davao Region)",
    "province": "Davao del Sur",
    "city_municipality": "Santa Cruz",
    "zip_code": "8001"
  },
  {
    "region": "Region 11 (Davao Region)",
    "province": "Davao del Sur",
    "city_municipality": "Digos",
    "zip_code": "8002"
  },
  {
    "region": "Region 11 (Davao Region)",
    "province": "Davao del Sur",
    "city_municipality": "Matanao",
    "zip_code": "8003"
  },
  {
    "region": "Region 11 (Davao Region)",
    "province": "Davao del Sur",
    "city_municipality": "Magsaysay",
    "zip_code": "8004"
  },
  {
    "region": "Region 11 (Davao Region)",
    "province": "Davao del Sur",
    "city_municipality": "Bansalan",
    "zip_code": "8005"
  },
  {
    "region": "Region 11 (Davao Region)",
    "province": "Davao del Sur",
    "city_municipality": "Hagonoy",
    "zip_code": "8006"
  },
  {
    "region": "Region 11 (Davao Region)",
    "province": "Davao del Sur",
    "city_municipality": "Padada",
    "zip_code": "8007"
  },
  {
    "region": "Region 11 (Davao Region)",
    "province": "Davao del Sur",
    "city_municipality": "Kiblawan",
    "zip_code": "8008"
  },
  {
    "region": "Region 11 (Davao Region)",
    "province": "Davao del Sur",
    "city_municipality": "Sulop",
    "zip_code": "8009"
  },
  {
    "region": "Region 11 (Davao Region)",
    "province": "Davao del Sur",
    "city_municipality": "Malalag",
    "zip_code": "8010"
  },
  {
    "region": "Region 11 (Davao Region)",
    "province": "Davao Occidental",
    "city_municipality": "Santa Maria",
    "zip_code": "8011"
  },
  {
    "region": "Region 11 (Davao Region)",
    "province": "Davao Occidental",
    "city_municipality": "Malita",
    "zip_code": "8012"
  },
  {
    "region": "Region 11 (Davao Region)",
    "province": "Davao Occidental",
    "city_municipality": "Don Marcelino",
    "zip_code": "8013"
  },
  {
    "region": "Region 11 (Davao Region)",
    "province": "Davao Occidental",
    "city_municipality": "Jose Abad Santos",
    "zip_code": "8014"
  },
  {
    "region": "Region 11 (Davao Region)",
    "province": "Davao Occidental",
    "city_municipality": "Sarangani",
    "zip_code": "8015"
  },
  {
    "region": "Region 11 (Davao Region)",
    "province": "Davao del Sur",
    "city_municipality": "Ateneo",
    "zip_code": "8016"
  },
  {
    "region": "Region 11 (Davao Region)",
    "province": "Davao del Sur",
    "city_municipality": "Bunawan",
    "zip_code": "8017"
  },
  {
    "region": "Region 11 (Davao Region)",
    "province": "Davao del Sur",
    "city_municipality": "Calinan",
    "zip_code": "8018"
  },
  {
    "region": "Region 11 (Davao Region)",
    "province": "Davao del Sur",
    "city_municipality": "Davao International Airport",
    "zip_code": "8019"
  },
  {
    "region": "Region 11 (Davao Region)",
    "province": "Davao del Sur",
    "city_municipality": "Mandug",
    "zip_code": "8020"
  },
  {
    "region": "Region 11 (Davao Region)",
    "province": "Davao del Sur",
    "city_municipality": "Matina",
    "zip_code": "8021"
  },
  {
    "region": "Region 11 (Davao Region)",
    "province": "Davao del Sur",
    "city_municipality": "Mintal",
    "zip_code": "8022"
  },
  {
    "region": "Region 11 (Davao Region)",
    "province": "Davao del Sur",
    "city_municipality": "Talomo",
    "zip_code": "8023"
  },
  {
    "region": "Region 11 (Davao Region)",
    "province": "Davao del Sur",
    "city_municipality": "Tibungco",
    "zip_code": "8024"
  },
  {
    "region": "Region 11 (Davao Region)",
    "province": "Davao del Sur",
    "city_municipality": "Toril",
    "zip_code": "8025"
  },
  {
    "region": "Region 11 (Davao Region)",
    "province": "Davao del Sur",
    "city_municipality": "University of Mindanao",
    "zip_code": "8026"
  },
  {
    "region": "Region 11 (Davao Region)",
    "province": "Davao Del Norte",
    "city_municipality": "Tagum",
    "zip_code": "8100"
  },
  {
    "region": "Region 11 (Davao Region)",
    "province": "Davao Del Norte",
    "city_municipality": "Carmen",
    "zip_code": "8101"
  },
  {
    "region": "Region 11 (Davao Region)",
    "province": "Davao Del Norte",
    "city_municipality": "Asuncion (formerly Saug)",
    "zip_code": "8102"
  },
  {
    "region": "Region 11 (Davao Region)",
    "province": "Davao Del Norte",
    "city_municipality": "New Corella",
    "zip_code": "8104"
  },
  {
    "region": "Region 11 (Davao Region)",
    "province": "Davao Del Norte",
    "city_municipality": "Panabo",
    "zip_code": "8105"
  },
  {
    "region": "Region 11 (Davao Region)",
    "province": "Davao Del Norte",
    "city_municipality": "Braulio E. Dujali",
    "zip_code": "8106"
  },
  {
    "region": "Region 11 (Davao Region)",
    "province": "Davao Del Norte",
    "city_municipality": "Talaingod",
    "zip_code": "8107"
  },
  {
    "region": "Region 11 (Davao Region)",
    "province": "Davao Del Norte",
    "city_municipality": "Santo Tomas",
    "zip_code": "8112"
  },
  {
    "region": "Region 11 (Davao Region)",
    "province": "Davao Del Norte",
    "city_municipality": "Kapalong",
    "zip_code": "8113"
  },
  {
    "region": "Region 11 (Davao Region)",
    "province": "Davao Del Norte",
    "city_municipality": "Babak",
    "zip_code": "8118"
  },
  {
    "region": "Region 11 (Davao Region)",
    "province": "Davao Del Norte",
    "city_municipality": "Samal",
    "zip_code": "8119"
  },
  {
    "region": "Region 11 (Davao Region)",
    "province": "Davao Del Norte",
    "city_municipality": "Kaputian",
    "zip_code": "8120"
  },
  {
    "region": "Region 11 (Davao Region)",
    "province": "Davao Del Norte",
    "city_municipality": "San Isidro",
    "zip_code": "8121"
  },
  {
    "region": "Region 11 (Davao Region)",
    "province": "Davao Oriental",
    "city_municipality": "Mati",
    "zip_code": "8200"
  },
  {
    "region": "Region 11 (Davao Region)",
    "province": "Davao Oriental",
    "city_municipality": "Tarragona",
    "zip_code": "8201"
  },
  {
    "region": "Region 11 (Davao Region)",
    "province": "Davao Oriental",
    "city_municipality": "Manay",
    "zip_code": "8202"
  },
  {
    "region": "Region 11 (Davao Region)",
    "province": "Davao Oriental",
    "city_municipality": "Caraga",
    "zip_code": "8203"
  },
  {
    "region": "Region 11 (Davao Region)",
    "province": "Davao Oriental",
    "city_municipality": "Baganga",
    "zip_code": "8204"
  },
  {
    "region": "Region 11 (Davao Region)",
    "province": "Davao Oriental",
    "city_municipality": "Cateel",
    "zip_code": "8205"
  },
  {
    "region": "Region 11 (Davao Region)",
    "province": "Davao Oriental",
    "city_municipality": "Boston",
    "zip_code": "8206"
  },
  {
    "region": "Region 11 (Davao Region)",
    "province": "Davao Oriental",
    "city_municipality": "Lupon",
    "zip_code": "8207"
  },
  {
    "region": "Region 11 (Davao Region)",
    "province": "Davao Oriental",
    "city_municipality": "Banaybanay",
    "zip_code": "8208"
  },
  {
    "region": "Region 11 (Davao Region)",
    "province": "Davao Oriental",
    "city_municipality": "San Isidro",
    "zip_code": "8209"
  },
  {
    "region": "Region 11 (Davao Region)",
    "province": "Davao Oriental",
    "city_municipality": "Gov. Generoso",
    "zip_code": "8210"
  },
  {
    "region": "Region 13 (Caraga Region)",
    "province": "Surigao Del Sur",
    "city_municipality": "Tandag",
    "zip_code": "8300"
  },
  {
    "region": "Region 13 (Caraga Region)",
    "province": "Surigao Del Sur",
    "city_municipality": "San Miguel",
    "zip_code": "8301"
  },
  {
    "region": "Region 13 (Caraga Region)",
    "province": "Surigao Del Sur",
    "city_municipality": "Tago",
    "zip_code": "8302"
  },
  {
    "region": "Region 13 (Caraga Region)",
    "province": "Surigao Del Sur",
    "city_municipality": "Bayabas",
    "zip_code": "8303"
  },
  {
    "region": "Region 13 (Caraga Region)",
    "province": "Surigao Del Sur",
    "city_municipality": "Cagwait",
    "zip_code": "8304"
  },
  {
    "region": "Region 13 (Caraga Region)",
    "province": "Surigao Del Sur",
    "city_municipality": "San Agustin",
    "zip_code": "8305"
  },
  {
    "region": "Region 13 (Caraga Region)",
    "province": "Surigao Del Sur",
    "city_municipality": "Marihatag",
    "zip_code": "8306"
  },
  {
    "region": "Region 13 (Caraga Region)",
    "province": "Surigao Del Sur",
    "city_municipality": "Lianga",
    "zip_code": "8307"
  },
  {
    "region": "Region 13 (Caraga Region)",
    "province": "Surigao Del Sur",
    "city_municipality": "Tagbina",
    "zip_code": "8308"
  },
  {
    "region": "Region 13 (Caraga Region)",
    "province": "Surigao Del Sur",
    "city_municipality": "Barobo",
    "zip_code": "8309"
  },
  {
    "region": "Region 13 (Caraga Region)",
    "province": "Surigao Del Sur",
    "city_municipality": "Hinatuan",
    "zip_code": "8310"
  },
  {
    "region": "Region 13 (Caraga Region)",
    "province": "Surigao Del Sur",
    "city_municipality": "Bislig",
    "zip_code": "8311"
  },
  {
    "region": "Region 13 (Caraga Region)",
    "province": "Surigao Del Sur",
    "city_municipality": "Lingig",
    "zip_code": "8312"
  },
  {
    "region": "Region 13 (Caraga Region)",
    "province": "Surigao Del Sur",
    "city_municipality": "Cortez",
    "zip_code": "8313"
  },
  {
    "region": "Region 13 (Caraga Region)",
    "province": "Surigao Del Sur",
    "city_municipality": "Lanuza",
    "zip_code": "8314"
  },
  {
    "region": "Region 13 (Caraga Region)",
    "province": "Surigao del Norte",
    "city_municipality": "Carmen",
    "zip_code": "8315"
  },
  {
    "region": "Region 13 (Caraga Region)",
    "province": "Surigao Del Sur",
    "city_municipality": "Madrid",
    "zip_code": "8316"
  },
  {
    "region": "Region 13 (Caraga Region)",
    "province": "Surigao Del Sur",
    "city_municipality": "Cantilan",
    "zip_code": "8317"
  },
  {
    "region": "Region 13 (Caraga Region)",
    "province": "Surigao Del Sur",
    "city_municipality": "Carrascal",
    "zip_code": "8318"
  },
  {
    "region": "Region 13 (Caraga Region)",
    "province": "Surigao Del Sur",
    "city_municipality": "Malixi",
    "zip_code": "8319"
  },
  {
    "region": "Region 13 (Caraga Region)",
    "province": "Surigao del Norte",
    "city_municipality": "Surigao City",
    "zip_code": "8400"
  },
  {
    "region": "Region 13 (Caraga Region)",
    "province": "Surigao del Norte",
    "city_municipality": "San Francisco",
    "zip_code": "8401"
  },
  {
    "region": "Region 13 (Caraga Region)",
    "province": "Surigao del Norte",
    "city_municipality": "Malimono",
    "zip_code": "8402"
  },
  {
    "region": "Region 13 (Caraga Region)",
    "province": "Surigao del Norte",
    "city_municipality": "Tagana-an",
    "zip_code": "8403"
  },
  {
    "region": "Region 13 (Caraga Region)",
    "province": "Surigao del Norte",
    "city_municipality": "Sison",
    "zip_code": "8404"
  },
  {
    "region": "Region 13 (Caraga Region)",
    "province": "Surigao del Norte",
    "city_municipality": "Placer",
    "zip_code": "8405"
  },
  {
    "region": "Region 13 (Caraga Region)",
    "province": "Surigao del Norte",
    "city_municipality": "Tubod",
    "zip_code": "8406"
  },
  {
    "region": "Region 13 (Caraga Region)",
    "province": "Surigao del Norte",
    "city_municipality": "Mainit",
    "zip_code": "8407"
  },
  {
    "region": "Region 13 (Caraga Region)",
    "province": "Surigao del Norte",
    "city_municipality": "Bacuag",
    "zip_code": "8408"
  },
  {
    "region": "Region 13 (Caraga Region)",
    "province": "Surigao del Norte",
    "city_municipality": "Gigaquit",
    "zip_code": "8409"
  },
  {
    "region": "Region 13 (Caraga Region)",
    "province": "Surigao del Norte",
    "city_municipality": "Claver",
    "zip_code": "8410"
  },
  {
    "region": "Region 13 (Caraga Region)",
    "province": "Dinagat Islands",
    "city_municipality": "Cagdianao",
    "zip_code": "8411"
  },
  {
    "region": "Region 13 (Caraga Region)",
    "province": "Dinagat Islands",
    "city_municipality": "Dinagat",
    "zip_code": "8412"
  },
  {
    "region": "Region 13 (Caraga Region)",
    "province": "Dinagat Islands",
    "city_municipality": "Basilisa (formerly Rizal)",
    "zip_code": "8413"
  },
  {
    "region": "Region 13 (Caraga Region)",
    "province": "Dinagat Islands",
    "city_municipality": "Libjo (formerly Albor",
    "zip_code": "8414"
  },
  {
    "region": "Region 13 (Caraga Region)",
    "province": "Dinagat Islands",
    "city_municipality": "Loreto",
    "zip_code": "8415"
  },
  {
    "region": "Region 13 (Caraga Region)",
    "province": "Surigao del Norte",
    "city_municipality": "Socorro",
    "zip_code": "8416"
  },
  {
    "region": "Region 13 (Caraga Region)",
    "province": "Surigao del Norte",
    "city_municipality": "Dapa",
    "zip_code": "8417"
  },
  {
    "region": "Region 13 (Caraga Region)",
    "province": "Surigao del Norte",
    "city_municipality": "Del Carmen",
    "zip_code": "8418"
  },
  {
    "region": "Region 13 (Caraga Region)",
    "province": "Surigao del Norte",
    "city_municipality": "Gen. Luna",
    "zip_code": "8419"
  },
  {
    "region": "Region 13 (Caraga Region)",
    "province": "Surigao del Norte",
    "city_municipality": "Pilar",
    "zip_code": "8420"
  },
  {
    "region": "Region 13 (Caraga Region)",
    "province": "Surigao del Norte",
    "city_municipality": "San Isidro",
    "zip_code": "8421"
  },
  {
    "region": "Region 13 (Caraga Region)",
    "province": "Surigao del Norte",
    "city_municipality": "Sta. Monica",
    "zip_code": "8422"
  },
  {
    "region": "Region 13 (Caraga Region)",
    "province": "Surigao del Norte",
    "city_municipality": "San Benito",
    "zip_code": "8423"
  },
  {
    "region": "Region 13 (Caraga Region)",
    "province": "Surigao del Norte",
    "city_municipality": "Burgos",
    "zip_code": "8424"
  },
  {
    "region": "Region 13 (Caraga Region)",
    "province": "Surigao del Norte",
    "city_municipality": "Alegria",
    "zip_code": "8425"
  },
  {
    "region": "Region 13 (Caraga Region)",
    "province": "Dinagat Islands",
    "city_municipality": "Tubajon",
    "zip_code": "8426"
  },
  {
    "region": "Region 13 (Caraga Region)",
    "province": "Dinagat Islands",
    "city_municipality": "San Jose",
    "zip_code": "8427"
  },
  {
    "region": "Region 13 (Caraga Region)",
    "province": "Agusan del Sur",
    "city_municipality": "Prosperidad",
    "zip_code": "8500"
  },
  {
    "region": "Region 13 (Caraga Region)",
    "province": "Agusan del Sur",
    "city_municipality": "San Francisco",
    "zip_code": "8501"
  },
  {
    "region": "Region 13 (Caraga Region)",
    "province": "Agusan del Sur",
    "city_municipality": "Bayugan",
    "zip_code": "8502"
  },
  {
    "region": "Region 13 (Caraga Region)",
    "province": "Agusan del Sur",
    "city_municipality": "Sibagat",
    "zip_code": "8503"
  },
  {
    "region": "Region 13 (Caraga Region)",
    "province": "Agusan del Sur",
    "city_municipality": "Rosario",
    "zip_code": "8504"
  },
  {
    "region": "Region 13 (Caraga Region)",
    "province": "Agusan del Sur",
    "city_municipality": "Trento",
    "zip_code": "8505"
  },
  {
    "region": "Region 13 (Caraga Region)",
    "province": "Agusan del Sur",
    "city_municipality": "Bunawan",
    "zip_code": "8506"
  },
  {
    "region": "Region 13 (Caraga Region)",
    "province": "Agusan del Sur",
    "city_municipality": "Loreto",
    "zip_code": "8507"
  },
  {
    "region": "Region 13 (Caraga Region)",
    "province": "Agusan del Sur",
    "city_municipality": "La Paz",
    "zip_code": "8508"
  },
  {
    "region": "Region 13 (Caraga Region)",
    "province": "Agusan del Sur",
    "city_municipality": "Veruela",
    "zip_code": "8509"
  },
  {
    "region": "Region 13 (Caraga Region)",
    "province": "Agusan del Sur",
    "city_municipality": "Talacogon",
    "zip_code": "8510"
  },
  {
    "region": "Region 13 (Caraga Region)",
    "province": "Agusan del Sur",
    "city_municipality": "San Luis",
    "zip_code": "8511"
  },
  {
    "region": "Region 13 (Caraga Region)",
    "province": "Agusan del Sur",
    "city_municipality": "Sta. Josefa",
    "zip_code": "8512"
  },
  {
    "region": "Region 13 (Caraga Region)",
    "province": "Agusan del Sur",
    "city_municipality": "Esperanza",
    "zip_code": "8513"
  },
  {
    "region": "Region 13 (Caraga Region)",
    "province": "Agusan del Norte",
    "city_municipality": "Butuan City",
    "zip_code": "8600"
  },
  {
    "region": "Region 13 (Caraga Region)",
    "province": "Agusan del Norte",
    "city_municipality": "Buenavista",
    "zip_code": "8601"
  },
  {
    "region": "Region 13 (Caraga Region)",
    "province": "Agusan del Norte",
    "city_municipality": "Nasipit",
    "zip_code": "8602"
  },
  {
    "region": "Region 13 (Caraga Region)",
    "province": "Agusan del Norte",
    "city_municipality": "Carmen",
    "zip_code": "8603"
  },
  {
    "region": "Region 13 (Caraga Region)",
    "province": "Agusan del Norte",
    "city_municipality": "Magallanes",
    "zip_code": "8604"
  },
  {
    "region": "Region 13 (Caraga Region)",
    "province": "Agusan del Norte",
    "city_municipality": "Cabadbaran",
    "zip_code": "8605"
  },
  {
    "region": "Region 13 (Caraga Region)",
    "province": "Agusan del Norte",
    "city_municipality": "Tubay",
    "zip_code": "8606"
  },
  {
    "region": "Region 13 (Caraga Region)",
    "province": "Agusan del Norte",
    "city_municipality": "Jabonga",
    "zip_code": "8607"
  },
  {
    "region": "Region 13 (Caraga Region)",
    "province": "Agusan del Norte",
    "city_municipality": "Santiago",
    "zip_code": "8608"
  },
  {
    "region": "Region 13 (Caraga Region)",
    "province": "Agusan del Norte",
    "city_municipality": "Kitcharao",
    "zip_code": "8609"
  },
  {
    "region": "Region 13 (Caraga Region)",
    "province": "Agusan del Norte",
    "city_municipality": "Las Nieves",
    "zip_code": "8610"
  },
  {
    "region": "Region 13 (Caraga Region)",
    "province": "Agusan del Norte",
    "city_municipality": "Remedios T. Romualdez",
    "zip_code": "8611"
  },
  {
    "region": "Region 10 (Northern Mindanao)",
    "province": "Bukidnon",
    "city_municipality": "Malaybalay",
    "zip_code": "8700"
  },
  {
    "region": "Region 10 (Northern Mindanao)",
    "province": "Bukidnon",
    "city_municipality": "Sumilao",
    "zip_code": "8701"
  },
  {
    "region": "Region 10 (Northern Mindanao)",
    "province": "Bukidnon",
    "city_municipality": "Manolo Fortich",
    "zip_code": "8703"
  },
  {
    "region": "Region 10 (Northern Mindanao)",
    "province": "Bukidnon",
    "city_municipality": "Malitbog",
    "zip_code": "8704"
  },
  {
    "region": "Region 10 (Northern Mindanao)",
    "province": "Bukidnon",
    "city_municipality": "Phillips",
    "zip_code": "8705"
  },
  {
    "region": "Region 10 (Northern Mindanao)",
    "province": "Bukidnon",
    "city_municipality": "Libona",
    "zip_code": "8706"
  },
  {
    "region": "Region 10 (Northern Mindanao)",
    "province": "Bukidnon",
    "city_municipality": "Talakag",
    "zip_code": "8708"
  },
  {
    "region": "Region 10 (Northern Mindanao)",
    "province": "Bukidnon",
    "city_municipality": "Valencia",
    "zip_code": "8709"
  },
  {
    "region": "Region 10 (Northern Mindanao)",
    "province": "Bukidnon",
    "city_municipality": "Musuan",
    "zip_code": "8710"
  },
  {
    "region": "Region 10 (Northern Mindanao)",
    "province": "Bukidnon",
    "city_municipality": "San Fernando",
    "zip_code": "8711"
  },
  {
    "region": "Region 10 (Northern Mindanao)",
    "province": "Bukidnon",
    "city_municipality": "Maramag",
    "zip_code": "8714"
  },
  {
    "region": "Region 10 (Northern Mindanao)",
    "province": "Bukidnon",
    "city_municipality": "Quezon",
    "zip_code": "8715"
  },
  {
    "region": "Region 10 (Northern Mindanao)",
    "province": "Agusan del Norte",
    "city_municipality": "Kitaotao",
    "zip_code": "8716"
  },
  {
    "region": "Region 10 (Northern Mindanao)",
    "province": "Bukidnon",
    "city_municipality": "Pangantucan",
    "zip_code": "8717"
  },
  {
    "region": "Region 10 (Northern Mindanao)",
    "province": "Agusan del Norte",
    "city_municipality": "Lantapan",
    "zip_code": "8722"
  },
  {
    "region": "Region 11 (Davao Region)",
    "province": "Davao De Oro (Formerly Compostela Valley)",
    "city_municipality": "Nabunturan",
    "zip_code": "8800"
  },
  {
    "region": "Region 11 (Davao Region)",
    "province": "Davao De Oro (Formerly Compostela Valley)",
    "city_municipality": "Montevista",
    "zip_code": "8801"
  },
  {
    "region": "Region 11 (Davao Region)",
    "province": "Davao De Oro (Formerly Compostela Valley)",
    "city_municipality": "Mawab",
    "zip_code": "8802"
  },
  {
    "region": "Region 11 (Davao Region)",
    "province": "Davao De Oro (Formerly Compostela Valley)",
    "city_municipality": "Compostela",
    "zip_code": "8803"
  },
  {
    "region": "Region 11 (Davao Region)",
    "province": "Davao De Oro (Formerly Compostela Valley)",
    "city_municipality": "New Bataan",
    "zip_code": "8804"
  },
  {
    "region": "Region 11 (Davao Region)",
    "province": "Davao De Oro (Formerly Compostela Valley)",
    "city_municipality": "Monkayo",
    "zip_code": "8805"
  },
  {
    "region": "Region 11 (Davao Region)",
    "province": "Davao De Oro (Formerly Compostela Valley)",
    "city_municipality": "Maco",
    "zip_code": "8806"
  },
  {
    "region": "Region 11 (Davao Region)",
    "province": "Davao De Oro (Formerly Compostela Valley)",
    "city_municipality": "Mabini",
    "zip_code": "8807"
  },
  {
    "region": "Region 11 (Davao Region)",
    "province": "Davao De Oro (Formerly Compostela Valley)",
    "city_municipality": "Maragusan (formerly San Mariano)",
    "zip_code": "8808"
  },
  {
    "region": "Region 11 (Davao Region)",
    "province": "Davao De Oro (Formerly Compostela Valley)",
    "city_municipality": "Pantukan",
    "zip_code": "8809"
  },
  {
    "region": "Region 11 (Davao Region)",
    "province": "Davao De Oro (Formerly Compostela Valley)",
    "city_municipality": "Laak (formerly San Vicente)",
    "zip_code": "8810"
  },
  {
    "region": "Region 10 (Northern Mindanao)",
    "province": "Misamis Oriental",
    "city_municipality": "Cagayan de Oro City",
    "zip_code": "9000"
  },
  {
    "region": "Region 10 (Northern Mindanao)",
    "province": "Aurora",
    "city_municipality": "Tagoloan",
    "zip_code": "9001"
  },
  {
    "region": "Region 10 (Northern Mindanao)",
    "province": "Misamis Oriental",
    "city_municipality": "Villanueva",
    "zip_code": "9002"
  },
  {
    "region": "Region 10 (Northern Mindanao)",
    "province": "Misamis Oriental",
    "city_municipality": "Jasaan",
    "zip_code": "9003"
  },
  {
    "region": "Region 10 (Northern Mindanao)",
    "province": "Misamis Oriental",
    "city_municipality": "Claveria",
    "zip_code": "9004"
  },
  {
    "region": "Region 10 (Northern Mindanao)",
    "province": "Misamis Oriental",
    "city_municipality": "Balingasag",
    "zip_code": "9005"
  },
  {
    "region": "Region 10 (Northern Mindanao)",
    "province": "Misamis Oriental",
    "city_municipality": "Lagonglong",
    "zip_code": "9006"
  },
  {
    "region": "Region 10 (Northern Mindanao)",
    "province": "Misamis Oriental",
    "city_municipality": "Salay",
    "zip_code": "9007"
  },
  {
    "region": "Region 10 (Northern Mindanao)",
    "province": "Misamis Oriental",
    "city_municipality": "Binuangan",
    "zip_code": "9008"
  },
  {
    "region": "Region 10 (Northern Mindanao)",
    "province": "Misamis Oriental",
    "city_municipality": "Sugbongcogon",
    "zip_code": "9009"
  },
  {
    "region": "Region 10 (Northern Mindanao)",
    "province": "Misamis Oriental",
    "city_municipality": "Kinoguitan",
    "zip_code": "9010"
  },
  {
    "region": "Region 10 (Northern Mindanao)",
    "province": "Misamis Oriental",
    "city_municipality": "Balingoan",
    "zip_code": "9011"
  },
  {
    "region": "Region 10 (Northern Mindanao)",
    "province": "Misamis Oriental",
    "city_municipality": "Balingoan",
    "zip_code": "9011"
  },
  {
    "region": "Region 10 (Northern Mindanao)",
    "province": "Misamis Oriental",
    "city_municipality": "Talisayan",
    "zip_code": "9012"
  },
  {
    "region": "Region 10 (Northern Mindanao)",
    "province": "Misamis Oriental",
    "city_municipality": "Medina",
    "zip_code": "9013"
  },
  {
    "region": "Region 10 (Northern Mindanao)",
    "province": "Misamis Oriental",
    "city_municipality": "Gingoog City",
    "zip_code": "9014"
  },
  {
    "region": "Region 10 (Northern Mindanao)",
    "province": "Misamis Oriental",
    "city_municipality": "Magsaysay",
    "zip_code": "9015"
  },
  {
    "region": "Region 10 (Northern Mindanao)",
    "province": "Misamis Oriental",
    "city_municipality": "Opol",
    "zip_code": "9016"
  },
  {
    "region": "Region 10 (Northern Mindanao)",
    "province": "Misamis Oriental",
    "city_municipality": "El Salvador",
    "zip_code": "9017"
  },
  {
    "region": "Region 10 (Northern Mindanao)",
    "province": "Misamis Oriental",
    "city_municipality": "Alubijid",
    "zip_code": "9018"
  },
  {
    "region": "Region 10 (Northern Mindanao)",
    "province": "Misamis Oriental",
    "city_municipality": "Laguindingan",
    "zip_code": "9019"
  },
  {
    "region": "Region 10 (Northern Mindanao)",
    "province": "Misamis Oriental",
    "city_municipality": "Gitagum",
    "zip_code": "9020"
  },
  {
    "region": "Region 10 (Northern Mindanao)",
    "province": "Misamis Oriental",
    "city_municipality": "Libertad",
    "zip_code": "9021"
  },
  {
    "region": "Region 10 (Northern Mindanao)",
    "province": "Misamis Oriental",
    "city_municipality": "Initao",
    "zip_code": "9022"
  },
  {
    "region": "Region 10 (Northern Mindanao)",
    "province": "Misamis Oriental",
    "city_municipality": "Naawan",
    "zip_code": "9023"
  },
  {
    "region": "Region 10 (Northern Mindanao)",
    "province": "Misamis Oriental",
    "city_municipality": "Manticao",
    "zip_code": "9024"
  },
  {
    "region": "Region 10 (Northern Mindanao)",
    "province": "Misamis Oriental",
    "city_municipality": "Lugait",
    "zip_code": "9025"
  },
  {
    "region": "Region 10 (Northern Mindanao)",
    "province": "Camiguin",
    "city_municipality": "Mambajao",
    "zip_code": "9100"
  },
  {
    "region": "Region 10 (Northern Mindanao)",
    "province": "Camiguin",
    "city_municipality": "Mahinog",
    "zip_code": "9101"
  },
  {
    "region": "Region 10 (Northern Mindanao)",
    "province": "Camiguin",
    "city_municipality": "Guinsiliban",
    "zip_code": "9102"
  },
  {
    "region": "Region 10 (Northern Mindanao)",
    "province": "Camiguin",
    "city_municipality": "Sagay",
    "zip_code": "9103"
  },
  {
    "region": "Region 10 (Northern Mindanao)",
    "province": "Camiguin",
    "city_municipality": "Catarman",
    "zip_code": "9104"
  },
  {
    "region": "Region 10 (Northern Mindanao)",
    "province": "Lanao del Norte",
    "city_municipality": "Iligan City",
    "zip_code": "9200"
  },
  {
    "region": "Region 10 (Northern Mindanao)",
    "province": "Lanao del Norte",
    "city_municipality": "Linamon",
    "zip_code": "9201"
  },
  {
    "region": "Region 10 (Northern Mindanao)",
    "province": "Lanao del Norte",
    "city_municipality": "Kauswagan",
    "zip_code": "9202"
  },
  {
    "region": "Region 10 (Northern Mindanao)",
    "province": "Lanao del Norte",
    "city_municipality": "Matungao",
    "zip_code": "9203"
  },
  {
    "region": "Region 10 (Northern Mindanao)",
    "province": "Lanao del Norte",
    "city_municipality": "Poona Piagapo",
    "zip_code": "9204"
  },
  {
    "region": "Region 10 (Northern Mindanao)",
    "province": "Lanao del Norte",
    "city_municipality": "Bacolod",
    "zip_code": "9205"
  },
  {
    "region": "Region 10 (Northern Mindanao)",
    "province": "Lanao del Norte",
    "city_municipality": "Maigo",
    "zip_code": "9206"
  },
  {
    "region": "Region 10 (Northern Mindanao)",
    "province": "Lanao del Norte",
    "city_municipality": "Kolambugan",
    "zip_code": "9207"
  },
  {
    "region": "Region 10 (Northern Mindanao)",
    "province": "Lanao del Norte",
    "city_municipality": "Pantao Ragat",
    "zip_code": "9208"
  },
  {
    "region": "Region 10 (Northern Mindanao)",
    "province": "Lanao del Norte",
    "city_municipality": "Tubod",
    "zip_code": "9209"
  },
  {
    "region": "Region 10 (Northern Mindanao)",
    "province": "Lanao del Norte",
    "city_municipality": "Baroy",
    "zip_code": "9210"
  },
  {
    "region": "Region 10 (Northern Mindanao)",
    "province": "Lanao del Norte",
    "city_municipality": "Lala",
    "zip_code": "9211"
  },
  {
    "region": "Region 10 (Northern Mindanao)",
    "province": "Lanao del Norte",
    "city_municipality": "Salvador",
    "zip_code": "9212"
  },
  {
    "region": "Region 10 (Northern Mindanao)",
    "province": "Lanao del Norte",
    "city_municipality": "Sapad",
    "zip_code": "9213"
  },
  {
    "region": "Region 10 (Northern Mindanao)",
    "province": "Lanao del Norte",
    "city_municipality": "Kapatagan",
    "zip_code": "9214"
  },
  {
    "region": "Region 10 (Northern Mindanao)",
    "province": "Lanao del Norte",
    "city_municipality": "Sultan Naga Dimaporo (formerly Karomatan)",
    "zip_code": "9215"
  },
  {
    "region": "Region 10 (Northern Mindanao)",
    "province": "Lanao del Norte",
    "city_municipality": "Nunungan",
    "zip_code": "9216"
  },
  {
    "region": "Region 10 (Northern Mindanao)",
    "province": "Lanao del Norte",
    "city_municipality": "Baloi",
    "zip_code": "9217"
  },
  {
    "region": "Region 10 (Northern Mindanao)",
    "province": "Lanao del Norte",
    "city_municipality": "Pantar",
    "zip_code": "9218"
  },
  {
    "region": "Region 10 (Northern Mindanao)",
    "province": "Lanao del Norte",
    "city_municipality": "Munai",
    "zip_code": "9219"
  },
  {
    "region": "Region 10 (Northern Mindanao)",
    "province": "Lanao del Norte",
    "city_municipality": "Tangcal",
    "zip_code": "9220"
  },
  {
    "region": "Region 10 (Northern Mindanao)",
    "province": "Lanao del Norte",
    "city_municipality": "Magsaysay",
    "zip_code": "9221"
  },
  {
    "region": "Region 10 (Northern Mindanao)",
    "province": "Lanao del Norte",
    "city_municipality": "Tagoloan",
    "zip_code": "9222"
  },
  {
    "region": "Region 12 (SOCCSKSARGEN)",
    "province": "Cotabato (North)",
    "city_municipality": "Kidapawan",
    "zip_code": "9400"
  },
  {
    "region": "Region 12 (SOCCSKSARGEN)",
    "province": "Cotabato (North)",
    "city_municipality": "Makilala",
    "zip_code": "9401"
  },
  {
    "region": "Region 12 (SOCCSKSARGEN)",
    "province": "Cotabato (North)",
    "city_municipality": "M'lang",
    "zip_code": "9402"
  },
  {
    "region": "Region 12 (SOCCSKSARGEN)",
    "province": "Cotabato (North)",
    "city_municipality": "Tulunan",
    "zip_code": "9403"
  },
  {
    "region": "Region 12 (SOCCSKSARGEN)",
    "province": "Cotabato (North)",
    "city_municipality": "Magpet",
    "zip_code": "9404"
  },
  {
    "region": "Region 12 (SOCCSKSARGEN)",
    "province": "Cotabato (North)",
    "city_municipality": "Pre. Roxas",
    "zip_code": "9405"
  },
  {
    "region": "Region 12 (SOCCSKSARGEN)",
    "province": "Cotabato (North)",
    "city_municipality": "Matalam",
    "zip_code": "9406"
  },
  {
    "region": "Region 12 (SOCCSKSARGEN)",
    "province": "Cotabato (North)",
    "city_municipality": "Kabacan",
    "zip_code": "9407"
  },
  {
    "region": "Region 12 (SOCCSKSARGEN)",
    "province": "Cotabato (North)",
    "city_municipality": "Carmen",
    "zip_code": "9408"
  },
  {
    "region": "Region 12 (SOCCSKSARGEN)",
    "province": "Cotabato (North)",
    "city_municipality": "Pikit",
    "zip_code": "9409"
  },
  {
    "region": "Region 12 (SOCCSKSARGEN)",
    "province": "Cotabato (North)",
    "city_municipality": "Midsayap",
    "zip_code": "9410"
  },
  {
    "region": "Region 12 (SOCCSKSARGEN)",
    "province": "Cotabato (North)",
    "city_municipality": "Libungan",
    "zip_code": "9411"
  },
  {
    "region": "Region 12 (SOCCSKSARGEN)",
    "province": "Cotabato (North)",
    "city_municipality": "Pigkawayan",
    "zip_code": "9412"
  },
  {
    "region": "Region 12 (SOCCSKSARGEN)",
    "province": "Cotabato (North)",
    "city_municipality": "Alamada",
    "zip_code": "9413"
  },
  {
    "region": "Region 12 (SOCCSKSARGEN)",
    "province": "Cotabato (North)",
    "city_municipality": "Antipas",
    "zip_code": "9414"
  },
  {
    "region": "Region 12 (SOCCSKSARGEN)",
    "province": "Cotabato (North)",
    "city_municipality": "Aleosan",
    "zip_code": "9415"
  },
  {
    "region": "Region 12 (SOCCSKSARGEN)",
    "province": "Cotabato (North)",
    "city_municipality": "Banisilan",
    "zip_code": "9416"
  },
  {
    "region": "Region 12 (SOCCSKSARGEN)",
    "province": "Cotabato (North)",
    "city_municipality": "Arakan",
    "zip_code": "9417"
  },
  {
    "region": "Region 12 (SOCCSKSARGEN)",
    "province": "South Cotabato",
    "city_municipality": "Gen. Santos City",
    "zip_code": "9500"
  },
  {
    "region": "Region 12 (SOCCSKSARGEN)",
    "province": "Sarangani",
    "city_municipality": "Alabel",
    "zip_code": "9501"
  },
  {
    "region": "Region 12 (SOCCSKSARGEN)",
    "province": "Sarangani",
    "city_municipality": "Maasim",
    "zip_code": "9502"
  },
  {
    "region": "Region 12 (SOCCSKSARGEN)",
    "province": "Sarangani",
    "city_municipality": "Malungon",
    "zip_code": "9503"
  },
  {
    "region": "Region 12 (SOCCSKSARGEN)",
    "province": "South Cotabato",
    "city_municipality": "Polomolok",
    "zip_code": "9504"
  },
  {
    "region": "Region 12 (SOCCSKSARGEN)",
    "province": "South Cotabato",
    "city_municipality": "Tupi",
    "zip_code": "9505"
  },
  {
    "region": "Region 12 (SOCCSKSARGEN)",
    "province": "South Cotabato",
    "city_municipality": "Koronadal",
    "zip_code": "9506"
  },
  {
    "region": "Region 12 (SOCCSKSARGEN)",
    "province": "South Cotabato",
    "city_municipality": "Tampakan",
    "zip_code": "9507"
  },
  {
    "region": "Region 12 (SOCCSKSARGEN)",
    "province": "South Cotabato",
    "city_municipality": "Norala",
    "zip_code": "9508"
  },
  {
    "region": "Region 12 (SOCCSKSARGEN)",
    "province": "South Cotabato",
    "city_municipality": "Sto. Niño",
    "zip_code": "9509"
  },
  {
    "region": "Region 12 (SOCCSKSARGEN)",
    "province": "South Cotabato",
    "city_municipality": "Tantangan",
    "zip_code": "9510"
  },
  {
    "region": "Region 12 (SOCCSKSARGEN)",
    "province": "South Cotabato",
    "city_municipality": "Banga",
    "zip_code": "9511"
  },
  {
    "region": "Region 12 (SOCCSKSARGEN)",
    "province": "South Cotabato",
    "city_municipality": "Surallah",
    "zip_code": "9512"
  },
  {
    "region": "Region 12 (SOCCSKSARGEN)",
    "province": "Agusan del Norte",
    "city_municipality": "T'boli",
    "zip_code": "9513"
  },
  {
    "region": "Region 12 (SOCCSKSARGEN)",
    "province": "Agusan del Norte",
    "city_municipality": "Kiamba",
    "zip_code": "9514"
  },
  {
    "region": "Region 12 (SOCCSKSARGEN)",
    "province": "Sarangani",
    "city_municipality": "Maitum",
    "zip_code": "9515"
  },
  {
    "region": "Region 12 (SOCCSKSARGEN)",
    "province": "Sarangani",
    "city_municipality": "Malapatan",
    "zip_code": "9516"
  },
  {
    "region": "Region 12 (SOCCSKSARGEN)",
    "province": "Sarangani",
    "city_municipality": "Glan",
    "zip_code": "9517"
  },
  {
    "region": "Region 12 (SOCCSKSARGEN)",
    "province": "South Cotabato",
    "city_municipality": "Lake Sebu",
    "zip_code": "9518"
  },
  {
    "region": "Region 12 (SOCCSKSARGEN)",
    "province": "Sultan Kudarat",
    "city_municipality": "Tacurong",
    "zip_code": "9800"
  },
  {
    "region": "Region 12 (SOCCSKSARGEN)",
    "province": "Sultan Kudarat",
    "city_municipality": "Columbio",
    "zip_code": "9801"
  },
  {
    "region": "Region 12 (SOCCSKSARGEN)",
    "province": "Sultan Kudarat",
    "city_municipality": "Mariano Marcos",
    "zip_code": "9802"
  },
  {
    "region": "Region 12 (SOCCSKSARGEN)",
    "province": "Sultan Kudarat",
    "city_municipality": "Lutayan",
    "zip_code": "9803"
  },
  {
    "region": "Region 12 (SOCCSKSARGEN)",
    "province": "Sultan Kudarat",
    "city_municipality": "Pres. Quirino",
    "zip_code": "9804"
  },
  {
    "region": "Region 12 (SOCCSKSARGEN)",
    "province": "Sultan Kudarat",
    "city_municipality": "Isulan",
    "zip_code": "9805"
  },
  {
    "region": "Region 12 (SOCCSKSARGEN)",
    "province": "Sultan Kudarat",
    "city_municipality": "Esperanza (Ampatuan)",
    "zip_code": "9806"
  },
  {
    "region": "Region 12 (SOCCSKSARGEN)",
    "province": "Sultan Kudarat",
    "city_municipality": "Lebak (Salaman)",
    "zip_code": "9807"
  },
  {
    "region": "Region 12 (SOCCSKSARGEN)",
    "province": "Sultan Kudarat",
    "city_municipality": "Kalamansig",
    "zip_code": "9808"
  },
  {
    "region": "Region 12 (SOCCSKSARGEN)",
    "province": "Sultan Kudarat",
    "city_municipality": "Palimbang",
    "zip_code": "9809"
  },
  {
    "region": "Region 12 (SOCCSKSARGEN)",
    "province": "Sultan Kudarat",
    "city_municipality": "Bagumbayan",
    "zip_code": "9810"
  },
  {
    "region": "Region 12 (SOCCSKSARGEN)",
    "province": "Sultan Kudarat",
    "city_municipality": "Sen. Ninoy Aquino",
    "zip_code": "9811"
  }
]
